filename,location_str,lat_lower,lat_upper,lon_lower,lon_upper
ESA_WorldCover_10m_2021_v200_N00E006_Map.tif,N00E006,0,3,6,9
ESA_WorldCover_10m_2021_v200_N00E009_Map.tif,N00E009,0,3,9,12
ESA_WorldCover_10m_2021_v200_N00E012_Map.tif,N00E012,0,3,12,15
ESA_WorldCover_10m_2021_v200_N00E015_Map.tif,N00E015,0,3,15,18
ESA_WorldCover_10m_2021_v200_N00E018_Map.tif,N00E018,0,3,18,21
ESA_WorldCover_10m_2021_v200_N00E021_Map.tif,N00E021,0,3,21,24
ESA_WorldCover_10m_2021_v200_N00E024_Map.tif,N00E024,0,3,24,27
ESA_WorldCover_10m_2021_v200_N00E027_Map.tif,N00E027,0,3,27,30
ESA_WorldCover_10m_2021_v200_N00E030_Map.tif,N00E030,0,3,30,33
ESA_WorldCover_10m_2021_v200_N00E033_Map.tif,N00E033,0,3,33,36
ESA_WorldCover_10m_2021_v200_N00E036_Map.tif,N00E036,0,3,36,39
ESA_WorldCover_10m_2021_v200_N00E039_Map.tif,N00E039,0,3,39,42
ESA_WorldCover_10m_2021_v200_N00E042_Map.tif,N00E042,0,3,42,45
ESA_WorldCover_10m_2021_v200_N00E045_Map.tif,N00E045,0,3,45,48
ESA_WorldCover_10m_2021_v200_N00E072_Map.tif,N00E072,0,3,72,75
ESA_WorldCover_10m_2021_v200_N00E093_Map.tif,N00E093,0,3,93,96
ESA_WorldCover_10m_2021_v200_N00E096_Map.tif,N00E096,0,3,96,99
ESA_WorldCover_10m_2021_v200_N00E099_Map.tif,N00E099,0,3,99,102
ESA_WorldCover_10m_2021_v200_N00E102_Map.tif,N00E102,0,3,102,105
ESA_WorldCover_10m_2021_v200_N00E105_Map.tif,N00E105,0,3,105,108
ESA_WorldCover_10m_2021_v200_N00E108_Map.tif,N00E108,0,3,108,111
ESA_WorldCover_10m_2021_v200_N00E111_Map.tif,N00E111,0,3,111,114
ESA_WorldCover_10m_2021_v200_N00E114_Map.tif,N00E114,0,3,114,117
ESA_WorldCover_10m_2021_v200_N00E117_Map.tif,N00E117,0,3,117,120
ESA_WorldCover_10m_2021_v200_N00E120_Map.tif,N00E120,0,3,120,123
ESA_WorldCover_10m_2021_v200_N00E123_Map.tif,N00E123,0,3,123,126
ESA_WorldCover_10m_2021_v200_N00E126_Map.tif,N00E126,0,3,126,129
ESA_WorldCover_10m_2021_v200_N00E129_Map.tif,N00E129,0,3,129,132
ESA_WorldCover_10m_2021_v200_N00E132_Map.tif,N00E132,0,3,132,135
ESA_WorldCover_10m_2021_v200_N00E171_Map.tif,N00E171,0,3,171,174
ESA_WorldCover_10m_2021_v200_N00W051_Map.tif,N00W051,0,3,-51,-48
ESA_WorldCover_10m_2021_v200_N00W054_Map.tif,N00W054,0,3,-54,-51
ESA_WorldCover_10m_2021_v200_N00W057_Map.tif,N00W057,0,3,-57,-54
ESA_WorldCover_10m_2021_v200_N00W060_Map.tif,N00W060,0,3,-60,-57
ESA_WorldCover_10m_2021_v200_N00W063_Map.tif,N00W063,0,3,-63,-60
ESA_WorldCover_10m_2021_v200_N00W066_Map.tif,N00W066,0,3,-66,-63
ESA_WorldCover_10m_2021_v200_N00W069_Map.tif,N00W069,0,3,-69,-66
ESA_WorldCover_10m_2021_v200_N00W072_Map.tif,N00W072,0,3,-72,-69
ESA_WorldCover_10m_2021_v200_N00W075_Map.tif,N00W075,0,3,-75,-72
ESA_WorldCover_10m_2021_v200_N00W078_Map.tif,N00W078,0,3,-78,-75
ESA_WorldCover_10m_2021_v200_N00W081_Map.tif,N00W081,0,3,-81,-78
ESA_WorldCover_10m_2021_v200_N00W090_Map.tif,N00W090,0,3,-90,-87
ESA_WorldCover_10m_2021_v200_N00W093_Map.tif,N00W093,0,3,-93,-90
ESA_WorldCover_10m_2021_v200_N00W159_Map.tif,N00W159,0,3,-159,-156
ESA_WorldCover_10m_2021_v200_N03E000_Map.tif,N03E000,3,6,0,3
ESA_WorldCover_10m_2021_v200_N03E003_Map.tif,N03E003,3,6,3,6
ESA_WorldCover_10m_2021_v200_N03E006_Map.tif,N03E006,3,6,6,9
ESA_WorldCover_10m_2021_v200_N03E009_Map.tif,N03E009,3,6,9,12
ESA_WorldCover_10m_2021_v200_N03E012_Map.tif,N03E012,3,6,12,15
ESA_WorldCover_10m_2021_v200_N03E015_Map.tif,N03E015,3,6,15,18
ESA_WorldCover_10m_2021_v200_N03E018_Map.tif,N03E018,3,6,18,21
ESA_WorldCover_10m_2021_v200_N03E021_Map.tif,N03E021,3,6,21,24
ESA_WorldCover_10m_2021_v200_N03E024_Map.tif,N03E024,3,6,24,27
ESA_WorldCover_10m_2021_v200_N03E027_Map.tif,N03E027,3,6,27,30
ESA_WorldCover_10m_2021_v200_N03E030_Map.tif,N03E030,3,6,30,33
ESA_WorldCover_10m_2021_v200_N03E033_Map.tif,N03E033,3,6,33,36
ESA_WorldCover_10m_2021_v200_N03E036_Map.tif,N03E036,3,6,36,39
ESA_WorldCover_10m_2021_v200_N03E039_Map.tif,N03E039,3,6,39,42
ESA_WorldCover_10m_2021_v200_N03E042_Map.tif,N03E042,3,6,42,45
ESA_WorldCover_10m_2021_v200_N03E045_Map.tif,N03E045,3,6,45,48
ESA_WorldCover_10m_2021_v200_N03E048_Map.tif,N03E048,3,6,48,51
ESA_WorldCover_10m_2021_v200_N03E072_Map.tif,N03E072,3,6,72,75
ESA_WorldCover_10m_2021_v200_N03E078_Map.tif,N03E078,3,6,78,81
ESA_WorldCover_10m_2021_v200_N03E093_Map.tif,N03E093,3,6,93,96
ESA_WorldCover_10m_2021_v200_N03E096_Map.tif,N03E096,3,6,96,99
ESA_WorldCover_10m_2021_v200_N03E099_Map.tif,N03E099,3,6,99,102
ESA_WorldCover_10m_2021_v200_N03E102_Map.tif,N03E102,3,6,102,105
ESA_WorldCover_10m_2021_v200_N03E105_Map.tif,N03E105,3,6,105,108
ESA_WorldCover_10m_2021_v200_N03E108_Map.tif,N03E108,3,6,108,111
ESA_WorldCover_10m_2021_v200_N03E111_Map.tif,N03E111,3,6,111,114
ESA_WorldCover_10m_2021_v200_N03E114_Map.tif,N03E114,3,6,114,117
ESA_WorldCover_10m_2021_v200_N03E117_Map.tif,N03E117,3,6,117,120
ESA_WorldCover_10m_2021_v200_N03E120_Map.tif,N03E120,3,6,120,123
ESA_WorldCover_10m_2021_v200_N03E123_Map.tif,N03E123,3,6,123,126
ESA_WorldCover_10m_2021_v200_N03E126_Map.tif,N03E126,3,6,126,129
ESA_WorldCover_10m_2021_v200_N03E156_Map.tif,N03E156,3,6,156,159
ESA_WorldCover_10m_2021_v200_N03E162_Map.tif,N03E162,3,6,162,165
ESA_WorldCover_10m_2021_v200_N03E168_Map.tif,N03E168,3,6,168,171
ESA_WorldCover_10m_2021_v200_N03E171_Map.tif,N03E171,3,6,171,174
ESA_WorldCover_10m_2021_v200_N03W003_Map.tif,N03W003,3,6,-3,0
ESA_WorldCover_10m_2021_v200_N03W006_Map.tif,N03W006,3,6,-6,-3
ESA_WorldCover_10m_2021_v200_N03W009_Map.tif,N03W009,3,6,-9,-6
ESA_WorldCover_10m_2021_v200_N03W012_Map.tif,N03W012,3,6,-12,-9
ESA_WorldCover_10m_2021_v200_N03W051_Map.tif,N03W051,3,6,-51,-48
ESA_WorldCover_10m_2021_v200_N03W054_Map.tif,N03W054,3,6,-54,-51
ESA_WorldCover_10m_2021_v200_N03W057_Map.tif,N03W057,3,6,-57,-54
ESA_WorldCover_10m_2021_v200_N03W060_Map.tif,N03W060,3,6,-60,-57
ESA_WorldCover_10m_2021_v200_N03W063_Map.tif,N03W063,3,6,-63,-60
ESA_WorldCover_10m_2021_v200_N03W066_Map.tif,N03W066,3,6,-66,-63
ESA_WorldCover_10m_2021_v200_N03W069_Map.tif,N03W069,3,6,-69,-66
ESA_WorldCover_10m_2021_v200_N03W072_Map.tif,N03W072,3,6,-72,-69
ESA_WorldCover_10m_2021_v200_N03W075_Map.tif,N03W075,3,6,-75,-72
ESA_WorldCover_10m_2021_v200_N03W078_Map.tif,N03W078,3,6,-78,-75
ESA_WorldCover_10m_2021_v200_N03W081_Map.tif,N03W081,3,6,-81,-78
ESA_WorldCover_10m_2021_v200_N03W165_Map.tif,N03W165,3,6,-165,-162
ESA_WorldCover_10m_2021_v200_N06E000_Map.tif,N06E000,6,9,0,3
ESA_WorldCover_10m_2021_v200_N06E003_Map.tif,N06E003,6,9,3,6
ESA_WorldCover_10m_2021_v200_N06E006_Map.tif,N06E006,6,9,6,9
ESA_WorldCover_10m_2021_v200_N06E009_Map.tif,N06E009,6,9,9,12
ESA_WorldCover_10m_2021_v200_N06E012_Map.tif,N06E012,6,9,12,15
ESA_WorldCover_10m_2021_v200_N06E015_Map.tif,N06E015,6,9,15,18
ESA_WorldCover_10m_2021_v200_N06E018_Map.tif,N06E018,6,9,18,21
ESA_WorldCover_10m_2021_v200_N06E021_Map.tif,N06E021,6,9,21,24
ESA_WorldCover_10m_2021_v200_N06E024_Map.tif,N06E024,6,9,24,27
ESA_WorldCover_10m_2021_v200_N06E027_Map.tif,N06E027,6,9,27,30
ESA_WorldCover_10m_2021_v200_N06E030_Map.tif,N06E030,6,9,30,33
ESA_WorldCover_10m_2021_v200_N06E033_Map.tif,N06E033,6,9,33,36
ESA_WorldCover_10m_2021_v200_N06E036_Map.tif,N06E036,6,9,36,39
ESA_WorldCover_10m_2021_v200_N06E039_Map.tif,N06E039,6,9,39,42
ESA_WorldCover_10m_2021_v200_N06E042_Map.tif,N06E042,6,9,42,45
ESA_WorldCover_10m_2021_v200_N06E045_Map.tif,N06E045,6,9,45,48
ESA_WorldCover_10m_2021_v200_N06E048_Map.tif,N06E048,6,9,48,51
ESA_WorldCover_10m_2021_v200_N06E072_Map.tif,N06E072,6,9,72,75
ESA_WorldCover_10m_2021_v200_N06E075_Map.tif,N06E075,6,9,75,78
ESA_WorldCover_10m_2021_v200_N06E078_Map.tif,N06E078,6,9,78,81
ESA_WorldCover_10m_2021_v200_N06E081_Map.tif,N06E081,6,9,81,84
ESA_WorldCover_10m_2021_v200_N06E090_Map.tif,N06E090,6,9,90,93
ESA_WorldCover_10m_2021_v200_N06E093_Map.tif,N06E093,6,9,93,96
ESA_WorldCover_10m_2021_v200_N06E096_Map.tif,N06E096,6,9,96,99
ESA_WorldCover_10m_2021_v200_N06E099_Map.tif,N06E099,6,9,99,102
ESA_WorldCover_10m_2021_v200_N06E102_Map.tif,N06E102,6,9,102,105
ESA_WorldCover_10m_2021_v200_N06E105_Map.tif,N06E105,6,9,105,108
ESA_WorldCover_10m_2021_v200_N06E111_Map.tif,N06E111,6,9,111,114
ESA_WorldCover_10m_2021_v200_N06E114_Map.tif,N06E114,6,9,114,117
ESA_WorldCover_10m_2021_v200_N06E117_Map.tif,N06E117,6,9,117,120
ESA_WorldCover_10m_2021_v200_N06E120_Map.tif,N06E120,6,9,120,123
ESA_WorldCover_10m_2021_v200_N06E123_Map.tif,N06E123,6,9,123,126
ESA_WorldCover_10m_2021_v200_N06E126_Map.tif,N06E126,6,9,126,129
ESA_WorldCover_10m_2021_v200_N06E132_Map.tif,N06E132,6,9,132,135
ESA_WorldCover_10m_2021_v200_N06E156_Map.tif,N06E156,6,9,156,159
ESA_WorldCover_10m_2021_v200_N06E159_Map.tif,N06E159,6,9,159,162
ESA_WorldCover_10m_2021_v200_N06E165_Map.tif,N06E165,6,9,165,168
ESA_WorldCover_10m_2021_v200_N06E168_Map.tif,N06E168,6,9,168,171
ESA_WorldCover_10m_2021_v200_N06E171_Map.tif,N06E171,6,9,171,174
ESA_WorldCover_10m_2021_v200_N06W003_Map.tif,N06W003,6,9,-3,0
ESA_WorldCover_10m_2021_v200_N06W006_Map.tif,N06W006,6,9,-6,-3
ESA_WorldCover_10m_2021_v200_N06W009_Map.tif,N06W009,6,9,-9,-6
ESA_WorldCover_10m_2021_v200_N06W012_Map.tif,N06W012,6,9,-12,-9
ESA_WorldCover_10m_2021_v200_N06W015_Map.tif,N06W015,6,9,-15,-12
ESA_WorldCover_10m_2021_v200_N06W057_Map.tif,N06W057,6,9,-57,-54
ESA_WorldCover_10m_2021_v200_N06W060_Map.tif,N06W060,6,9,-60,-57
ESA_WorldCover_10m_2021_v200_N06W063_Map.tif,N06W063,6,9,-63,-60
ESA_WorldCover_10m_2021_v200_N06W066_Map.tif,N06W066,6,9,-66,-63
ESA_WorldCover_10m_2021_v200_N06W069_Map.tif,N06W069,6,9,-69,-66
ESA_WorldCover_10m_2021_v200_N06W072_Map.tif,N06W072,6,9,-72,-69
ESA_WorldCover_10m_2021_v200_N06W075_Map.tif,N06W075,6,9,-75,-72
ESA_WorldCover_10m_2021_v200_N06W078_Map.tif,N06W078,6,9,-78,-75
ESA_WorldCover_10m_2021_v200_N06W081_Map.tif,N06W081,6,9,-81,-78
ESA_WorldCover_10m_2021_v200_N06W084_Map.tif,N06W084,6,9,-84,-81
ESA_WorldCover_10m_2021_v200_N09E000_Map.tif,N09E000,9,12,0,3
ESA_WorldCover_10m_2021_v200_N09E003_Map.tif,N09E003,9,12,3,6
ESA_WorldCover_10m_2021_v200_N09E006_Map.tif,N09E006,9,12,6,9
ESA_WorldCover_10m_2021_v200_N09E009_Map.tif,N09E009,9,12,9,12
ESA_WorldCover_10m_2021_v200_N09E012_Map.tif,N09E012,9,12,12,15
ESA_WorldCover_10m_2021_v200_N09E015_Map.tif,N09E015,9,12,15,18
ESA_WorldCover_10m_2021_v200_N09E018_Map.tif,N09E018,9,12,18,21
ESA_WorldCover_10m_2021_v200_N09E021_Map.tif,N09E021,9,12,21,24
ESA_WorldCover_10m_2021_v200_N09E024_Map.tif,N09E024,9,12,24,27
ESA_WorldCover_10m_2021_v200_N09E027_Map.tif,N09E027,9,12,27,30
ESA_WorldCover_10m_2021_v200_N09E030_Map.tif,N09E030,9,12,30,33
ESA_WorldCover_10m_2021_v200_N09E033_Map.tif,N09E033,9,12,33,36
ESA_WorldCover_10m_2021_v200_N09E036_Map.tif,N09E036,9,12,36,39
ESA_WorldCover_10m_2021_v200_N09E039_Map.tif,N09E039,9,12,39,42
ESA_WorldCover_10m_2021_v200_N09E042_Map.tif,N09E042,9,12,42,45
ESA_WorldCover_10m_2021_v200_N09E045_Map.tif,N09E045,9,12,45,48
ESA_WorldCover_10m_2021_v200_N09E048_Map.tif,N09E048,9,12,48,51
ESA_WorldCover_10m_2021_v200_N09E051_Map.tif,N09E051,9,12,51,54
ESA_WorldCover_10m_2021_v200_N09E072_Map.tif,N09E072,9,12,72,75
ESA_WorldCover_10m_2021_v200_N09E075_Map.tif,N09E075,9,12,75,78
ESA_WorldCover_10m_2021_v200_N09E078_Map.tif,N09E078,9,12,78,81
ESA_WorldCover_10m_2021_v200_N09E081_Map.tif,N09E081,9,12,81,84
ESA_WorldCover_10m_2021_v200_N09E090_Map.tif,N09E090,9,12,90,93
ESA_WorldCover_10m_2021_v200_N09E093_Map.tif,N09E093,9,12,93,96
ESA_WorldCover_10m_2021_v200_N09E096_Map.tif,N09E096,9,12,96,99
ESA_WorldCover_10m_2021_v200_N09E099_Map.tif,N09E099,9,12,99,102
ESA_WorldCover_10m_2021_v200_N09E102_Map.tif,N09E102,9,12,102,105
ESA_WorldCover_10m_2021_v200_N09E105_Map.tif,N09E105,9,12,105,108
ESA_WorldCover_10m_2021_v200_N09E108_Map.tif,N09E108,9,12,108,111
ESA_WorldCover_10m_2021_v200_N09E111_Map.tif,N09E111,9,12,111,114
ESA_WorldCover_10m_2021_v200_N09E114_Map.tif,N09E114,9,12,114,117
ESA_WorldCover_10m_2021_v200_N09E117_Map.tif,N09E117,9,12,117,120
ESA_WorldCover_10m_2021_v200_N09E120_Map.tif,N09E120,9,12,120,123
ESA_WorldCover_10m_2021_v200_N09E123_Map.tif,N09E123,9,12,123,126
ESA_WorldCover_10m_2021_v200_N09E126_Map.tif,N09E126,9,12,126,129
ESA_WorldCover_10m_2021_v200_N09E138_Map.tif,N09E138,9,12,138,141
ESA_WorldCover_10m_2021_v200_N09E159_Map.tif,N09E159,9,12,159,162
ESA_WorldCover_10m_2021_v200_N09E162_Map.tif,N09E162,9,12,162,165
ESA_WorldCover_10m_2021_v200_N09E165_Map.tif,N09E165,9,12,165,168
ESA_WorldCover_10m_2021_v200_N09E168_Map.tif,N09E168,9,12,168,171
ESA_WorldCover_10m_2021_v200_N09W003_Map.tif,N09W003,9,12,-3,0
ESA_WorldCover_10m_2021_v200_N09W006_Map.tif,N09W006,9,12,-6,-3
ESA_WorldCover_10m_2021_v200_N09W009_Map.tif,N09W009,9,12,-9,-6
ESA_WorldCover_10m_2021_v200_N09W012_Map.tif,N09W012,9,12,-12,-9
ESA_WorldCover_10m_2021_v200_N09W015_Map.tif,N09W015,9,12,-15,-12
ESA_WorldCover_10m_2021_v200_N09W018_Map.tif,N09W018,9,12,-18,-15
ESA_WorldCover_10m_2021_v200_N09W063_Map.tif,N09W063,9,12,-63,-60
ESA_WorldCover_10m_2021_v200_N09W066_Map.tif,N09W066,9,12,-66,-63
ESA_WorldCover_10m_2021_v200_N09W069_Map.tif,N09W069,9,12,-69,-66
ESA_WorldCover_10m_2021_v200_N09W072_Map.tif,N09W072,9,12,-72,-69
ESA_WorldCover_10m_2021_v200_N09W075_Map.tif,N09W075,9,12,-75,-72
ESA_WorldCover_10m_2021_v200_N09W078_Map.tif,N09W078,9,12,-78,-75
ESA_WorldCover_10m_2021_v200_N09W081_Map.tif,N09W081,9,12,-81,-78
ESA_WorldCover_10m_2021_v200_N09W084_Map.tif,N09W084,9,12,-84,-81
ESA_WorldCover_10m_2021_v200_N09W087_Map.tif,N09W087,9,12,-87,-84
ESA_WorldCover_10m_2021_v200_N09W111_Map.tif,N09W111,9,12,-111,-108
ESA_WorldCover_10m_2021_v200_N12E000_Map.tif,N12E000,12,15,0,3
ESA_WorldCover_10m_2021_v200_N12E003_Map.tif,N12E003,12,15,3,6
ESA_WorldCover_10m_2021_v200_N12E006_Map.tif,N12E006,12,15,6,9
ESA_WorldCover_10m_2021_v200_N12E009_Map.tif,N12E009,12,15,9,12
ESA_WorldCover_10m_2021_v200_N12E012_Map.tif,N12E012,12,15,12,15
ESA_WorldCover_10m_2021_v200_N12E015_Map.tif,N12E015,12,15,15,18
ESA_WorldCover_10m_2021_v200_N12E018_Map.tif,N12E018,12,15,18,21
ESA_WorldCover_10m_2021_v200_N12E021_Map.tif,N12E021,12,15,21,24
ESA_WorldCover_10m_2021_v200_N12E024_Map.tif,N12E024,12,15,24,27
ESA_WorldCover_10m_2021_v200_N12E027_Map.tif,N12E027,12,15,27,30
ESA_WorldCover_10m_2021_v200_N12E030_Map.tif,N12E030,12,15,30,33
ESA_WorldCover_10m_2021_v200_N12E033_Map.tif,N12E033,12,15,33,36
ESA_WorldCover_10m_2021_v200_N12E036_Map.tif,N12E036,12,15,36,39
ESA_WorldCover_10m_2021_v200_N12E039_Map.tif,N12E039,12,15,39,42
ESA_WorldCover_10m_2021_v200_N12E042_Map.tif,N12E042,12,15,42,45
ESA_WorldCover_10m_2021_v200_N12E045_Map.tif,N12E045,12,15,45,48
ESA_WorldCover_10m_2021_v200_N12E048_Map.tif,N12E048,12,15,48,51
ESA_WorldCover_10m_2021_v200_N12E051_Map.tif,N12E051,12,15,51,54
ESA_WorldCover_10m_2021_v200_N12E054_Map.tif,N12E054,12,15,54,57
ESA_WorldCover_10m_2021_v200_N12E072_Map.tif,N12E072,12,15,72,75
ESA_WorldCover_10m_2021_v200_N12E075_Map.tif,N12E075,12,15,75,78
ESA_WorldCover_10m_2021_v200_N12E078_Map.tif,N12E078,12,15,78,81
ESA_WorldCover_10m_2021_v200_N12E090_Map.tif,N12E090,12,15,90,93
ESA_WorldCover_10m_2021_v200_N12E093_Map.tif,N12E093,12,15,93,96
ESA_WorldCover_10m_2021_v200_N12E096_Map.tif,N12E096,12,15,96,99
ESA_WorldCover_10m_2021_v200_N12E099_Map.tif,N12E099,12,15,99,102
ESA_WorldCover_10m_2021_v200_N12E102_Map.tif,N12E102,12,15,102,105
ESA_WorldCover_10m_2021_v200_N12E105_Map.tif,N12E105,12,15,105,108
ESA_WorldCover_10m_2021_v200_N12E108_Map.tif,N12E108,12,15,108,111
ESA_WorldCover_10m_2021_v200_N12E117_Map.tif,N12E117,12,15,117,120
ESA_WorldCover_10m_2021_v200_N12E120_Map.tif,N12E120,12,15,120,123
ESA_WorldCover_10m_2021_v200_N12E123_Map.tif,N12E123,12,15,123,126
ESA_WorldCover_10m_2021_v200_N12E144_Map.tif,N12E144,12,15,144,147
ESA_WorldCover_10m_2021_v200_N12E168_Map.tif,N12E168,12,15,168,171
ESA_WorldCover_10m_2021_v200_N12W003_Map.tif,N12W003,12,15,-3,0
ESA_WorldCover_10m_2021_v200_N12W006_Map.tif,N12W006,12,15,-6,-3
ESA_WorldCover_10m_2021_v200_N12W009_Map.tif,N12W009,12,15,-9,-6
ESA_WorldCover_10m_2021_v200_N12W012_Map.tif,N12W012,12,15,-12,-9
ESA_WorldCover_10m_2021_v200_N12W015_Map.tif,N12W015,12,15,-15,-12
ESA_WorldCover_10m_2021_v200_N12W018_Map.tif,N12W018,12,15,-18,-15
ESA_WorldCover_10m_2021_v200_N12W024_Map.tif,N12W024,12,15,-24,-21
ESA_WorldCover_10m_2021_v200_N12W027_Map.tif,N12W027,12,15,-27,-24
ESA_WorldCover_10m_2021_v200_N12W060_Map.tif,N12W060,12,15,-60,-57
ESA_WorldCover_10m_2021_v200_N12W063_Map.tif,N12W063,12,15,-63,-60
ESA_WorldCover_10m_2021_v200_N12W069_Map.tif,N12W069,12,15,-69,-66
ESA_WorldCover_10m_2021_v200_N12W072_Map.tif,N12W072,12,15,-72,-69
ESA_WorldCover_10m_2021_v200_N12W075_Map.tif,N12W075,12,15,-75,-72
ESA_WorldCover_10m_2021_v200_N12W081_Map.tif,N12W081,12,15,-81,-78
ESA_WorldCover_10m_2021_v200_N12W084_Map.tif,N12W084,12,15,-84,-81
ESA_WorldCover_10m_2021_v200_N12W087_Map.tif,N12W087,12,15,-87,-84
ESA_WorldCover_10m_2021_v200_N12W090_Map.tif,N12W090,12,15,-90,-87
ESA_WorldCover_10m_2021_v200_N12W093_Map.tif,N12W093,12,15,-93,-90
ESA_WorldCover_10m_2021_v200_N15E000_Map.tif,N15E000,15,18,0,3
ESA_WorldCover_10m_2021_v200_N15E003_Map.tif,N15E003,15,18,3,6
ESA_WorldCover_10m_2021_v200_N15E006_Map.tif,N15E006,15,18,6,9
ESA_WorldCover_10m_2021_v200_N15E009_Map.tif,N15E009,15,18,9,12
ESA_WorldCover_10m_2021_v200_N15E012_Map.tif,N15E012,15,18,12,15
ESA_WorldCover_10m_2021_v200_N15E015_Map.tif,N15E015,15,18,15,18
ESA_WorldCover_10m_2021_v200_N15E018_Map.tif,N15E018,15,18,18,21
ESA_WorldCover_10m_2021_v200_N15E021_Map.tif,N15E021,15,18,21,24
ESA_WorldCover_10m_2021_v200_N15E024_Map.tif,N15E024,15,18,24,27
ESA_WorldCover_10m_2021_v200_N15E027_Map.tif,N15E027,15,18,27,30
ESA_WorldCover_10m_2021_v200_N15E030_Map.tif,N15E030,15,18,30,33
ESA_WorldCover_10m_2021_v200_N15E033_Map.tif,N15E033,15,18,33,36
ESA_WorldCover_10m_2021_v200_N15E036_Map.tif,N15E036,15,18,36,39
ESA_WorldCover_10m_2021_v200_N15E039_Map.tif,N15E039,15,18,39,42
ESA_WorldCover_10m_2021_v200_N15E042_Map.tif,N15E042,15,18,42,45
ESA_WorldCover_10m_2021_v200_N15E045_Map.tif,N15E045,15,18,45,48
ESA_WorldCover_10m_2021_v200_N15E048_Map.tif,N15E048,15,18,48,51
ESA_WorldCover_10m_2021_v200_N15E051_Map.tif,N15E051,15,18,51,54
ESA_WorldCover_10m_2021_v200_N15E054_Map.tif,N15E054,15,18,54,57
ESA_WorldCover_10m_2021_v200_N15E072_Map.tif,N15E072,15,18,72,75
ESA_WorldCover_10m_2021_v200_N15E075_Map.tif,N15E075,15,18,75,78
ESA_WorldCover_10m_2021_v200_N15E078_Map.tif,N15E078,15,18,78,81
ESA_WorldCover_10m_2021_v200_N15E081_Map.tif,N15E081,15,18,81,84
ESA_WorldCover_10m_2021_v200_N15E093_Map.tif,N15E093,15,18,93,96
ESA_WorldCover_10m_2021_v200_N15E096_Map.tif,N15E096,15,18,96,99
ESA_WorldCover_10m_2021_v200_N15E099_Map.tif,N15E099,15,18,99,102
ESA_WorldCover_10m_2021_v200_N15E102_Map.tif,N15E102,15,18,102,105
ESA_WorldCover_10m_2021_v200_N15E105_Map.tif,N15E105,15,18,105,108
ESA_WorldCover_10m_2021_v200_N15E108_Map.tif,N15E108,15,18,108,111
ESA_WorldCover_10m_2021_v200_N15E111_Map.tif,N15E111,15,18,111,114
ESA_WorldCover_10m_2021_v200_N15E117_Map.tif,N15E117,15,18,117,120
ESA_WorldCover_10m_2021_v200_N15E120_Map.tif,N15E120,15,18,120,123
ESA_WorldCover_10m_2021_v200_N15E144_Map.tif,N15E144,15,18,144,147
ESA_WorldCover_10m_2021_v200_N15W003_Map.tif,N15W003,15,18,-3,0
ESA_WorldCover_10m_2021_v200_N15W006_Map.tif,N15W006,15,18,-6,-3
ESA_WorldCover_10m_2021_v200_N15W009_Map.tif,N15W009,15,18,-9,-6
ESA_WorldCover_10m_2021_v200_N15W012_Map.tif,N15W012,15,18,-12,-9
ESA_WorldCover_10m_2021_v200_N15W015_Map.tif,N15W015,15,18,-15,-12
ESA_WorldCover_10m_2021_v200_N15W018_Map.tif,N15W018,15,18,-18,-15
ESA_WorldCover_10m_2021_v200_N15W024_Map.tif,N15W024,15,18,-24,-21
ESA_WorldCover_10m_2021_v200_N15W027_Map.tif,N15W027,15,18,-27,-24
ESA_WorldCover_10m_2021_v200_N15W063_Map.tif,N15W063,15,18,-63,-60
ESA_WorldCover_10m_2021_v200_N15W066_Map.tif,N15W066,15,18,-66,-63
ESA_WorldCover_10m_2021_v200_N15W069_Map.tif,N15W069,15,18,-69,-66
ESA_WorldCover_10m_2021_v200_N15W072_Map.tif,N15W072,15,18,-72,-69
ESA_WorldCover_10m_2021_v200_N15W075_Map.tif,N15W075,15,18,-75,-72
ESA_WorldCover_10m_2021_v200_N15W078_Map.tif,N15W078,15,18,-78,-75
ESA_WorldCover_10m_2021_v200_N15W081_Map.tif,N15W081,15,18,-81,-78
ESA_WorldCover_10m_2021_v200_N15W084_Map.tif,N15W084,15,18,-84,-81
ESA_WorldCover_10m_2021_v200_N15W087_Map.tif,N15W087,15,18,-87,-84
ESA_WorldCover_10m_2021_v200_N15W090_Map.tif,N15W090,15,18,-90,-87
ESA_WorldCover_10m_2021_v200_N15W093_Map.tif,N15W093,15,18,-93,-90
ESA_WorldCover_10m_2021_v200_N15W096_Map.tif,N15W096,15,18,-96,-93
ESA_WorldCover_10m_2021_v200_N15W099_Map.tif,N15W099,15,18,-99,-96
ESA_WorldCover_10m_2021_v200_N15W102_Map.tif,N15W102,15,18,-102,-99
ESA_WorldCover_10m_2021_v200_N15W105_Map.tif,N15W105,15,18,-105,-102
ESA_WorldCover_10m_2021_v200_N18E000_Map.tif,N18E000,18,21,0,3
ESA_WorldCover_10m_2021_v200_N18E003_Map.tif,N18E003,18,21,3,6
ESA_WorldCover_10m_2021_v200_N18E006_Map.tif,N18E006,18,21,6,9
ESA_WorldCover_10m_2021_v200_N18E009_Map.tif,N18E009,18,21,9,12
ESA_WorldCover_10m_2021_v200_N18E012_Map.tif,N18E012,18,21,12,15
ESA_WorldCover_10m_2021_v200_N18E015_Map.tif,N18E015,18,21,15,18
ESA_WorldCover_10m_2021_v200_N18E018_Map.tif,N18E018,18,21,18,21
ESA_WorldCover_10m_2021_v200_N18E021_Map.tif,N18E021,18,21,21,24
ESA_WorldCover_10m_2021_v200_N18E024_Map.tif,N18E024,18,21,24,27
ESA_WorldCover_10m_2021_v200_N18E027_Map.tif,N18E027,18,21,27,30
ESA_WorldCover_10m_2021_v200_N18E030_Map.tif,N18E030,18,21,30,33
ESA_WorldCover_10m_2021_v200_N18E033_Map.tif,N18E033,18,21,33,36
ESA_WorldCover_10m_2021_v200_N18E036_Map.tif,N18E036,18,21,36,39
ESA_WorldCover_10m_2021_v200_N18E039_Map.tif,N18E039,18,21,39,42
ESA_WorldCover_10m_2021_v200_N18E042_Map.tif,N18E042,18,21,42,45
ESA_WorldCover_10m_2021_v200_N18E045_Map.tif,N18E045,18,21,45,48
ESA_WorldCover_10m_2021_v200_N18E048_Map.tif,N18E048,18,21,48,51
ESA_WorldCover_10m_2021_v200_N18E051_Map.tif,N18E051,18,21,51,54
ESA_WorldCover_10m_2021_v200_N18E054_Map.tif,N18E054,18,21,54,57
ESA_WorldCover_10m_2021_v200_N18E057_Map.tif,N18E057,18,21,57,60
ESA_WorldCover_10m_2021_v200_N18E069_Map.tif,N18E069,18,21,69,72
ESA_WorldCover_10m_2021_v200_N18E072_Map.tif,N18E072,18,21,72,75
ESA_WorldCover_10m_2021_v200_N18E075_Map.tif,N18E075,18,21,75,78
ESA_WorldCover_10m_2021_v200_N18E078_Map.tif,N18E078,18,21,78,81
ESA_WorldCover_10m_2021_v200_N18E081_Map.tif,N18E081,18,21,81,84
ESA_WorldCover_10m_2021_v200_N18E084_Map.tif,N18E084,18,21,84,87
ESA_WorldCover_10m_2021_v200_N18E087_Map.tif,N18E087,18,21,87,90
ESA_WorldCover_10m_2021_v200_N18E090_Map.tif,N18E090,18,21,90,93
ESA_WorldCover_10m_2021_v200_N18E093_Map.tif,N18E093,18,21,93,96
ESA_WorldCover_10m_2021_v200_N18E096_Map.tif,N18E096,18,21,96,99
ESA_WorldCover_10m_2021_v200_N18E099_Map.tif,N18E099,18,21,99,102
ESA_WorldCover_10m_2021_v200_N18E102_Map.tif,N18E102,18,21,102,105
ESA_WorldCover_10m_2021_v200_N18E105_Map.tif,N18E105,18,21,105,108
ESA_WorldCover_10m_2021_v200_N18E108_Map.tif,N18E108,18,21,108,111
ESA_WorldCover_10m_2021_v200_N18E111_Map.tif,N18E111,18,21,111,114
ESA_WorldCover_10m_2021_v200_N18E114_Map.tif,N18E114,18,21,114,117
ESA_WorldCover_10m_2021_v200_N18E120_Map.tif,N18E120,18,21,120,123
ESA_WorldCover_10m_2021_v200_N18W003_Map.tif,N18W003,18,21,-3,0
ESA_WorldCover_10m_2021_v200_N18W006_Map.tif,N18W006,18,21,-6,-3
ESA_WorldCover_10m_2021_v200_N18W009_Map.tif,N18W009,18,21,-9,-6
ESA_WorldCover_10m_2021_v200_N18W012_Map.tif,N18W012,18,21,-12,-9
ESA_WorldCover_10m_2021_v200_N18W015_Map.tif,N18W015,18,21,-15,-12
ESA_WorldCover_10m_2021_v200_N18W018_Map.tif,N18W018,18,21,-18,-15
ESA_WorldCover_10m_2021_v200_N18W063_Map.tif,N18W063,18,21,-63,-60
ESA_WorldCover_10m_2021_v200_N18W066_Map.tif,N18W066,18,21,-66,-63
ESA_WorldCover_10m_2021_v200_N18W069_Map.tif,N18W069,18,21,-69,-66
ESA_WorldCover_10m_2021_v200_N18W072_Map.tif,N18W072,18,21,-72,-69
ESA_WorldCover_10m_2021_v200_N18W075_Map.tif,N18W075,18,21,-75,-72
ESA_WorldCover_10m_2021_v200_N18W078_Map.tif,N18W078,18,21,-78,-75
ESA_WorldCover_10m_2021_v200_N18W081_Map.tif,N18W081,18,21,-81,-78
ESA_WorldCover_10m_2021_v200_N18W084_Map.tif,N18W084,18,21,-84,-81
ESA_WorldCover_10m_2021_v200_N18W087_Map.tif,N18W087,18,21,-87,-84
ESA_WorldCover_10m_2021_v200_N18W090_Map.tif,N18W090,18,21,-90,-87
ESA_WorldCover_10m_2021_v200_N18W093_Map.tif,N18W093,18,21,-93,-90
ESA_WorldCover_10m_2021_v200_N18W096_Map.tif,N18W096,18,21,-96,-93
ESA_WorldCover_10m_2021_v200_N18W099_Map.tif,N18W099,18,21,-99,-96
ESA_WorldCover_10m_2021_v200_N18W102_Map.tif,N18W102,18,21,-102,-99
ESA_WorldCover_10m_2021_v200_N18W105_Map.tif,N18W105,18,21,-105,-102
ESA_WorldCover_10m_2021_v200_N18W108_Map.tif,N18W108,18,21,-108,-105
ESA_WorldCover_10m_2021_v200_N18W111_Map.tif,N18W111,18,21,-111,-108
ESA_WorldCover_10m_2021_v200_N18W114_Map.tif,N18W114,18,21,-114,-111
ESA_WorldCover_10m_2021_v200_N18W156_Map.tif,N18W156,18,21,-156,-153
ESA_WorldCover_10m_2021_v200_N18W159_Map.tif,N18W159,18,21,-159,-156
ESA_WorldCover_10m_2021_v200_N21E000_Map.tif,N21E000,21,24,0,3
ESA_WorldCover_10m_2021_v200_N21E003_Map.tif,N21E003,21,24,3,6
ESA_WorldCover_10m_2021_v200_N21E006_Map.tif,N21E006,21,24,6,9
ESA_WorldCover_10m_2021_v200_N21E009_Map.tif,N21E009,21,24,9,12
ESA_WorldCover_10m_2021_v200_N21E012_Map.tif,N21E012,21,24,12,15
ESA_WorldCover_10m_2021_v200_N21E015_Map.tif,N21E015,21,24,15,18
ESA_WorldCover_10m_2021_v200_N21E018_Map.tif,N21E018,21,24,18,21
ESA_WorldCover_10m_2021_v200_N21E021_Map.tif,N21E021,21,24,21,24
ESA_WorldCover_10m_2021_v200_N21E024_Map.tif,N21E024,21,24,24,27
ESA_WorldCover_10m_2021_v200_N21E027_Map.tif,N21E027,21,24,27,30
ESA_WorldCover_10m_2021_v200_N21E030_Map.tif,N21E030,21,24,30,33
ESA_WorldCover_10m_2021_v200_N21E033_Map.tif,N21E033,21,24,33,36
ESA_WorldCover_10m_2021_v200_N21E036_Map.tif,N21E036,21,24,36,39
ESA_WorldCover_10m_2021_v200_N21E039_Map.tif,N21E039,21,24,39,42
ESA_WorldCover_10m_2021_v200_N21E042_Map.tif,N21E042,21,24,42,45
ESA_WorldCover_10m_2021_v200_N21E045_Map.tif,N21E045,21,24,45,48
ESA_WorldCover_10m_2021_v200_N21E048_Map.tif,N21E048,21,24,48,51
ESA_WorldCover_10m_2021_v200_N21E051_Map.tif,N21E051,21,24,51,54
ESA_WorldCover_10m_2021_v200_N21E054_Map.tif,N21E054,21,24,54,57
ESA_WorldCover_10m_2021_v200_N21E057_Map.tif,N21E057,21,24,57,60
ESA_WorldCover_10m_2021_v200_N21E066_Map.tif,N21E066,21,24,66,69
ESA_WorldCover_10m_2021_v200_N21E069_Map.tif,N21E069,21,24,69,72
ESA_WorldCover_10m_2021_v200_N21E072_Map.tif,N21E072,21,24,72,75
ESA_WorldCover_10m_2021_v200_N21E075_Map.tif,N21E075,21,24,75,78
ESA_WorldCover_10m_2021_v200_N21E078_Map.tif,N21E078,21,24,78,81
ESA_WorldCover_10m_2021_v200_N21E081_Map.tif,N21E081,21,24,81,84
ESA_WorldCover_10m_2021_v200_N21E084_Map.tif,N21E084,21,24,84,87
ESA_WorldCover_10m_2021_v200_N21E087_Map.tif,N21E087,21,24,87,90
ESA_WorldCover_10m_2021_v200_N21E090_Map.tif,N21E090,21,24,90,93
ESA_WorldCover_10m_2021_v200_N21E093_Map.tif,N21E093,21,24,93,96
ESA_WorldCover_10m_2021_v200_N21E096_Map.tif,N21E096,21,24,96,99
ESA_WorldCover_10m_2021_v200_N21E099_Map.tif,N21E099,21,24,99,102
ESA_WorldCover_10m_2021_v200_N21E102_Map.tif,N21E102,21,24,102,105
ESA_WorldCover_10m_2021_v200_N21E105_Map.tif,N21E105,21,24,105,108
ESA_WorldCover_10m_2021_v200_N21E108_Map.tif,N21E108,21,24,108,111
ESA_WorldCover_10m_2021_v200_N21E111_Map.tif,N21E111,21,24,111,114
ESA_WorldCover_10m_2021_v200_N21E114_Map.tif,N21E114,21,24,114,117
ESA_WorldCover_10m_2021_v200_N21E117_Map.tif,N21E117,21,24,117,120
ESA_WorldCover_10m_2021_v200_N21E120_Map.tif,N21E120,21,24,120,123
ESA_WorldCover_10m_2021_v200_N21E123_Map.tif,N21E123,21,24,123,126
ESA_WorldCover_10m_2021_v200_N21W003_Map.tif,N21W003,21,24,-3,0
ESA_WorldCover_10m_2021_v200_N21W006_Map.tif,N21W006,21,24,-6,-3
ESA_WorldCover_10m_2021_v200_N21W009_Map.tif,N21W009,21,24,-9,-6
ESA_WorldCover_10m_2021_v200_N21W012_Map.tif,N21W012,21,24,-12,-9
ESA_WorldCover_10m_2021_v200_N21W015_Map.tif,N21W015,21,24,-15,-12
ESA_WorldCover_10m_2021_v200_N21W018_Map.tif,N21W018,21,24,-18,-15
ESA_WorldCover_10m_2021_v200_N21W072_Map.tif,N21W072,21,24,-72,-69
ESA_WorldCover_10m_2021_v200_N21W075_Map.tif,N21W075,21,24,-75,-72
ESA_WorldCover_10m_2021_v200_N21W078_Map.tif,N21W078,21,24,-78,-75
ESA_WorldCover_10m_2021_v200_N21W081_Map.tif,N21W081,21,24,-81,-78
ESA_WorldCover_10m_2021_v200_N21W084_Map.tif,N21W084,21,24,-84,-81
ESA_WorldCover_10m_2021_v200_N21W087_Map.tif,N21W087,21,24,-87,-84
ESA_WorldCover_10m_2021_v200_N21W090_Map.tif,N21W090,21,24,-90,-87
ESA_WorldCover_10m_2021_v200_N21W093_Map.tif,N21W093,21,24,-93,-90
ESA_WorldCover_10m_2021_v200_N21W099_Map.tif,N21W099,21,24,-99,-96
ESA_WorldCover_10m_2021_v200_N21W102_Map.tif,N21W102,21,24,-102,-99
ESA_WorldCover_10m_2021_v200_N21W105_Map.tif,N21W105,21,24,-105,-102
ESA_WorldCover_10m_2021_v200_N21W108_Map.tif,N21W108,21,24,-108,-105
ESA_WorldCover_10m_2021_v200_N21W111_Map.tif,N21W111,21,24,-111,-108
ESA_WorldCover_10m_2021_v200_N21W114_Map.tif,N21W114,21,24,-114,-111
ESA_WorldCover_10m_2021_v200_N21W159_Map.tif,N21W159,21,24,-159,-156
ESA_WorldCover_10m_2021_v200_N21W162_Map.tif,N21W162,21,24,-162,-159
ESA_WorldCover_10m_2021_v200_N24E000_Map.tif,N24E000,24,27,0,3
ESA_WorldCover_10m_2021_v200_N24E003_Map.tif,N24E003,24,27,3,6
ESA_WorldCover_10m_2021_v200_N24E006_Map.tif,N24E006,24,27,6,9
ESA_WorldCover_10m_2021_v200_N24E009_Map.tif,N24E009,24,27,9,12
ESA_WorldCover_10m_2021_v200_N24E012_Map.tif,N24E012,24,27,12,15
ESA_WorldCover_10m_2021_v200_N24E015_Map.tif,N24E015,24,27,15,18
ESA_WorldCover_10m_2021_v200_N24E018_Map.tif,N24E018,24,27,18,21
ESA_WorldCover_10m_2021_v200_N24E021_Map.tif,N24E021,24,27,21,24
ESA_WorldCover_10m_2021_v200_N24E024_Map.tif,N24E024,24,27,24,27
ESA_WorldCover_10m_2021_v200_N24E027_Map.tif,N24E027,24,27,27,30
ESA_WorldCover_10m_2021_v200_N24E030_Map.tif,N24E030,24,27,30,33
ESA_WorldCover_10m_2021_v200_N24E033_Map.tif,N24E033,24,27,33,36
ESA_WorldCover_10m_2021_v200_N24E036_Map.tif,N24E036,24,27,36,39
ESA_WorldCover_10m_2021_v200_N24E039_Map.tif,N24E039,24,27,39,42
ESA_WorldCover_10m_2021_v200_N24E042_Map.tif,N24E042,24,27,42,45
ESA_WorldCover_10m_2021_v200_N24E045_Map.tif,N24E045,24,27,45,48
ESA_WorldCover_10m_2021_v200_N24E048_Map.tif,N24E048,24,27,48,51
ESA_WorldCover_10m_2021_v200_N24E051_Map.tif,N24E051,24,27,51,54
ESA_WorldCover_10m_2021_v200_N24E054_Map.tif,N24E054,24,27,54,57
ESA_WorldCover_10m_2021_v200_N24E057_Map.tif,N24E057,24,27,57,60
ESA_WorldCover_10m_2021_v200_N24E060_Map.tif,N24E060,24,27,60,63
ESA_WorldCover_10m_2021_v200_N24E063_Map.tif,N24E063,24,27,63,66
ESA_WorldCover_10m_2021_v200_N24E066_Map.tif,N24E066,24,27,66,69
ESA_WorldCover_10m_2021_v200_N24E069_Map.tif,N24E069,24,27,69,72
ESA_WorldCover_10m_2021_v200_N24E072_Map.tif,N24E072,24,27,72,75
ESA_WorldCover_10m_2021_v200_N24E075_Map.tif,N24E075,24,27,75,78
ESA_WorldCover_10m_2021_v200_N24E078_Map.tif,N24E078,24,27,78,81
ESA_WorldCover_10m_2021_v200_N24E081_Map.tif,N24E081,24,27,81,84
ESA_WorldCover_10m_2021_v200_N24E084_Map.tif,N24E084,24,27,84,87
ESA_WorldCover_10m_2021_v200_N24E087_Map.tif,N24E087,24,27,87,90
ESA_WorldCover_10m_2021_v200_N24E090_Map.tif,N24E090,24,27,90,93
ESA_WorldCover_10m_2021_v200_N24E093_Map.tif,N24E093,24,27,93,96
ESA_WorldCover_10m_2021_v200_N24E096_Map.tif,N24E096,24,27,96,99
ESA_WorldCover_10m_2021_v200_N24E099_Map.tif,N24E099,24,27,99,102
ESA_WorldCover_10m_2021_v200_N24E102_Map.tif,N24E102,24,27,102,105
ESA_WorldCover_10m_2021_v200_N24E105_Map.tif,N24E105,24,27,105,108
ESA_WorldCover_10m_2021_v200_N24E108_Map.tif,N24E108,24,27,108,111
ESA_WorldCover_10m_2021_v200_N24E111_Map.tif,N24E111,24,27,111,114
ESA_WorldCover_10m_2021_v200_N24E114_Map.tif,N24E114,24,27,114,117
ESA_WorldCover_10m_2021_v200_N24E117_Map.tif,N24E117,24,27,117,120
ESA_WorldCover_10m_2021_v200_N24E120_Map.tif,N24E120,24,27,120,123
ESA_WorldCover_10m_2021_v200_N24E123_Map.tif,N24E123,24,27,123,126
ESA_WorldCover_10m_2021_v200_N24E126_Map.tif,N24E126,24,27,126,129
ESA_WorldCover_10m_2021_v200_N24E129_Map.tif,N24E129,24,27,129,132
ESA_WorldCover_10m_2021_v200_N24W003_Map.tif,N24W003,24,27,-3,0
ESA_WorldCover_10m_2021_v200_N24W006_Map.tif,N24W006,24,27,-6,-3
ESA_WorldCover_10m_2021_v200_N24W009_Map.tif,N24W009,24,27,-9,-6
ESA_WorldCover_10m_2021_v200_N24W012_Map.tif,N24W012,24,27,-12,-9
ESA_WorldCover_10m_2021_v200_N24W015_Map.tif,N24W015,24,27,-15,-12
ESA_WorldCover_10m_2021_v200_N24W018_Map.tif,N24W018,24,27,-18,-15
ESA_WorldCover_10m_2021_v200_N24W075_Map.tif,N24W075,24,27,-75,-72
ESA_WorldCover_10m_2021_v200_N24W078_Map.tif,N24W078,24,27,-78,-75
ESA_WorldCover_10m_2021_v200_N24W081_Map.tif,N24W081,24,27,-81,-78
ESA_WorldCover_10m_2021_v200_N24W084_Map.tif,N24W084,24,27,-84,-81
ESA_WorldCover_10m_2021_v200_N24W099_Map.tif,N24W099,24,27,-99,-96
ESA_WorldCover_10m_2021_v200_N24W102_Map.tif,N24W102,24,27,-102,-99
ESA_WorldCover_10m_2021_v200_N24W105_Map.tif,N24W105,24,27,-105,-102
ESA_WorldCover_10m_2021_v200_N24W108_Map.tif,N24W108,24,27,-108,-105
ESA_WorldCover_10m_2021_v200_N24W111_Map.tif,N24W111,24,27,-111,-108
ESA_WorldCover_10m_2021_v200_N24W114_Map.tif,N24W114,24,27,-114,-111
ESA_WorldCover_10m_2021_v200_N24W117_Map.tif,N24W117,24,27,-117,-114
ESA_WorldCover_10m_2021_v200_N27E000_Map.tif,N27E000,27,30,0,3
ESA_WorldCover_10m_2021_v200_N27E003_Map.tif,N27E003,27,30,3,6
ESA_WorldCover_10m_2021_v200_N27E006_Map.tif,N27E006,27,30,6,9
ESA_WorldCover_10m_2021_v200_N27E009_Map.tif,N27E009,27,30,9,12
ESA_WorldCover_10m_2021_v200_N27E012_Map.tif,N27E012,27,30,12,15
ESA_WorldCover_10m_2021_v200_N27E015_Map.tif,N27E015,27,30,15,18
ESA_WorldCover_10m_2021_v200_N27E018_Map.tif,N27E018,27,30,18,21
ESA_WorldCover_10m_2021_v200_N27E021_Map.tif,N27E021,27,30,21,24
ESA_WorldCover_10m_2021_v200_N27E024_Map.tif,N27E024,27,30,24,27
ESA_WorldCover_10m_2021_v200_N27E027_Map.tif,N27E027,27,30,27,30
ESA_WorldCover_10m_2021_v200_N27E030_Map.tif,N27E030,27,30,30,33
ESA_WorldCover_10m_2021_v200_N27E033_Map.tif,N27E033,27,30,33,36
ESA_WorldCover_10m_2021_v200_N27E036_Map.tif,N27E036,27,30,36,39
ESA_WorldCover_10m_2021_v200_N27E039_Map.tif,N27E039,27,30,39,42
ESA_WorldCover_10m_2021_v200_N27E042_Map.tif,N27E042,27,30,42,45
ESA_WorldCover_10m_2021_v200_N27E045_Map.tif,N27E045,27,30,45,48
ESA_WorldCover_10m_2021_v200_N27E048_Map.tif,N27E048,27,30,48,51
ESA_WorldCover_10m_2021_v200_N27E051_Map.tif,N27E051,27,30,51,54
ESA_WorldCover_10m_2021_v200_N27E054_Map.tif,N27E054,27,30,54,57
ESA_WorldCover_10m_2021_v200_N27E057_Map.tif,N27E057,27,30,57,60
ESA_WorldCover_10m_2021_v200_N27E060_Map.tif,N27E060,27,30,60,63
ESA_WorldCover_10m_2021_v200_N27E063_Map.tif,N27E063,27,30,63,66
ESA_WorldCover_10m_2021_v200_N27E066_Map.tif,N27E066,27,30,66,69
ESA_WorldCover_10m_2021_v200_N27E069_Map.tif,N27E069,27,30,69,72
ESA_WorldCover_10m_2021_v200_N27E072_Map.tif,N27E072,27,30,72,75
ESA_WorldCover_10m_2021_v200_N27E075_Map.tif,N27E075,27,30,75,78
ESA_WorldCover_10m_2021_v200_N27E078_Map.tif,N27E078,27,30,78,81
ESA_WorldCover_10m_2021_v200_N27E081_Map.tif,N27E081,27,30,81,84
ESA_WorldCover_10m_2021_v200_N27E084_Map.tif,N27E084,27,30,84,87
ESA_WorldCover_10m_2021_v200_N27E087_Map.tif,N27E087,27,30,87,90
ESA_WorldCover_10m_2021_v200_N27E090_Map.tif,N27E090,27,30,90,93
ESA_WorldCover_10m_2021_v200_N27E093_Map.tif,N27E093,27,30,93,96
ESA_WorldCover_10m_2021_v200_N27E096_Map.tif,N27E096,27,30,96,99
ESA_WorldCover_10m_2021_v200_N27E099_Map.tif,N27E099,27,30,99,102
ESA_WorldCover_10m_2021_v200_N27E102_Map.tif,N27E102,27,30,102,105
ESA_WorldCover_10m_2021_v200_N27E105_Map.tif,N27E105,27,30,105,108
ESA_WorldCover_10m_2021_v200_N27E108_Map.tif,N27E108,27,30,108,111
ESA_WorldCover_10m_2021_v200_N27E111_Map.tif,N27E111,27,30,111,114
ESA_WorldCover_10m_2021_v200_N27E114_Map.tif,N27E114,27,30,114,117
ESA_WorldCover_10m_2021_v200_N27E117_Map.tif,N27E117,27,30,117,120
ESA_WorldCover_10m_2021_v200_N27E120_Map.tif,N27E120,27,30,120,123
ESA_WorldCover_10m_2021_v200_N27E126_Map.tif,N27E126,27,30,126,129
ESA_WorldCover_10m_2021_v200_N27E129_Map.tif,N27E129,27,30,129,132
ESA_WorldCover_10m_2021_v200_N27W003_Map.tif,N27W003,27,30,-3,0
ESA_WorldCover_10m_2021_v200_N27W006_Map.tif,N27W006,27,30,-6,-3
ESA_WorldCover_10m_2021_v200_N27W009_Map.tif,N27W009,27,30,-9,-6
ESA_WorldCover_10m_2021_v200_N27W012_Map.tif,N27W012,27,30,-12,-9
ESA_WorldCover_10m_2021_v200_N27W015_Map.tif,N27W015,27,30,-15,-12
ESA_WorldCover_10m_2021_v200_N27W018_Map.tif,N27W018,27,30,-18,-15
ESA_WorldCover_10m_2021_v200_N27W021_Map.tif,N27W021,27,30,-21,-18
ESA_WorldCover_10m_2021_v200_N27W078_Map.tif,N27W078,27,30,-78,-75
ESA_WorldCover_10m_2021_v200_N27W081_Map.tif,N27W081,27,30,-81,-78
ESA_WorldCover_10m_2021_v200_N27W084_Map.tif,N27W084,27,30,-84,-81
ESA_WorldCover_10m_2021_v200_N27W087_Map.tif,N27W087,27,30,-87,-84
ESA_WorldCover_10m_2021_v200_N27W090_Map.tif,N27W090,27,30,-90,-87
ESA_WorldCover_10m_2021_v200_N27W093_Map.tif,N27W093,27,30,-93,-90
ESA_WorldCover_10m_2021_v200_N27W096_Map.tif,N27W096,27,30,-96,-93
ESA_WorldCover_10m_2021_v200_N27W099_Map.tif,N27W099,27,30,-99,-96
ESA_WorldCover_10m_2021_v200_N27W102_Map.tif,N27W102,27,30,-102,-99
ESA_WorldCover_10m_2021_v200_N27W105_Map.tif,N27W105,27,30,-105,-102
ESA_WorldCover_10m_2021_v200_N27W108_Map.tif,N27W108,27,30,-108,-105
ESA_WorldCover_10m_2021_v200_N27W111_Map.tif,N27W111,27,30,-111,-108
ESA_WorldCover_10m_2021_v200_N27W114_Map.tif,N27W114,27,30,-114,-111
ESA_WorldCover_10m_2021_v200_N27W117_Map.tif,N27W117,27,30,-117,-114
ESA_WorldCover_10m_2021_v200_N27W120_Map.tif,N27W120,27,30,-120,-117
ESA_WorldCover_10m_2021_v200_N30E000_Map.tif,N30E000,30,33,0,3
ESA_WorldCover_10m_2021_v200_N30E003_Map.tif,N30E003,30,33,3,6
ESA_WorldCover_10m_2021_v200_N30E006_Map.tif,N30E006,30,33,6,9
ESA_WorldCover_10m_2021_v200_N30E009_Map.tif,N30E009,30,33,9,12
ESA_WorldCover_10m_2021_v200_N30E012_Map.tif,N30E012,30,33,12,15
ESA_WorldCover_10m_2021_v200_N30E015_Map.tif,N30E015,30,33,15,18
ESA_WorldCover_10m_2021_v200_N30E018_Map.tif,N30E018,30,33,18,21
ESA_WorldCover_10m_2021_v200_N30E021_Map.tif,N30E021,30,33,21,24
ESA_WorldCover_10m_2021_v200_N30E024_Map.tif,N30E024,30,33,24,27
ESA_WorldCover_10m_2021_v200_N30E027_Map.tif,N30E027,30,33,27,30
ESA_WorldCover_10m_2021_v200_N30E030_Map.tif,N30E030,30,33,30,33
ESA_WorldCover_10m_2021_v200_N30E033_Map.tif,N30E033,30,33,33,36
ESA_WorldCover_10m_2021_v200_N30E036_Map.tif,N30E036,30,33,36,39
ESA_WorldCover_10m_2021_v200_N30E039_Map.tif,N30E039,30,33,39,42
ESA_WorldCover_10m_2021_v200_N30E042_Map.tif,N30E042,30,33,42,45
ESA_WorldCover_10m_2021_v200_N30E045_Map.tif,N30E045,30,33,45,48
ESA_WorldCover_10m_2021_v200_N30E048_Map.tif,N30E048,30,33,48,51
ESA_WorldCover_10m_2021_v200_N30E051_Map.tif,N30E051,30,33,51,54
ESA_WorldCover_10m_2021_v200_N30E054_Map.tif,N30E054,30,33,54,57
ESA_WorldCover_10m_2021_v200_N30E057_Map.tif,N30E057,30,33,57,60
ESA_WorldCover_10m_2021_v200_N30E060_Map.tif,N30E060,30,33,60,63
ESA_WorldCover_10m_2021_v200_N30E063_Map.tif,N30E063,30,33,63,66
ESA_WorldCover_10m_2021_v200_N30E066_Map.tif,N30E066,30,33,66,69
ESA_WorldCover_10m_2021_v200_N30E069_Map.tif,N30E069,30,33,69,72
ESA_WorldCover_10m_2021_v200_N30E072_Map.tif,N30E072,30,33,72,75
ESA_WorldCover_10m_2021_v200_N30E075_Map.tif,N30E075,30,33,75,78
ESA_WorldCover_10m_2021_v200_N30E078_Map.tif,N30E078,30,33,78,81
ESA_WorldCover_10m_2021_v200_N30E081_Map.tif,N30E081,30,33,81,84
ESA_WorldCover_10m_2021_v200_N30E084_Map.tif,N30E084,30,33,84,87
ESA_WorldCover_10m_2021_v200_N30E087_Map.tif,N30E087,30,33,87,90
ESA_WorldCover_10m_2021_v200_N30E090_Map.tif,N30E090,30,33,90,93
ESA_WorldCover_10m_2021_v200_N30E093_Map.tif,N30E093,30,33,93,96
ESA_WorldCover_10m_2021_v200_N30E096_Map.tif,N30E096,30,33,96,99
ESA_WorldCover_10m_2021_v200_N30E099_Map.tif,N30E099,30,33,99,102
ESA_WorldCover_10m_2021_v200_N30E102_Map.tif,N30E102,30,33,102,105
ESA_WorldCover_10m_2021_v200_N30E105_Map.tif,N30E105,30,33,105,108
ESA_WorldCover_10m_2021_v200_N30E108_Map.tif,N30E108,30,33,108,111
ESA_WorldCover_10m_2021_v200_N30E111_Map.tif,N30E111,30,33,111,114
ESA_WorldCover_10m_2021_v200_N30E114_Map.tif,N30E114,30,33,114,117
ESA_WorldCover_10m_2021_v200_N30E117_Map.tif,N30E117,30,33,117,120
ESA_WorldCover_10m_2021_v200_N30E120_Map.tif,N30E120,30,33,120,123
ESA_WorldCover_10m_2021_v200_N30E123_Map.tif,N30E123,30,33,123,126
ESA_WorldCover_10m_2021_v200_N30E126_Map.tif,N30E126,30,33,126,129
ESA_WorldCover_10m_2021_v200_N30E129_Map.tif,N30E129,30,33,129,132
ESA_WorldCover_10m_2021_v200_N30E132_Map.tif,N30E132,30,33,132,135
ESA_WorldCover_10m_2021_v200_N30E138_Map.tif,N30E138,30,33,138,141
ESA_WorldCover_10m_2021_v200_N30W003_Map.tif,N30W003,30,33,-3,0
ESA_WorldCover_10m_2021_v200_N30W006_Map.tif,N30W006,30,33,-6,-3
ESA_WorldCover_10m_2021_v200_N30W009_Map.tif,N30W009,30,33,-9,-6
ESA_WorldCover_10m_2021_v200_N30W012_Map.tif,N30W012,30,33,-12,-9
ESA_WorldCover_10m_2021_v200_N30W018_Map.tif,N30W018,30,33,-18,-15
ESA_WorldCover_10m_2021_v200_N30W066_Map.tif,N30W066,30,33,-66,-63
ESA_WorldCover_10m_2021_v200_N30W081_Map.tif,N30W081,30,33,-81,-78
ESA_WorldCover_10m_2021_v200_N30W084_Map.tif,N30W084,30,33,-84,-81
ESA_WorldCover_10m_2021_v200_N30W087_Map.tif,N30W087,30,33,-87,-84
ESA_WorldCover_10m_2021_v200_N30W090_Map.tif,N30W090,30,33,-90,-87
ESA_WorldCover_10m_2021_v200_N30W093_Map.tif,N30W093,30,33,-93,-90
ESA_WorldCover_10m_2021_v200_N30W096_Map.tif,N30W096,30,33,-96,-93
ESA_WorldCover_10m_2021_v200_N30W099_Map.tif,N30W099,30,33,-99,-96
ESA_WorldCover_10m_2021_v200_N30W102_Map.tif,N30W102,30,33,-102,-99
ESA_WorldCover_10m_2021_v200_N30W105_Map.tif,N30W105,30,33,-105,-102
ESA_WorldCover_10m_2021_v200_N30W108_Map.tif,N30W108,30,33,-108,-105
ESA_WorldCover_10m_2021_v200_N30W111_Map.tif,N30W111,30,33,-111,-108
ESA_WorldCover_10m_2021_v200_N30W114_Map.tif,N30W114,30,33,-114,-111
ESA_WorldCover_10m_2021_v200_N30W117_Map.tif,N30W117,30,33,-117,-114
ESA_WorldCover_10m_2021_v200_N30W120_Map.tif,N30W120,30,33,-120,-117
ESA_WorldCover_10m_2021_v200_N33E000_Map.tif,N33E000,33,36,0,3
ESA_WorldCover_10m_2021_v200_N33E003_Map.tif,N33E003,33,36,3,6
ESA_WorldCover_10m_2021_v200_N33E006_Map.tif,N33E006,33,36,6,9
ESA_WorldCover_10m_2021_v200_N33E009_Map.tif,N33E009,33,36,9,12
ESA_WorldCover_10m_2021_v200_N33E012_Map.tif,N33E012,33,36,12,15
ESA_WorldCover_10m_2021_v200_N33E021_Map.tif,N33E021,33,36,21,24
ESA_WorldCover_10m_2021_v200_N33E024_Map.tif,N33E024,33,36,24,27
ESA_WorldCover_10m_2021_v200_N33E027_Map.tif,N33E027,33,36,27,30
ESA_WorldCover_10m_2021_v200_N33E030_Map.tif,N33E030,33,36,30,33
ESA_WorldCover_10m_2021_v200_N33E033_Map.tif,N33E033,33,36,33,36
ESA_WorldCover_10m_2021_v200_N33E036_Map.tif,N33E036,33,36,36,39
ESA_WorldCover_10m_2021_v200_N33E039_Map.tif,N33E039,33,36,39,42
ESA_WorldCover_10m_2021_v200_N33E042_Map.tif,N33E042,33,36,42,45
ESA_WorldCover_10m_2021_v200_N33E045_Map.tif,N33E045,33,36,45,48
ESA_WorldCover_10m_2021_v200_N33E048_Map.tif,N33E048,33,36,48,51
ESA_WorldCover_10m_2021_v200_N33E051_Map.tif,N33E051,33,36,51,54
ESA_WorldCover_10m_2021_v200_N33E054_Map.tif,N33E054,33,36,54,57
ESA_WorldCover_10m_2021_v200_N33E057_Map.tif,N33E057,33,36,57,60
ESA_WorldCover_10m_2021_v200_N33E060_Map.tif,N33E060,33,36,60,63
ESA_WorldCover_10m_2021_v200_N33E063_Map.tif,N33E063,33,36,63,66
ESA_WorldCover_10m_2021_v200_N33E066_Map.tif,N33E066,33,36,66,69
ESA_WorldCover_10m_2021_v200_N33E069_Map.tif,N33E069,33,36,69,72
ESA_WorldCover_10m_2021_v200_N33E072_Map.tif,N33E072,33,36,72,75
ESA_WorldCover_10m_2021_v200_N33E075_Map.tif,N33E075,33,36,75,78
ESA_WorldCover_10m_2021_v200_N33E078_Map.tif,N33E078,33,36,78,81
ESA_WorldCover_10m_2021_v200_N33E081_Map.tif,N33E081,33,36,81,84
ESA_WorldCover_10m_2021_v200_N33E084_Map.tif,N33E084,33,36,84,87
ESA_WorldCover_10m_2021_v200_N33E087_Map.tif,N33E087,33,36,87,90
ESA_WorldCover_10m_2021_v200_N33E090_Map.tif,N33E090,33,36,90,93
ESA_WorldCover_10m_2021_v200_N33E093_Map.tif,N33E093,33,36,93,96
ESA_WorldCover_10m_2021_v200_N33E096_Map.tif,N33E096,33,36,96,99
ESA_WorldCover_10m_2021_v200_N33E099_Map.tif,N33E099,33,36,99,102
ESA_WorldCover_10m_2021_v200_N33E102_Map.tif,N33E102,33,36,102,105
ESA_WorldCover_10m_2021_v200_N33E105_Map.tif,N33E105,33,36,105,108
ESA_WorldCover_10m_2021_v200_N33E108_Map.tif,N33E108,33,36,108,111
ESA_WorldCover_10m_2021_v200_N33E111_Map.tif,N33E111,33,36,111,114
ESA_WorldCover_10m_2021_v200_N33E114_Map.tif,N33E114,33,36,114,117
ESA_WorldCover_10m_2021_v200_N33E117_Map.tif,N33E117,33,36,117,120
ESA_WorldCover_10m_2021_v200_N33E120_Map.tif,N33E120,33,36,120,123
ESA_WorldCover_10m_2021_v200_N33E123_Map.tif,N33E123,33,36,123,126
ESA_WorldCover_10m_2021_v200_N33E126_Map.tif,N33E126,33,36,126,129
ESA_WorldCover_10m_2021_v200_N33E129_Map.tif,N33E129,33,36,129,132
ESA_WorldCover_10m_2021_v200_N33E132_Map.tif,N33E132,33,36,132,135
ESA_WorldCover_10m_2021_v200_N33E135_Map.tif,N33E135,33,36,135,138
ESA_WorldCover_10m_2021_v200_N33E138_Map.tif,N33E138,33,36,138,141
ESA_WorldCover_10m_2021_v200_N33W003_Map.tif,N33W003,33,36,-3,0
ESA_WorldCover_10m_2021_v200_N33W006_Map.tif,N33W006,33,36,-6,-3
ESA_WorldCover_10m_2021_v200_N33W009_Map.tif,N33W009,33,36,-9,-6
ESA_WorldCover_10m_2021_v200_N33W018_Map.tif,N33W018,33,36,-18,-15
ESA_WorldCover_10m_2021_v200_N33W078_Map.tif,N33W078,33,36,-78,-75
ESA_WorldCover_10m_2021_v200_N33W081_Map.tif,N33W081,33,36,-81,-78
ESA_WorldCover_10m_2021_v200_N33W084_Map.tif,N33W084,33,36,-84,-81
ESA_WorldCover_10m_2021_v200_N33W087_Map.tif,N33W087,33,36,-87,-84
ESA_WorldCover_10m_2021_v200_N33W090_Map.tif,N33W090,33,36,-90,-87
ESA_WorldCover_10m_2021_v200_N33W093_Map.tif,N33W093,33,36,-93,-90
ESA_WorldCover_10m_2021_v200_N33W096_Map.tif,N33W096,33,36,-96,-93
ESA_WorldCover_10m_2021_v200_N33W099_Map.tif,N33W099,33,36,-99,-96
ESA_WorldCover_10m_2021_v200_N33W102_Map.tif,N33W102,33,36,-102,-99
ESA_WorldCover_10m_2021_v200_N33W105_Map.tif,N33W105,33,36,-105,-102
ESA_WorldCover_10m_2021_v200_N33W108_Map.tif,N33W108,33,36,-108,-105
ESA_WorldCover_10m_2021_v200_N33W111_Map.tif,N33W111,33,36,-111,-108
ESA_WorldCover_10m_2021_v200_N33W114_Map.tif,N33W114,33,36,-114,-111
ESA_WorldCover_10m_2021_v200_N33W117_Map.tif,N33W117,33,36,-117,-114
ESA_WorldCover_10m_2021_v200_N33W120_Map.tif,N33W120,33,36,-120,-117
ESA_WorldCover_10m_2021_v200_N33W123_Map.tif,N33W123,33,36,-123,-120
ESA_WorldCover_10m_2021_v200_N36E000_Map.tif,N36E000,36,39,0,3
ESA_WorldCover_10m_2021_v200_N36E003_Map.tif,N36E003,36,39,3,6
ESA_WorldCover_10m_2021_v200_N36E006_Map.tif,N36E006,36,39,6,9
ESA_WorldCover_10m_2021_v200_N36E009_Map.tif,N36E009,36,39,9,12
ESA_WorldCover_10m_2021_v200_N36E012_Map.tif,N36E012,36,39,12,15
ESA_WorldCover_10m_2021_v200_N36E015_Map.tif,N36E015,36,39,15,18
ESA_WorldCover_10m_2021_v200_N36E018_Map.tif,N36E018,36,39,18,21
ESA_WorldCover_10m_2021_v200_N36E021_Map.tif,N36E021,36,39,21,24
ESA_WorldCover_10m_2021_v200_N36E024_Map.tif,N36E024,36,39,24,27
ESA_WorldCover_10m_2021_v200_N36E027_Map.tif,N36E027,36,39,27,30
ESA_WorldCover_10m_2021_v200_N36E030_Map.tif,N36E030,36,39,30,33
ESA_WorldCover_10m_2021_v200_N36E033_Map.tif,N36E033,36,39,33,36
ESA_WorldCover_10m_2021_v200_N36E036_Map.tif,N36E036,36,39,36,39
ESA_WorldCover_10m_2021_v200_N36E039_Map.tif,N36E039,36,39,39,42
ESA_WorldCover_10m_2021_v200_N36E042_Map.tif,N36E042,36,39,42,45
ESA_WorldCover_10m_2021_v200_N36E045_Map.tif,N36E045,36,39,45,48
ESA_WorldCover_10m_2021_v200_N36E048_Map.tif,N36E048,36,39,48,51
ESA_WorldCover_10m_2021_v200_N36E051_Map.tif,N36E051,36,39,51,54
ESA_WorldCover_10m_2021_v200_N36E054_Map.tif,N36E054,36,39,54,57
ESA_WorldCover_10m_2021_v200_N36E057_Map.tif,N36E057,36,39,57,60
ESA_WorldCover_10m_2021_v200_N36E060_Map.tif,N36E060,36,39,60,63
ESA_WorldCover_10m_2021_v200_N36E063_Map.tif,N36E063,36,39,63,66
ESA_WorldCover_10m_2021_v200_N36E066_Map.tif,N36E066,36,39,66,69
ESA_WorldCover_10m_2021_v200_N36E069_Map.tif,N36E069,36,39,69,72
ESA_WorldCover_10m_2021_v200_N36E072_Map.tif,N36E072,36,39,72,75
ESA_WorldCover_10m_2021_v200_N36E075_Map.tif,N36E075,36,39,75,78
ESA_WorldCover_10m_2021_v200_N36E078_Map.tif,N36E078,36,39,78,81
ESA_WorldCover_10m_2021_v200_N36E081_Map.tif,N36E081,36,39,81,84
ESA_WorldCover_10m_2021_v200_N36E084_Map.tif,N36E084,36,39,84,87
ESA_WorldCover_10m_2021_v200_N36E087_Map.tif,N36E087,36,39,87,90
ESA_WorldCover_10m_2021_v200_N36E090_Map.tif,N36E090,36,39,90,93
ESA_WorldCover_10m_2021_v200_N36E093_Map.tif,N36E093,36,39,93,96
ESA_WorldCover_10m_2021_v200_N36E096_Map.tif,N36E096,36,39,96,99
ESA_WorldCover_10m_2021_v200_N36E099_Map.tif,N36E099,36,39,99,102
ESA_WorldCover_10m_2021_v200_N36E102_Map.tif,N36E102,36,39,102,105
ESA_WorldCover_10m_2021_v200_N36E105_Map.tif,N36E105,36,39,105,108
ESA_WorldCover_10m_2021_v200_N36E108_Map.tif,N36E108,36,39,108,111
ESA_WorldCover_10m_2021_v200_N36E111_Map.tif,N36E111,36,39,111,114
ESA_WorldCover_10m_2021_v200_N36E114_Map.tif,N36E114,36,39,114,117
ESA_WorldCover_10m_2021_v200_N36E117_Map.tif,N36E117,36,39,117,120
ESA_WorldCover_10m_2021_v200_N36E120_Map.tif,N36E120,36,39,120,123
ESA_WorldCover_10m_2021_v200_N36E123_Map.tif,N36E123,36,39,123,126
ESA_WorldCover_10m_2021_v200_N36E126_Map.tif,N36E126,36,39,126,129
ESA_WorldCover_10m_2021_v200_N36E129_Map.tif,N36E129,36,39,129,132
ESA_WorldCover_10m_2021_v200_N36E132_Map.tif,N36E132,36,39,132,135
ESA_WorldCover_10m_2021_v200_N36E135_Map.tif,N36E135,36,39,135,138
ESA_WorldCover_10m_2021_v200_N36E138_Map.tif,N36E138,36,39,138,141
ESA_WorldCover_10m_2021_v200_N36E141_Map.tif,N36E141,36,39,141,144
ESA_WorldCover_10m_2021_v200_N36W003_Map.tif,N36W003,36,39,-3,0
ESA_WorldCover_10m_2021_v200_N36W006_Map.tif,N36W006,36,39,-6,-3
ESA_WorldCover_10m_2021_v200_N36W009_Map.tif,N36W009,36,39,-9,-6
ESA_WorldCover_10m_2021_v200_N36W012_Map.tif,N36W012,36,39,-12,-9
ESA_WorldCover_10m_2021_v200_N36W027_Map.tif,N36W027,36,39,-27,-24
ESA_WorldCover_10m_2021_v200_N36W030_Map.tif,N36W030,36,39,-30,-27
ESA_WorldCover_10m_2021_v200_N36W075_Map.tif,N36W075,36,39,-75,-72
ESA_WorldCover_10m_2021_v200_N36W078_Map.tif,N36W078,36,39,-78,-75
ESA_WorldCover_10m_2021_v200_N36W081_Map.tif,N36W081,36,39,-81,-78
ESA_WorldCover_10m_2021_v200_N36W084_Map.tif,N36W084,36,39,-84,-81
ESA_WorldCover_10m_2021_v200_N36W087_Map.tif,N36W087,36,39,-87,-84
ESA_WorldCover_10m_2021_v200_N36W090_Map.tif,N36W090,36,39,-90,-87
ESA_WorldCover_10m_2021_v200_N36W093_Map.tif,N36W093,36,39,-93,-90
ESA_WorldCover_10m_2021_v200_N36W096_Map.tif,N36W096,36,39,-96,-93
ESA_WorldCover_10m_2021_v200_N36W099_Map.tif,N36W099,36,39,-99,-96
ESA_WorldCover_10m_2021_v200_N36W102_Map.tif,N36W102,36,39,-102,-99
ESA_WorldCover_10m_2021_v200_N36W105_Map.tif,N36W105,36,39,-105,-102
ESA_WorldCover_10m_2021_v200_N36W108_Map.tif,N36W108,36,39,-108,-105
ESA_WorldCover_10m_2021_v200_N36W111_Map.tif,N36W111,36,39,-111,-108
ESA_WorldCover_10m_2021_v200_N36W114_Map.tif,N36W114,36,39,-114,-111
ESA_WorldCover_10m_2021_v200_N36W117_Map.tif,N36W117,36,39,-117,-114
ESA_WorldCover_10m_2021_v200_N36W120_Map.tif,N36W120,36,39,-120,-117
ESA_WorldCover_10m_2021_v200_N36W123_Map.tif,N36W123,36,39,-123,-120
ESA_WorldCover_10m_2021_v200_N36W126_Map.tif,N36W126,36,39,-126,-123
ESA_WorldCover_10m_2021_v200_N39E000_Map.tif,N39E000,39,42,0,3
ESA_WorldCover_10m_2021_v200_N39E003_Map.tif,N39E003,39,42,3,6
ESA_WorldCover_10m_2021_v200_N39E006_Map.tif,N39E006,39,42,6,9
ESA_WorldCover_10m_2021_v200_N39E009_Map.tif,N39E009,39,42,9,12
ESA_WorldCover_10m_2021_v200_N39E012_Map.tif,N39E012,39,42,12,15
ESA_WorldCover_10m_2021_v200_N39E015_Map.tif,N39E015,39,42,15,18
ESA_WorldCover_10m_2021_v200_N39E018_Map.tif,N39E018,39,42,18,21
ESA_WorldCover_10m_2021_v200_N39E021_Map.tif,N39E021,39,42,21,24
ESA_WorldCover_10m_2021_v200_N39E024_Map.tif,N39E024,39,42,24,27
ESA_WorldCover_10m_2021_v200_N39E027_Map.tif,N39E027,39,42,27,30
ESA_WorldCover_10m_2021_v200_N39E030_Map.tif,N39E030,39,42,30,33
ESA_WorldCover_10m_2021_v200_N39E033_Map.tif,N39E033,39,42,33,36
ESA_WorldCover_10m_2021_v200_N39E036_Map.tif,N39E036,39,42,36,39
ESA_WorldCover_10m_2021_v200_N39E039_Map.tif,N39E039,39,42,39,42
ESA_WorldCover_10m_2021_v200_N39E042_Map.tif,N39E042,39,42,42,45
ESA_WorldCover_10m_2021_v200_N39E045_Map.tif,N39E045,39,42,45,48
ESA_WorldCover_10m_2021_v200_N39E048_Map.tif,N39E048,39,42,48,51
ESA_WorldCover_10m_2021_v200_N39E051_Map.tif,N39E051,39,42,51,54
ESA_WorldCover_10m_2021_v200_N39E054_Map.tif,N39E054,39,42,54,57
ESA_WorldCover_10m_2021_v200_N39E057_Map.tif,N39E057,39,42,57,60
ESA_WorldCover_10m_2021_v200_N39E060_Map.tif,N39E060,39,42,60,63
ESA_WorldCover_10m_2021_v200_N39E063_Map.tif,N39E063,39,42,63,66
ESA_WorldCover_10m_2021_v200_N39E066_Map.tif,N39E066,39,42,66,69
ESA_WorldCover_10m_2021_v200_N39E069_Map.tif,N39E069,39,42,69,72
ESA_WorldCover_10m_2021_v200_N39E072_Map.tif,N39E072,39,42,72,75
ESA_WorldCover_10m_2021_v200_N39E075_Map.tif,N39E075,39,42,75,78
ESA_WorldCover_10m_2021_v200_N39E078_Map.tif,N39E078,39,42,78,81
ESA_WorldCover_10m_2021_v200_N39E081_Map.tif,N39E081,39,42,81,84
ESA_WorldCover_10m_2021_v200_N39E084_Map.tif,N39E084,39,42,84,87
ESA_WorldCover_10m_2021_v200_N39E087_Map.tif,N39E087,39,42,87,90
ESA_WorldCover_10m_2021_v200_N39E090_Map.tif,N39E090,39,42,90,93
ESA_WorldCover_10m_2021_v200_N39E093_Map.tif,N39E093,39,42,93,96
ESA_WorldCover_10m_2021_v200_N39E096_Map.tif,N39E096,39,42,96,99
ESA_WorldCover_10m_2021_v200_N39E099_Map.tif,N39E099,39,42,99,102
ESA_WorldCover_10m_2021_v200_N39E102_Map.tif,N39E102,39,42,102,105
ESA_WorldCover_10m_2021_v200_N39E105_Map.tif,N39E105,39,42,105,108
ESA_WorldCover_10m_2021_v200_N39E108_Map.tif,N39E108,39,42,108,111
ESA_WorldCover_10m_2021_v200_N39E111_Map.tif,N39E111,39,42,111,114
ESA_WorldCover_10m_2021_v200_N39E114_Map.tif,N39E114,39,42,114,117
ESA_WorldCover_10m_2021_v200_N39E117_Map.tif,N39E117,39,42,117,120
ESA_WorldCover_10m_2021_v200_N39E120_Map.tif,N39E120,39,42,120,123
ESA_WorldCover_10m_2021_v200_N39E123_Map.tif,N39E123,39,42,123,126
ESA_WorldCover_10m_2021_v200_N39E126_Map.tif,N39E126,39,42,126,129
ESA_WorldCover_10m_2021_v200_N39E129_Map.tif,N39E129,39,42,129,132
ESA_WorldCover_10m_2021_v200_N39E138_Map.tif,N39E138,39,42,138,141
ESA_WorldCover_10m_2021_v200_N39E141_Map.tif,N39E141,39,42,141,144
ESA_WorldCover_10m_2021_v200_N39W003_Map.tif,N39W003,39,42,-3,0
ESA_WorldCover_10m_2021_v200_N39W006_Map.tif,N39W006,39,42,-6,-3
ESA_WorldCover_10m_2021_v200_N39W009_Map.tif,N39W009,39,42,-9,-6
ESA_WorldCover_10m_2021_v200_N39W012_Map.tif,N39W012,39,42,-12,-9
ESA_WorldCover_10m_2021_v200_N39W030_Map.tif,N39W030,39,42,-30,-27
ESA_WorldCover_10m_2021_v200_N39W033_Map.tif,N39W033,39,42,-33,-30
ESA_WorldCover_10m_2021_v200_N39W072_Map.tif,N39W072,39,42,-72,-69
ESA_WorldCover_10m_2021_v200_N39W075_Map.tif,N39W075,39,42,-75,-72
ESA_WorldCover_10m_2021_v200_N39W078_Map.tif,N39W078,39,42,-78,-75
ESA_WorldCover_10m_2021_v200_N39W081_Map.tif,N39W081,39,42,-81,-78
ESA_WorldCover_10m_2021_v200_N39W084_Map.tif,N39W084,39,42,-84,-81
ESA_WorldCover_10m_2021_v200_N39W087_Map.tif,N39W087,39,42,-87,-84
ESA_WorldCover_10m_2021_v200_N39W090_Map.tif,N39W090,39,42,-90,-87
ESA_WorldCover_10m_2021_v200_N39W093_Map.tif,N39W093,39,42,-93,-90
ESA_WorldCover_10m_2021_v200_N39W096_Map.tif,N39W096,39,42,-96,-93
ESA_WorldCover_10m_2021_v200_N39W099_Map.tif,N39W099,39,42,-99,-96
ESA_WorldCover_10m_2021_v200_N39W102_Map.tif,N39W102,39,42,-102,-99
ESA_WorldCover_10m_2021_v200_N39W105_Map.tif,N39W105,39,42,-105,-102
ESA_WorldCover_10m_2021_v200_N39W108_Map.tif,N39W108,39,42,-108,-105
ESA_WorldCover_10m_2021_v200_N39W111_Map.tif,N39W111,39,42,-111,-108
ESA_WorldCover_10m_2021_v200_N39W114_Map.tif,N39W114,39,42,-114,-111
ESA_WorldCover_10m_2021_v200_N39W117_Map.tif,N39W117,39,42,-117,-114
ESA_WorldCover_10m_2021_v200_N39W120_Map.tif,N39W120,39,42,-120,-117
ESA_WorldCover_10m_2021_v200_N39W123_Map.tif,N39W123,39,42,-123,-120
ESA_WorldCover_10m_2021_v200_N39W126_Map.tif,N39W126,39,42,-126,-123
ESA_WorldCover_10m_2021_v200_N42E000_Map.tif,N42E000,42,45,0,3
ESA_WorldCover_10m_2021_v200_N42E003_Map.tif,N42E003,42,45,3,6
ESA_WorldCover_10m_2021_v200_N42E006_Map.tif,N42E006,42,45,6,9
ESA_WorldCover_10m_2021_v200_N42E009_Map.tif,N42E009,42,45,9,12
ESA_WorldCover_10m_2021_v200_N42E012_Map.tif,N42E012,42,45,12,15
ESA_WorldCover_10m_2021_v200_N42E015_Map.tif,N42E015,42,45,15,18
ESA_WorldCover_10m_2021_v200_N42E018_Map.tif,N42E018,42,45,18,21
ESA_WorldCover_10m_2021_v200_N42E021_Map.tif,N42E021,42,45,21,24
ESA_WorldCover_10m_2021_v200_N42E024_Map.tif,N42E024,42,45,24,27
ESA_WorldCover_10m_2021_v200_N42E027_Map.tif,N42E027,42,45,27,30
ESA_WorldCover_10m_2021_v200_N42E033_Map.tif,N42E033,42,45,33,36
ESA_WorldCover_10m_2021_v200_N42E036_Map.tif,N42E036,42,45,36,39
ESA_WorldCover_10m_2021_v200_N42E039_Map.tif,N42E039,42,45,39,42
ESA_WorldCover_10m_2021_v200_N42E042_Map.tif,N42E042,42,45,42,45
ESA_WorldCover_10m_2021_v200_N42E045_Map.tif,N42E045,42,45,45,48
ESA_WorldCover_10m_2021_v200_N42E048_Map.tif,N42E048,42,45,48,51
ESA_WorldCover_10m_2021_v200_N42E051_Map.tif,N42E051,42,45,51,54
ESA_WorldCover_10m_2021_v200_N42E054_Map.tif,N42E054,42,45,54,57
ESA_WorldCover_10m_2021_v200_N42E057_Map.tif,N42E057,42,45,57,60
ESA_WorldCover_10m_2021_v200_N42E060_Map.tif,N42E060,42,45,60,63
ESA_WorldCover_10m_2021_v200_N42E063_Map.tif,N42E063,42,45,63,66
ESA_WorldCover_10m_2021_v200_N42E066_Map.tif,N42E066,42,45,66,69
ESA_WorldCover_10m_2021_v200_N42E069_Map.tif,N42E069,42,45,69,72
ESA_WorldCover_10m_2021_v200_N42E072_Map.tif,N42E072,42,45,72,75
ESA_WorldCover_10m_2021_v200_N42E075_Map.tif,N42E075,42,45,75,78
ESA_WorldCover_10m_2021_v200_N42E078_Map.tif,N42E078,42,45,78,81
ESA_WorldCover_10m_2021_v200_N42E081_Map.tif,N42E081,42,45,81,84
ESA_WorldCover_10m_2021_v200_N42E084_Map.tif,N42E084,42,45,84,87
ESA_WorldCover_10m_2021_v200_N42E087_Map.tif,N42E087,42,45,87,90
ESA_WorldCover_10m_2021_v200_N42E090_Map.tif,N42E090,42,45,90,93
ESA_WorldCover_10m_2021_v200_N42E093_Map.tif,N42E093,42,45,93,96
ESA_WorldCover_10m_2021_v200_N42E096_Map.tif,N42E096,42,45,96,99
ESA_WorldCover_10m_2021_v200_N42E099_Map.tif,N42E099,42,45,99,102
ESA_WorldCover_10m_2021_v200_N42E102_Map.tif,N42E102,42,45,102,105
ESA_WorldCover_10m_2021_v200_N42E105_Map.tif,N42E105,42,45,105,108
ESA_WorldCover_10m_2021_v200_N42E108_Map.tif,N42E108,42,45,108,111
ESA_WorldCover_10m_2021_v200_N42E111_Map.tif,N42E111,42,45,111,114
ESA_WorldCover_10m_2021_v200_N42E114_Map.tif,N42E114,42,45,114,117
ESA_WorldCover_10m_2021_v200_N42E117_Map.tif,N42E117,42,45,117,120
ESA_WorldCover_10m_2021_v200_N42E120_Map.tif,N42E120,42,45,120,123
ESA_WorldCover_10m_2021_v200_N42E123_Map.tif,N42E123,42,45,123,126
ESA_WorldCover_10m_2021_v200_N42E126_Map.tif,N42E126,42,45,126,129
ESA_WorldCover_10m_2021_v200_N42E129_Map.tif,N42E129,42,45,129,132
ESA_WorldCover_10m_2021_v200_N42E132_Map.tif,N42E132,42,45,132,135
ESA_WorldCover_10m_2021_v200_N42E135_Map.tif,N42E135,42,45,135,138
ESA_WorldCover_10m_2021_v200_N42E138_Map.tif,N42E138,42,45,138,141
ESA_WorldCover_10m_2021_v200_N42E141_Map.tif,N42E141,42,45,141,144
ESA_WorldCover_10m_2021_v200_N42E144_Map.tif,N42E144,42,45,144,147
ESA_WorldCover_10m_2021_v200_N42E147_Map.tif,N42E147,42,45,147,150
ESA_WorldCover_10m_2021_v200_N42W003_Map.tif,N42W003,42,45,-3,0
ESA_WorldCover_10m_2021_v200_N42W006_Map.tif,N42W006,42,45,-6,-3
ESA_WorldCover_10m_2021_v200_N42W009_Map.tif,N42W009,42,45,-9,-6
ESA_WorldCover_10m_2021_v200_N42W012_Map.tif,N42W012,42,45,-12,-9
ESA_WorldCover_10m_2021_v200_N42W060_Map.tif,N42W060,42,45,-60,-57
ESA_WorldCover_10m_2021_v200_N42W063_Map.tif,N42W063,42,45,-63,-60
ESA_WorldCover_10m_2021_v200_N42W066_Map.tif,N42W066,42,45,-66,-63
ESA_WorldCover_10m_2021_v200_N42W069_Map.tif,N42W069,42,45,-69,-66
ESA_WorldCover_10m_2021_v200_N42W072_Map.tif,N42W072,42,45,-72,-69
ESA_WorldCover_10m_2021_v200_N42W075_Map.tif,N42W075,42,45,-75,-72
ESA_WorldCover_10m_2021_v200_N42W078_Map.tif,N42W078,42,45,-78,-75
ESA_WorldCover_10m_2021_v200_N42W081_Map.tif,N42W081,42,45,-81,-78
ESA_WorldCover_10m_2021_v200_N42W084_Map.tif,N42W084,42,45,-84,-81
ESA_WorldCover_10m_2021_v200_N42W087_Map.tif,N42W087,42,45,-87,-84
ESA_WorldCover_10m_2021_v200_N42W090_Map.tif,N42W090,42,45,-90,-87
ESA_WorldCover_10m_2021_v200_N42W093_Map.tif,N42W093,42,45,-93,-90
ESA_WorldCover_10m_2021_v200_N42W096_Map.tif,N42W096,42,45,-96,-93
ESA_WorldCover_10m_2021_v200_N42W099_Map.tif,N42W099,42,45,-99,-96
ESA_WorldCover_10m_2021_v200_N42W102_Map.tif,N42W102,42,45,-102,-99
ESA_WorldCover_10m_2021_v200_N42W105_Map.tif,N42W105,42,45,-105,-102
ESA_WorldCover_10m_2021_v200_N42W108_Map.tif,N42W108,42,45,-108,-105
ESA_WorldCover_10m_2021_v200_N42W111_Map.tif,N42W111,42,45,-111,-108
ESA_WorldCover_10m_2021_v200_N42W114_Map.tif,N42W114,42,45,-114,-111
ESA_WorldCover_10m_2021_v200_N42W117_Map.tif,N42W117,42,45,-117,-114
ESA_WorldCover_10m_2021_v200_N42W120_Map.tif,N42W120,42,45,-120,-117
ESA_WorldCover_10m_2021_v200_N42W123_Map.tif,N42W123,42,45,-123,-120
ESA_WorldCover_10m_2021_v200_N42W126_Map.tif,N42W126,42,45,-126,-123
ESA_WorldCover_10m_2021_v200_N45E000_Map.tif,N45E000,45,48,0,3
ESA_WorldCover_10m_2021_v200_N45E003_Map.tif,N45E003,45,48,3,6
ESA_WorldCover_10m_2021_v200_N45E006_Map.tif,N45E006,45,48,6,9
ESA_WorldCover_10m_2021_v200_N45E009_Map.tif,N45E009,45,48,9,12
ESA_WorldCover_10m_2021_v200_N45E012_Map.tif,N45E012,45,48,12,15
ESA_WorldCover_10m_2021_v200_N45E015_Map.tif,N45E015,45,48,15,18
ESA_WorldCover_10m_2021_v200_N45E018_Map.tif,N45E018,45,48,18,21
ESA_WorldCover_10m_2021_v200_N45E021_Map.tif,N45E021,45,48,21,24
ESA_WorldCover_10m_2021_v200_N45E024_Map.tif,N45E024,45,48,24,27
ESA_WorldCover_10m_2021_v200_N45E027_Map.tif,N45E027,45,48,27,30
ESA_WorldCover_10m_2021_v200_N45E030_Map.tif,N45E030,45,48,30,33
ESA_WorldCover_10m_2021_v200_N45E033_Map.tif,N45E033,45,48,33,36
ESA_WorldCover_10m_2021_v200_N45E036_Map.tif,N45E036,45,48,36,39
ESA_WorldCover_10m_2021_v200_N45E039_Map.tif,N45E039,45,48,39,42
ESA_WorldCover_10m_2021_v200_N45E042_Map.tif,N45E042,45,48,42,45
ESA_WorldCover_10m_2021_v200_N45E045_Map.tif,N45E045,45,48,45,48
ESA_WorldCover_10m_2021_v200_N45E048_Map.tif,N45E048,45,48,48,51
ESA_WorldCover_10m_2021_v200_N45E051_Map.tif,N45E051,45,48,51,54
ESA_WorldCover_10m_2021_v200_N45E054_Map.tif,N45E054,45,48,54,57
ESA_WorldCover_10m_2021_v200_N45E057_Map.tif,N45E057,45,48,57,60
ESA_WorldCover_10m_2021_v200_N45E060_Map.tif,N45E060,45,48,60,63
ESA_WorldCover_10m_2021_v200_N45E063_Map.tif,N45E063,45,48,63,66
ESA_WorldCover_10m_2021_v200_N45E066_Map.tif,N45E066,45,48,66,69
ESA_WorldCover_10m_2021_v200_N45E069_Map.tif,N45E069,45,48,69,72
ESA_WorldCover_10m_2021_v200_N45E072_Map.tif,N45E072,45,48,72,75
ESA_WorldCover_10m_2021_v200_N45E075_Map.tif,N45E075,45,48,75,78
ESA_WorldCover_10m_2021_v200_N45E078_Map.tif,N45E078,45,48,78,81
ESA_WorldCover_10m_2021_v200_N45E081_Map.tif,N45E081,45,48,81,84
ESA_WorldCover_10m_2021_v200_N45E084_Map.tif,N45E084,45,48,84,87
ESA_WorldCover_10m_2021_v200_N45E087_Map.tif,N45E087,45,48,87,90
ESA_WorldCover_10m_2021_v200_N45E090_Map.tif,N45E090,45,48,90,93
ESA_WorldCover_10m_2021_v200_N45E093_Map.tif,N45E093,45,48,93,96
ESA_WorldCover_10m_2021_v200_N45E096_Map.tif,N45E096,45,48,96,99
ESA_WorldCover_10m_2021_v200_N45E099_Map.tif,N45E099,45,48,99,102
ESA_WorldCover_10m_2021_v200_N45E102_Map.tif,N45E102,45,48,102,105
ESA_WorldCover_10m_2021_v200_N45E105_Map.tif,N45E105,45,48,105,108
ESA_WorldCover_10m_2021_v200_N45E108_Map.tif,N45E108,45,48,108,111
ESA_WorldCover_10m_2021_v200_N45E111_Map.tif,N45E111,45,48,111,114
ESA_WorldCover_10m_2021_v200_N45E114_Map.tif,N45E114,45,48,114,117
ESA_WorldCover_10m_2021_v200_N45E117_Map.tif,N45E117,45,48,117,120
ESA_WorldCover_10m_2021_v200_N45E120_Map.tif,N45E120,45,48,120,123
ESA_WorldCover_10m_2021_v200_N45E123_Map.tif,N45E123,45,48,123,126
ESA_WorldCover_10m_2021_v200_N45E126_Map.tif,N45E126,45,48,126,129
ESA_WorldCover_10m_2021_v200_N45E129_Map.tif,N45E129,45,48,129,132
ESA_WorldCover_10m_2021_v200_N45E132_Map.tif,N45E132,45,48,132,135
ESA_WorldCover_10m_2021_v200_N45E135_Map.tif,N45E135,45,48,135,138
ESA_WorldCover_10m_2021_v200_N45E138_Map.tif,N45E138,45,48,138,141
ESA_WorldCover_10m_2021_v200_N45E141_Map.tif,N45E141,45,48,141,144
ESA_WorldCover_10m_2021_v200_N45E147_Map.tif,N45E147,45,48,147,150
ESA_WorldCover_10m_2021_v200_N45E150_Map.tif,N45E150,45,48,150,153
ESA_WorldCover_10m_2021_v200_N45E153_Map.tif,N45E153,45,48,153,156
ESA_WorldCover_10m_2021_v200_N45W003_Map.tif,N45W003,45,48,-3,0
ESA_WorldCover_10m_2021_v200_N45W006_Map.tif,N45W006,45,48,-6,-3
ESA_WorldCover_10m_2021_v200_N45W054_Map.tif,N45W054,45,48,-54,-51
ESA_WorldCover_10m_2021_v200_N45W057_Map.tif,N45W057,45,48,-57,-54
ESA_WorldCover_10m_2021_v200_N45W060_Map.tif,N45W060,45,48,-60,-57
ESA_WorldCover_10m_2021_v200_N45W063_Map.tif,N45W063,45,48,-63,-60
ESA_WorldCover_10m_2021_v200_N45W066_Map.tif,N45W066,45,48,-66,-63
ESA_WorldCover_10m_2021_v200_N45W069_Map.tif,N45W069,45,48,-69,-66
ESA_WorldCover_10m_2021_v200_N45W072_Map.tif,N45W072,45,48,-72,-69
ESA_WorldCover_10m_2021_v200_N45W075_Map.tif,N45W075,45,48,-75,-72
ESA_WorldCover_10m_2021_v200_N45W078_Map.tif,N45W078,45,48,-78,-75
ESA_WorldCover_10m_2021_v200_N45W081_Map.tif,N45W081,45,48,-81,-78
ESA_WorldCover_10m_2021_v200_N45W084_Map.tif,N45W084,45,48,-84,-81
ESA_WorldCover_10m_2021_v200_N45W087_Map.tif,N45W087,45,48,-87,-84
ESA_WorldCover_10m_2021_v200_N45W090_Map.tif,N45W090,45,48,-90,-87
ESA_WorldCover_10m_2021_v200_N45W093_Map.tif,N45W093,45,48,-93,-90
ESA_WorldCover_10m_2021_v200_N45W096_Map.tif,N45W096,45,48,-96,-93
ESA_WorldCover_10m_2021_v200_N45W099_Map.tif,N45W099,45,48,-99,-96
ESA_WorldCover_10m_2021_v200_N45W102_Map.tif,N45W102,45,48,-102,-99
ESA_WorldCover_10m_2021_v200_N45W105_Map.tif,N45W105,45,48,-105,-102
ESA_WorldCover_10m_2021_v200_N45W108_Map.tif,N45W108,45,48,-108,-105
ESA_WorldCover_10m_2021_v200_N45W111_Map.tif,N45W111,45,48,-111,-108
ESA_WorldCover_10m_2021_v200_N45W114_Map.tif,N45W114,45,48,-114,-111
ESA_WorldCover_10m_2021_v200_N45W117_Map.tif,N45W117,45,48,-117,-114
ESA_WorldCover_10m_2021_v200_N45W120_Map.tif,N45W120,45,48,-120,-117
ESA_WorldCover_10m_2021_v200_N45W123_Map.tif,N45W123,45,48,-123,-120
ESA_WorldCover_10m_2021_v200_N45W126_Map.tif,N45W126,45,48,-126,-123
ESA_WorldCover_10m_2021_v200_N48E000_Map.tif,N48E000,48,51,0,3
ESA_WorldCover_10m_2021_v200_N48E003_Map.tif,N48E003,48,51,3,6
ESA_WorldCover_10m_2021_v200_N48E006_Map.tif,N48E006,48,51,6,9
ESA_WorldCover_10m_2021_v200_N48E009_Map.tif,N48E009,48,51,9,12
ESA_WorldCover_10m_2021_v200_N48E012_Map.tif,N48E012,48,51,12,15
ESA_WorldCover_10m_2021_v200_N48E015_Map.tif,N48E015,48,51,15,18
ESA_WorldCover_10m_2021_v200_N48E018_Map.tif,N48E018,48,51,18,21
ESA_WorldCover_10m_2021_v200_N48E021_Map.tif,N48E021,48,51,21,24
ESA_WorldCover_10m_2021_v200_N48E024_Map.tif,N48E024,48,51,24,27
ESA_WorldCover_10m_2021_v200_N48E027_Map.tif,N48E027,48,51,27,30
ESA_WorldCover_10m_2021_v200_N48E030_Map.tif,N48E030,48,51,30,33
ESA_WorldCover_10m_2021_v200_N48E033_Map.tif,N48E033,48,51,33,36
ESA_WorldCover_10m_2021_v200_N48E036_Map.tif,N48E036,48,51,36,39
ESA_WorldCover_10m_2021_v200_N48E039_Map.tif,N48E039,48,51,39,42
ESA_WorldCover_10m_2021_v200_N48E042_Map.tif,N48E042,48,51,42,45
ESA_WorldCover_10m_2021_v200_N48E045_Map.tif,N48E045,48,51,45,48
ESA_WorldCover_10m_2021_v200_N48E048_Map.tif,N48E048,48,51,48,51
ESA_WorldCover_10m_2021_v200_N48E051_Map.tif,N48E051,48,51,51,54
ESA_WorldCover_10m_2021_v200_N48E054_Map.tif,N48E054,48,51,54,57
ESA_WorldCover_10m_2021_v200_N48E057_Map.tif,N48E057,48,51,57,60
ESA_WorldCover_10m_2021_v200_N48E060_Map.tif,N48E060,48,51,60,63
ESA_WorldCover_10m_2021_v200_N48E063_Map.tif,N48E063,48,51,63,66
ESA_WorldCover_10m_2021_v200_N48E066_Map.tif,N48E066,48,51,66,69
ESA_WorldCover_10m_2021_v200_N48E069_Map.tif,N48E069,48,51,69,72
ESA_WorldCover_10m_2021_v200_N48E072_Map.tif,N48E072,48,51,72,75
ESA_WorldCover_10m_2021_v200_N48E075_Map.tif,N48E075,48,51,75,78
ESA_WorldCover_10m_2021_v200_N48E078_Map.tif,N48E078,48,51,78,81
ESA_WorldCover_10m_2021_v200_N48E081_Map.tif,N48E081,48,51,81,84
ESA_WorldCover_10m_2021_v200_N48E084_Map.tif,N48E084,48,51,84,87
ESA_WorldCover_10m_2021_v200_N48E087_Map.tif,N48E087,48,51,87,90
ESA_WorldCover_10m_2021_v200_N48E090_Map.tif,N48E090,48,51,90,93
ESA_WorldCover_10m_2021_v200_N48E093_Map.tif,N48E093,48,51,93,96
ESA_WorldCover_10m_2021_v200_N48E096_Map.tif,N48E096,48,51,96,99
ESA_WorldCover_10m_2021_v200_N48E099_Map.tif,N48E099,48,51,99,102
ESA_WorldCover_10m_2021_v200_N48E102_Map.tif,N48E102,48,51,102,105
ESA_WorldCover_10m_2021_v200_N48E105_Map.tif,N48E105,48,51,105,108
ESA_WorldCover_10m_2021_v200_N48E108_Map.tif,N48E108,48,51,108,111
ESA_WorldCover_10m_2021_v200_N48E111_Map.tif,N48E111,48,51,111,114
ESA_WorldCover_10m_2021_v200_N48E114_Map.tif,N48E114,48,51,114,117
ESA_WorldCover_10m_2021_v200_N48E117_Map.tif,N48E117,48,51,117,120
ESA_WorldCover_10m_2021_v200_N48E120_Map.tif,N48E120,48,51,120,123
ESA_WorldCover_10m_2021_v200_N48E123_Map.tif,N48E123,48,51,123,126
ESA_WorldCover_10m_2021_v200_N48E126_Map.tif,N48E126,48,51,126,129
ESA_WorldCover_10m_2021_v200_N48E129_Map.tif,N48E129,48,51,129,132
ESA_WorldCover_10m_2021_v200_N48E132_Map.tif,N48E132,48,51,132,135
ESA_WorldCover_10m_2021_v200_N48E135_Map.tif,N48E135,48,51,135,138
ESA_WorldCover_10m_2021_v200_N48E138_Map.tif,N48E138,48,51,138,141
ESA_WorldCover_10m_2021_v200_N48E141_Map.tif,N48E141,48,51,141,144
ESA_WorldCover_10m_2021_v200_N48E144_Map.tif,N48E144,48,51,144,147
ESA_WorldCover_10m_2021_v200_N48E153_Map.tif,N48E153,48,51,153,156
ESA_WorldCover_10m_2021_v200_N48E156_Map.tif,N48E156,48,51,156,159
ESA_WorldCover_10m_2021_v200_N48W003_Map.tif,N48W003,48,51,-3,0
ESA_WorldCover_10m_2021_v200_N48W006_Map.tif,N48W006,48,51,-6,-3
ESA_WorldCover_10m_2021_v200_N48W009_Map.tif,N48W009,48,51,-9,-6
ESA_WorldCover_10m_2021_v200_N48W054_Map.tif,N48W054,48,51,-54,-51
ESA_WorldCover_10m_2021_v200_N48W057_Map.tif,N48W057,48,51,-57,-54
ESA_WorldCover_10m_2021_v200_N48W060_Map.tif,N48W060,48,51,-60,-57
ESA_WorldCover_10m_2021_v200_N48W063_Map.tif,N48W063,48,51,-63,-60
ESA_WorldCover_10m_2021_v200_N48W066_Map.tif,N48W066,48,51,-66,-63
ESA_WorldCover_10m_2021_v200_N48W069_Map.tif,N48W069,48,51,-69,-66
ESA_WorldCover_10m_2021_v200_N48W072_Map.tif,N48W072,48,51,-72,-69
ESA_WorldCover_10m_2021_v200_N48W075_Map.tif,N48W075,48,51,-75,-72
ESA_WorldCover_10m_2021_v200_N48W078_Map.tif,N48W078,48,51,-78,-75
ESA_WorldCover_10m_2021_v200_N48W081_Map.tif,N48W081,48,51,-81,-78
ESA_WorldCover_10m_2021_v200_N48W084_Map.tif,N48W084,48,51,-84,-81
ESA_WorldCover_10m_2021_v200_N48W087_Map.tif,N48W087,48,51,-87,-84
ESA_WorldCover_10m_2021_v200_N48W090_Map.tif,N48W090,48,51,-90,-87
ESA_WorldCover_10m_2021_v200_N48W093_Map.tif,N48W093,48,51,-93,-90
ESA_WorldCover_10m_2021_v200_N48W096_Map.tif,N48W096,48,51,-96,-93
ESA_WorldCover_10m_2021_v200_N48W099_Map.tif,N48W099,48,51,-99,-96
ESA_WorldCover_10m_2021_v200_N48W102_Map.tif,N48W102,48,51,-102,-99
ESA_WorldCover_10m_2021_v200_N48W105_Map.tif,N48W105,48,51,-105,-102
ESA_WorldCover_10m_2021_v200_N48W108_Map.tif,N48W108,48,51,-108,-105
ESA_WorldCover_10m_2021_v200_N48W111_Map.tif,N48W111,48,51,-111,-108
ESA_WorldCover_10m_2021_v200_N48W114_Map.tif,N48W114,48,51,-114,-111
ESA_WorldCover_10m_2021_v200_N48W117_Map.tif,N48W117,48,51,-117,-114
ESA_WorldCover_10m_2021_v200_N48W120_Map.tif,N48W120,48,51,-120,-117
ESA_WorldCover_10m_2021_v200_N48W123_Map.tif,N48W123,48,51,-123,-120
ESA_WorldCover_10m_2021_v200_N48W126_Map.tif,N48W126,48,51,-126,-123
ESA_WorldCover_10m_2021_v200_N48W129_Map.tif,N48W129,48,51,-129,-126
ESA_WorldCover_10m_2021_v200_N48W132_Map.tif,N48W132,48,51,-132,-129
ESA_WorldCover_10m_2021_v200_N51E000_Map.tif,N51E000,51,54,0,3
ESA_WorldCover_10m_2021_v200_N51E003_Map.tif,N51E003,51,54,3,6
ESA_WorldCover_10m_2021_v200_N51E006_Map.tif,N51E006,51,54,6,9
ESA_WorldCover_10m_2021_v200_N51E009_Map.tif,N51E009,51,54,9,12
ESA_WorldCover_10m_2021_v200_N51E012_Map.tif,N51E012,51,54,12,15
ESA_WorldCover_10m_2021_v200_N51E015_Map.tif,N51E015,51,54,15,18
ESA_WorldCover_10m_2021_v200_N51E018_Map.tif,N51E018,51,54,18,21
ESA_WorldCover_10m_2021_v200_N51E021_Map.tif,N51E021,51,54,21,24
ESA_WorldCover_10m_2021_v200_N51E024_Map.tif,N51E024,51,54,24,27
ESA_WorldCover_10m_2021_v200_N51E027_Map.tif,N51E027,51,54,27,30
ESA_WorldCover_10m_2021_v200_N51E030_Map.tif,N51E030,51,54,30,33
ESA_WorldCover_10m_2021_v200_N51E033_Map.tif,N51E033,51,54,33,36
ESA_WorldCover_10m_2021_v200_N51E036_Map.tif,N51E036,51,54,36,39
ESA_WorldCover_10m_2021_v200_N51E039_Map.tif,N51E039,51,54,39,42
ESA_WorldCover_10m_2021_v200_N51E042_Map.tif,N51E042,51,54,42,45
ESA_WorldCover_10m_2021_v200_N51E045_Map.tif,N51E045,51,54,45,48
ESA_WorldCover_10m_2021_v200_N51E048_Map.tif,N51E048,51,54,48,51
ESA_WorldCover_10m_2021_v200_N51E051_Map.tif,N51E051,51,54,51,54
ESA_WorldCover_10m_2021_v200_N51E054_Map.tif,N51E054,51,54,54,57
ESA_WorldCover_10m_2021_v200_N51E057_Map.tif,N51E057,51,54,57,60
ESA_WorldCover_10m_2021_v200_N51E060_Map.tif,N51E060,51,54,60,63
ESA_WorldCover_10m_2021_v200_N51E063_Map.tif,N51E063,51,54,63,66
ESA_WorldCover_10m_2021_v200_N51E066_Map.tif,N51E066,51,54,66,69
ESA_WorldCover_10m_2021_v200_N51E069_Map.tif,N51E069,51,54,69,72
ESA_WorldCover_10m_2021_v200_N51E072_Map.tif,N51E072,51,54,72,75
ESA_WorldCover_10m_2021_v200_N51E075_Map.tif,N51E075,51,54,75,78
ESA_WorldCover_10m_2021_v200_N51E078_Map.tif,N51E078,51,54,78,81
ESA_WorldCover_10m_2021_v200_N51E081_Map.tif,N51E081,51,54,81,84
ESA_WorldCover_10m_2021_v200_N51E084_Map.tif,N51E084,51,54,84,87
ESA_WorldCover_10m_2021_v200_N51E087_Map.tif,N51E087,51,54,87,90
ESA_WorldCover_10m_2021_v200_N51E090_Map.tif,N51E090,51,54,90,93
ESA_WorldCover_10m_2021_v200_N51E093_Map.tif,N51E093,51,54,93,96
ESA_WorldCover_10m_2021_v200_N51E096_Map.tif,N51E096,51,54,96,99
ESA_WorldCover_10m_2021_v200_N51E099_Map.tif,N51E099,51,54,99,102
ESA_WorldCover_10m_2021_v200_N51E102_Map.tif,N51E102,51,54,102,105
ESA_WorldCover_10m_2021_v200_N51E105_Map.tif,N51E105,51,54,105,108
ESA_WorldCover_10m_2021_v200_N51E108_Map.tif,N51E108,51,54,108,111
ESA_WorldCover_10m_2021_v200_N51E111_Map.tif,N51E111,51,54,111,114
ESA_WorldCover_10m_2021_v200_N51E114_Map.tif,N51E114,51,54,114,117
ESA_WorldCover_10m_2021_v200_N51E117_Map.tif,N51E117,51,54,117,120
ESA_WorldCover_10m_2021_v200_N51E120_Map.tif,N51E120,51,54,120,123
ESA_WorldCover_10m_2021_v200_N51E123_Map.tif,N51E123,51,54,123,126
ESA_WorldCover_10m_2021_v200_N51E126_Map.tif,N51E126,51,54,126,129
ESA_WorldCover_10m_2021_v200_N51E129_Map.tif,N51E129,51,54,129,132
ESA_WorldCover_10m_2021_v200_N51E132_Map.tif,N51E132,51,54,132,135
ESA_WorldCover_10m_2021_v200_N51E135_Map.tif,N51E135,51,54,135,138
ESA_WorldCover_10m_2021_v200_N51E138_Map.tif,N51E138,51,54,138,141
ESA_WorldCover_10m_2021_v200_N51E141_Map.tif,N51E141,51,54,141,144
ESA_WorldCover_10m_2021_v200_N51E153_Map.tif,N51E153,51,54,153,156
ESA_WorldCover_10m_2021_v200_N51E156_Map.tif,N51E156,51,54,156,159
ESA_WorldCover_10m_2021_v200_N51E159_Map.tif,N51E159,51,54,159,162
ESA_WorldCover_10m_2021_v200_N51E171_Map.tif,N51E171,51,54,171,174
ESA_WorldCover_10m_2021_v200_N51E174_Map.tif,N51E174,51,54,174,177
ESA_WorldCover_10m_2021_v200_N51E177_Map.tif,N51E177,51,54,177,180
ESA_WorldCover_10m_2021_v200_N51W003_Map.tif,N51W003,51,54,-3,0
ESA_WorldCover_10m_2021_v200_N51W006_Map.tif,N51W006,51,54,-6,-3
ESA_WorldCover_10m_2021_v200_N51W009_Map.tif,N51W009,51,54,-9,-6
ESA_WorldCover_10m_2021_v200_N51W012_Map.tif,N51W012,51,54,-12,-9
ESA_WorldCover_10m_2021_v200_N51W057_Map.tif,N51W057,51,54,-57,-54
ESA_WorldCover_10m_2021_v200_N51W060_Map.tif,N51W060,51,54,-60,-57
ESA_WorldCover_10m_2021_v200_N51W063_Map.tif,N51W063,51,54,-63,-60
ESA_WorldCover_10m_2021_v200_N51W066_Map.tif,N51W066,51,54,-66,-63
ESA_WorldCover_10m_2021_v200_N51W069_Map.tif,N51W069,51,54,-69,-66
ESA_WorldCover_10m_2021_v200_N51W072_Map.tif,N51W072,51,54,-72,-69
ESA_WorldCover_10m_2021_v200_N51W075_Map.tif,N51W075,51,54,-75,-72
ESA_WorldCover_10m_2021_v200_N51W078_Map.tif,N51W078,51,54,-78,-75
ESA_WorldCover_10m_2021_v200_N51W081_Map.tif,N51W081,51,54,-81,-78
ESA_WorldCover_10m_2021_v200_N51W084_Map.tif,N51W084,51,54,-84,-81
ESA_WorldCover_10m_2021_v200_N51W087_Map.tif,N51W087,51,54,-87,-84
ESA_WorldCover_10m_2021_v200_N51W090_Map.tif,N51W090,51,54,-90,-87
ESA_WorldCover_10m_2021_v200_N51W093_Map.tif,N51W093,51,54,-93,-90
ESA_WorldCover_10m_2021_v200_N51W096_Map.tif,N51W096,51,54,-96,-93
ESA_WorldCover_10m_2021_v200_N51W099_Map.tif,N51W099,51,54,-99,-96
ESA_WorldCover_10m_2021_v200_N51W102_Map.tif,N51W102,51,54,-102,-99
ESA_WorldCover_10m_2021_v200_N51W105_Map.tif,N51W105,51,54,-105,-102
ESA_WorldCover_10m_2021_v200_N51W108_Map.tif,N51W108,51,54,-108,-105
ESA_WorldCover_10m_2021_v200_N51W111_Map.tif,N51W111,51,54,-111,-108
ESA_WorldCover_10m_2021_v200_N51W114_Map.tif,N51W114,51,54,-114,-111
ESA_WorldCover_10m_2021_v200_N51W117_Map.tif,N51W117,51,54,-117,-114
ESA_WorldCover_10m_2021_v200_N51W120_Map.tif,N51W120,51,54,-120,-117
ESA_WorldCover_10m_2021_v200_N51W123_Map.tif,N51W123,51,54,-123,-120
ESA_WorldCover_10m_2021_v200_N51W126_Map.tif,N51W126,51,54,-126,-123
ESA_WorldCover_10m_2021_v200_N51W129_Map.tif,N51W129,51,54,-129,-126
ESA_WorldCover_10m_2021_v200_N51W132_Map.tif,N51W132,51,54,-132,-129
ESA_WorldCover_10m_2021_v200_N51W135_Map.tif,N51W135,51,54,-135,-132
ESA_WorldCover_10m_2021_v200_N51W168_Map.tif,N51W168,51,54,-168,-165
ESA_WorldCover_10m_2021_v200_N51W171_Map.tif,N51W171,51,54,-171,-168
ESA_WorldCover_10m_2021_v200_N51W174_Map.tif,N51W174,51,54,-174,-171
ESA_WorldCover_10m_2021_v200_N51W177_Map.tif,N51W177,51,54,-177,-174
ESA_WorldCover_10m_2021_v200_N51W180_Map.tif,N51W180,51,54,-180,-177
ESA_WorldCover_10m_2021_v200_N54E006_Map.tif,N54E006,54,57,6,9
ESA_WorldCover_10m_2021_v200_N54E009_Map.tif,N54E009,54,57,9,12
ESA_WorldCover_10m_2021_v200_N54E012_Map.tif,N54E012,54,57,12,15
ESA_WorldCover_10m_2021_v200_N54E015_Map.tif,N54E015,54,57,15,18
ESA_WorldCover_10m_2021_v200_N54E018_Map.tif,N54E018,54,57,18,21
ESA_WorldCover_10m_2021_v200_N54E021_Map.tif,N54E021,54,57,21,24
ESA_WorldCover_10m_2021_v200_N54E024_Map.tif,N54E024,54,57,24,27
ESA_WorldCover_10m_2021_v200_N54E027_Map.tif,N54E027,54,57,27,30
ESA_WorldCover_10m_2021_v200_N54E030_Map.tif,N54E030,54,57,30,33
ESA_WorldCover_10m_2021_v200_N54E033_Map.tif,N54E033,54,57,33,36
ESA_WorldCover_10m_2021_v200_N54E036_Map.tif,N54E036,54,57,36,39
ESA_WorldCover_10m_2021_v200_N54E039_Map.tif,N54E039,54,57,39,42
ESA_WorldCover_10m_2021_v200_N54E042_Map.tif,N54E042,54,57,42,45
ESA_WorldCover_10m_2021_v200_N54E045_Map.tif,N54E045,54,57,45,48
ESA_WorldCover_10m_2021_v200_N54E048_Map.tif,N54E048,54,57,48,51
ESA_WorldCover_10m_2021_v200_N54E051_Map.tif,N54E051,54,57,51,54
ESA_WorldCover_10m_2021_v200_N54E054_Map.tif,N54E054,54,57,54,57
ESA_WorldCover_10m_2021_v200_N54E057_Map.tif,N54E057,54,57,57,60
ESA_WorldCover_10m_2021_v200_N54E060_Map.tif,N54E060,54,57,60,63
ESA_WorldCover_10m_2021_v200_N54E063_Map.tif,N54E063,54,57,63,66
ESA_WorldCover_10m_2021_v200_N54E066_Map.tif,N54E066,54,57,66,69
ESA_WorldCover_10m_2021_v200_N54E069_Map.tif,N54E069,54,57,69,72
ESA_WorldCover_10m_2021_v200_N54E072_Map.tif,N54E072,54,57,72,75
ESA_WorldCover_10m_2021_v200_N54E075_Map.tif,N54E075,54,57,75,78
ESA_WorldCover_10m_2021_v200_N54E078_Map.tif,N54E078,54,57,78,81
ESA_WorldCover_10m_2021_v200_N54E081_Map.tif,N54E081,54,57,81,84
ESA_WorldCover_10m_2021_v200_N54E084_Map.tif,N54E084,54,57,84,87
ESA_WorldCover_10m_2021_v200_N54E087_Map.tif,N54E087,54,57,87,90
ESA_WorldCover_10m_2021_v200_N54E090_Map.tif,N54E090,54,57,90,93
ESA_WorldCover_10m_2021_v200_N54E093_Map.tif,N54E093,54,57,93,96
ESA_WorldCover_10m_2021_v200_N54E096_Map.tif,N54E096,54,57,96,99
ESA_WorldCover_10m_2021_v200_N54E099_Map.tif,N54E099,54,57,99,102
ESA_WorldCover_10m_2021_v200_N54E102_Map.tif,N54E102,54,57,102,105
ESA_WorldCover_10m_2021_v200_N54E105_Map.tif,N54E105,54,57,105,108
ESA_WorldCover_10m_2021_v200_N54E108_Map.tif,N54E108,54,57,108,111
ESA_WorldCover_10m_2021_v200_N54E111_Map.tif,N54E111,54,57,111,114
ESA_WorldCover_10m_2021_v200_N54E114_Map.tif,N54E114,54,57,114,117
ESA_WorldCover_10m_2021_v200_N54E117_Map.tif,N54E117,54,57,117,120
ESA_WorldCover_10m_2021_v200_N54E120_Map.tif,N54E120,54,57,120,123
ESA_WorldCover_10m_2021_v200_N54E123_Map.tif,N54E123,54,57,123,126
ESA_WorldCover_10m_2021_v200_N54E126_Map.tif,N54E126,54,57,126,129
ESA_WorldCover_10m_2021_v200_N54E129_Map.tif,N54E129,54,57,129,132
ESA_WorldCover_10m_2021_v200_N54E132_Map.tif,N54E132,54,57,132,135
ESA_WorldCover_10m_2021_v200_N54E135_Map.tif,N54E135,54,57,135,138
ESA_WorldCover_10m_2021_v200_N54E138_Map.tif,N54E138,54,57,138,141
ESA_WorldCover_10m_2021_v200_N54E141_Map.tif,N54E141,54,57,141,144
ESA_WorldCover_10m_2021_v200_N54E153_Map.tif,N54E153,54,57,153,156
ESA_WorldCover_10m_2021_v200_N54E156_Map.tif,N54E156,54,57,156,159
ESA_WorldCover_10m_2021_v200_N54E159_Map.tif,N54E159,54,57,159,162
ESA_WorldCover_10m_2021_v200_N54E162_Map.tif,N54E162,54,57,162,165
ESA_WorldCover_10m_2021_v200_N54E165_Map.tif,N54E165,54,57,165,168
ESA_WorldCover_10m_2021_v200_N54E168_Map.tif,N54E168,54,57,168,171
ESA_WorldCover_10m_2021_v200_N54W003_Map.tif,N54W003,54,57,-3,0
ESA_WorldCover_10m_2021_v200_N54W006_Map.tif,N54W006,54,57,-6,-3
ESA_WorldCover_10m_2021_v200_N54W009_Map.tif,N54W009,54,57,-9,-6
ESA_WorldCover_10m_2021_v200_N54W012_Map.tif,N54W012,54,57,-12,-9
ESA_WorldCover_10m_2021_v200_N54W057_Map.tif,N54W057,54,57,-57,-54
ESA_WorldCover_10m_2021_v200_N54W060_Map.tif,N54W060,54,57,-60,-57
ESA_WorldCover_10m_2021_v200_N54W063_Map.tif,N54W063,54,57,-63,-60
ESA_WorldCover_10m_2021_v200_N54W066_Map.tif,N54W066,54,57,-66,-63
ESA_WorldCover_10m_2021_v200_N54W069_Map.tif,N54W069,54,57,-69,-66
ESA_WorldCover_10m_2021_v200_N54W072_Map.tif,N54W072,54,57,-72,-69
ESA_WorldCover_10m_2021_v200_N54W075_Map.tif,N54W075,54,57,-75,-72
ESA_WorldCover_10m_2021_v200_N54W078_Map.tif,N54W078,54,57,-78,-75
ESA_WorldCover_10m_2021_v200_N54W081_Map.tif,N54W081,54,57,-81,-78
ESA_WorldCover_10m_2021_v200_N54W084_Map.tif,N54W084,54,57,-84,-81
ESA_WorldCover_10m_2021_v200_N54W087_Map.tif,N54W087,54,57,-87,-84
ESA_WorldCover_10m_2021_v200_N54W090_Map.tif,N54W090,54,57,-90,-87
ESA_WorldCover_10m_2021_v200_N54W093_Map.tif,N54W093,54,57,-93,-90
ESA_WorldCover_10m_2021_v200_N54W096_Map.tif,N54W096,54,57,-96,-93
ESA_WorldCover_10m_2021_v200_N54W099_Map.tif,N54W099,54,57,-99,-96
ESA_WorldCover_10m_2021_v200_N54W102_Map.tif,N54W102,54,57,-102,-99
ESA_WorldCover_10m_2021_v200_N54W105_Map.tif,N54W105,54,57,-105,-102
ESA_WorldCover_10m_2021_v200_N54W108_Map.tif,N54W108,54,57,-108,-105
ESA_WorldCover_10m_2021_v200_N54W111_Map.tif,N54W111,54,57,-111,-108
ESA_WorldCover_10m_2021_v200_N54W114_Map.tif,N54W114,54,57,-114,-111
ESA_WorldCover_10m_2021_v200_N54W117_Map.tif,N54W117,54,57,-117,-114
ESA_WorldCover_10m_2021_v200_N54W120_Map.tif,N54W120,54,57,-120,-117
ESA_WorldCover_10m_2021_v200_N54W123_Map.tif,N54W123,54,57,-123,-120
ESA_WorldCover_10m_2021_v200_N54W126_Map.tif,N54W126,54,57,-126,-123
ESA_WorldCover_10m_2021_v200_N54W129_Map.tif,N54W129,54,57,-129,-126
ESA_WorldCover_10m_2021_v200_N54W132_Map.tif,N54W132,54,57,-132,-129
ESA_WorldCover_10m_2021_v200_N54W135_Map.tif,N54W135,54,57,-135,-132
ESA_WorldCover_10m_2021_v200_N54W138_Map.tif,N54W138,54,57,-138,-135
ESA_WorldCover_10m_2021_v200_N54W156_Map.tif,N54W156,54,57,-156,-153
ESA_WorldCover_10m_2021_v200_N54W159_Map.tif,N54W159,54,57,-159,-156
ESA_WorldCover_10m_2021_v200_N54W162_Map.tif,N54W162,54,57,-162,-159
ESA_WorldCover_10m_2021_v200_N54W165_Map.tif,N54W165,54,57,-165,-162
ESA_WorldCover_10m_2021_v200_N54W168_Map.tif,N54W168,54,57,-168,-165
ESA_WorldCover_10m_2021_v200_N54W171_Map.tif,N54W171,54,57,-171,-168
ESA_WorldCover_10m_2021_v200_N57E003_Map.tif,N57E003,57,60,3,6
ESA_WorldCover_10m_2021_v200_N57E006_Map.tif,N57E006,57,60,6,9
ESA_WorldCover_10m_2021_v200_N57E009_Map.tif,N57E009,57,60,9,12
ESA_WorldCover_10m_2021_v200_N57E012_Map.tif,N57E012,57,60,12,15
ESA_WorldCover_10m_2021_v200_N57E015_Map.tif,N57E015,57,60,15,18
ESA_WorldCover_10m_2021_v200_N57E018_Map.tif,N57E018,57,60,18,21
ESA_WorldCover_10m_2021_v200_N57E021_Map.tif,N57E021,57,60,21,24
ESA_WorldCover_10m_2021_v200_N57E024_Map.tif,N57E024,57,60,24,27
ESA_WorldCover_10m_2021_v200_N57E027_Map.tif,N57E027,57,60,27,30
ESA_WorldCover_10m_2021_v200_N57E030_Map.tif,N57E030,57,60,30,33
ESA_WorldCover_10m_2021_v200_N57E033_Map.tif,N57E033,57,60,33,36
ESA_WorldCover_10m_2021_v200_N57E036_Map.tif,N57E036,57,60,36,39
ESA_WorldCover_10m_2021_v200_N57E039_Map.tif,N57E039,57,60,39,42
ESA_WorldCover_10m_2021_v200_N57E042_Map.tif,N57E042,57,60,42,45
ESA_WorldCover_10m_2021_v200_N57E045_Map.tif,N57E045,57,60,45,48
ESA_WorldCover_10m_2021_v200_N57E048_Map.tif,N57E048,57,60,48,51
ESA_WorldCover_10m_2021_v200_N57E051_Map.tif,N57E051,57,60,51,54
ESA_WorldCover_10m_2021_v200_N57E054_Map.tif,N57E054,57,60,54,57
ESA_WorldCover_10m_2021_v200_N57E057_Map.tif,N57E057,57,60,57,60
ESA_WorldCover_10m_2021_v200_N57E060_Map.tif,N57E060,57,60,60,63
ESA_WorldCover_10m_2021_v200_N57E063_Map.tif,N57E063,57,60,63,66
ESA_WorldCover_10m_2021_v200_N57E066_Map.tif,N57E066,57,60,66,69
ESA_WorldCover_10m_2021_v200_N57E069_Map.tif,N57E069,57,60,69,72
ESA_WorldCover_10m_2021_v200_N57E072_Map.tif,N57E072,57,60,72,75
ESA_WorldCover_10m_2021_v200_N57E075_Map.tif,N57E075,57,60,75,78
ESA_WorldCover_10m_2021_v200_N57E078_Map.tif,N57E078,57,60,78,81
ESA_WorldCover_10m_2021_v200_N57E081_Map.tif,N57E081,57,60,81,84
ESA_WorldCover_10m_2021_v200_N57E084_Map.tif,N57E084,57,60,84,87
ESA_WorldCover_10m_2021_v200_N57E087_Map.tif,N57E087,57,60,87,90
ESA_WorldCover_10m_2021_v200_N57E090_Map.tif,N57E090,57,60,90,93
ESA_WorldCover_10m_2021_v200_N57E093_Map.tif,N57E093,57,60,93,96
ESA_WorldCover_10m_2021_v200_N57E096_Map.tif,N57E096,57,60,96,99
ESA_WorldCover_10m_2021_v200_N57E099_Map.tif,N57E099,57,60,99,102
ESA_WorldCover_10m_2021_v200_N57E102_Map.tif,N57E102,57,60,102,105
ESA_WorldCover_10m_2021_v200_N57E105_Map.tif,N57E105,57,60,105,108
ESA_WorldCover_10m_2021_v200_N57E108_Map.tif,N57E108,57,60,108,111
ESA_WorldCover_10m_2021_v200_N57E111_Map.tif,N57E111,57,60,111,114
ESA_WorldCover_10m_2021_v200_N57E114_Map.tif,N57E114,57,60,114,117
ESA_WorldCover_10m_2021_v200_N57E117_Map.tif,N57E117,57,60,117,120
ESA_WorldCover_10m_2021_v200_N57E120_Map.tif,N57E120,57,60,120,123
ESA_WorldCover_10m_2021_v200_N57E123_Map.tif,N57E123,57,60,123,126
ESA_WorldCover_10m_2021_v200_N57E126_Map.tif,N57E126,57,60,126,129
ESA_WorldCover_10m_2021_v200_N57E129_Map.tif,N57E129,57,60,129,132
ESA_WorldCover_10m_2021_v200_N57E132_Map.tif,N57E132,57,60,132,135
ESA_WorldCover_10m_2021_v200_N57E135_Map.tif,N57E135,57,60,135,138
ESA_WorldCover_10m_2021_v200_N57E138_Map.tif,N57E138,57,60,138,141
ESA_WorldCover_10m_2021_v200_N57E141_Map.tif,N57E141,57,60,141,144
ESA_WorldCover_10m_2021_v200_N57E144_Map.tif,N57E144,57,60,144,147
ESA_WorldCover_10m_2021_v200_N57E147_Map.tif,N57E147,57,60,147,150
ESA_WorldCover_10m_2021_v200_N57E150_Map.tif,N57E150,57,60,150,153
ESA_WorldCover_10m_2021_v200_N57E153_Map.tif,N57E153,57,60,153,156
ESA_WorldCover_10m_2021_v200_N57E156_Map.tif,N57E156,57,60,156,159
ESA_WorldCover_10m_2021_v200_N57E159_Map.tif,N57E159,57,60,159,162
ESA_WorldCover_10m_2021_v200_N57E162_Map.tif,N57E162,57,60,162,165
ESA_WorldCover_10m_2021_v200_N57E165_Map.tif,N57E165,57,60,165,168
ESA_WorldCover_10m_2021_v200_N57E168_Map.tif,N57E168,57,60,168,171
ESA_WorldCover_10m_2021_v200_N57W003_Map.tif,N57W003,57,60,-3,0
ESA_WorldCover_10m_2021_v200_N57W006_Map.tif,N57W006,57,60,-6,-3
ESA_WorldCover_10m_2021_v200_N57W009_Map.tif,N57W009,57,60,-9,-6
ESA_WorldCover_10m_2021_v200_N57W015_Map.tif,N57W015,57,60,-15,-12
ESA_WorldCover_10m_2021_v200_N57W045_Map.tif,N57W045,57,60,-45,-42
ESA_WorldCover_10m_2021_v200_N57W048_Map.tif,N57W048,57,60,-48,-45
ESA_WorldCover_10m_2021_v200_N57W063_Map.tif,N57W063,57,60,-63,-60
ESA_WorldCover_10m_2021_v200_N57W066_Map.tif,N57W066,57,60,-66,-63
ESA_WorldCover_10m_2021_v200_N57W069_Map.tif,N57W069,57,60,-69,-66
ESA_WorldCover_10m_2021_v200_N57W072_Map.tif,N57W072,57,60,-72,-69
ESA_WorldCover_10m_2021_v200_N57W075_Map.tif,N57W075,57,60,-75,-72
ESA_WorldCover_10m_2021_v200_N57W078_Map.tif,N57W078,57,60,-78,-75
ESA_WorldCover_10m_2021_v200_N57W081_Map.tif,N57W081,57,60,-81,-78
ESA_WorldCover_10m_2021_v200_N57W090_Map.tif,N57W090,57,60,-90,-87
ESA_WorldCover_10m_2021_v200_N57W093_Map.tif,N57W093,57,60,-93,-90
ESA_WorldCover_10m_2021_v200_N57W096_Map.tif,N57W096,57,60,-96,-93
ESA_WorldCover_10m_2021_v200_N57W099_Map.tif,N57W099,57,60,-99,-96
ESA_WorldCover_10m_2021_v200_N57W102_Map.tif,N57W102,57,60,-102,-99
ESA_WorldCover_10m_2021_v200_N57W105_Map.tif,N57W105,57,60,-105,-102
ESA_WorldCover_10m_2021_v200_N57W108_Map.tif,N57W108,57,60,-108,-105
ESA_WorldCover_10m_2021_v200_N57W111_Map.tif,N57W111,57,60,-111,-108
ESA_WorldCover_10m_2021_v200_N57W114_Map.tif,N57W114,57,60,-114,-111
ESA_WorldCover_10m_2021_v200_N57W117_Map.tif,N57W117,57,60,-117,-114
ESA_WorldCover_10m_2021_v200_N57W120_Map.tif,N57W120,57,60,-120,-117
ESA_WorldCover_10m_2021_v200_N57W123_Map.tif,N57W123,57,60,-123,-120
ESA_WorldCover_10m_2021_v200_N57W126_Map.tif,N57W126,57,60,-126,-123
ESA_WorldCover_10m_2021_v200_N57W129_Map.tif,N57W129,57,60,-129,-126
ESA_WorldCover_10m_2021_v200_N57W132_Map.tif,N57W132,57,60,-132,-129
ESA_WorldCover_10m_2021_v200_N57W135_Map.tif,N57W135,57,60,-135,-132
ESA_WorldCover_10m_2021_v200_N57W138_Map.tif,N57W138,57,60,-138,-135
ESA_WorldCover_10m_2021_v200_N57W141_Map.tif,N57W141,57,60,-141,-138
ESA_WorldCover_10m_2021_v200_N57W144_Map.tif,N57W144,57,60,-144,-141
ESA_WorldCover_10m_2021_v200_N57W147_Map.tif,N57W147,57,60,-147,-144
ESA_WorldCover_10m_2021_v200_N57W150_Map.tif,N57W150,57,60,-150,-147
ESA_WorldCover_10m_2021_v200_N57W153_Map.tif,N57W153,57,60,-153,-150
ESA_WorldCover_10m_2021_v200_N57W156_Map.tif,N57W156,57,60,-156,-153
ESA_WorldCover_10m_2021_v200_N57W159_Map.tif,N57W159,57,60,-159,-156
ESA_WorldCover_10m_2021_v200_N57W162_Map.tif,N57W162,57,60,-162,-159
ESA_WorldCover_10m_2021_v200_N57W165_Map.tif,N57W165,57,60,-165,-162
ESA_WorldCover_10m_2021_v200_N57W168_Map.tif,N57W168,57,60,-168,-165
ESA_WorldCover_10m_2021_v200_N57W171_Map.tif,N57W171,57,60,-171,-168
ESA_WorldCover_10m_2021_v200_N60E003_Map.tif,N60E003,60,63,3,6
ESA_WorldCover_10m_2021_v200_N60E006_Map.tif,N60E006,60,63,6,9
ESA_WorldCover_10m_2021_v200_N60E009_Map.tif,N60E009,60,63,9,12
ESA_WorldCover_10m_2021_v200_N60E012_Map.tif,N60E012,60,63,12,15
ESA_WorldCover_10m_2021_v200_N60E015_Map.tif,N60E015,60,63,15,18
ESA_WorldCover_10m_2021_v200_N60E018_Map.tif,N60E018,60,63,18,21
ESA_WorldCover_10m_2021_v200_N60E021_Map.tif,N60E021,60,63,21,24
ESA_WorldCover_10m_2021_v200_N60E024_Map.tif,N60E024,60,63,24,27
ESA_WorldCover_10m_2021_v200_N60E027_Map.tif,N60E027,60,63,27,30
ESA_WorldCover_10m_2021_v200_N60E030_Map.tif,N60E030,60,63,30,33
ESA_WorldCover_10m_2021_v200_N60E033_Map.tif,N60E033,60,63,33,36
ESA_WorldCover_10m_2021_v200_N60E036_Map.tif,N60E036,60,63,36,39
ESA_WorldCover_10m_2021_v200_N60E039_Map.tif,N60E039,60,63,39,42
ESA_WorldCover_10m_2021_v200_N60E042_Map.tif,N60E042,60,63,42,45
ESA_WorldCover_10m_2021_v200_N60E045_Map.tif,N60E045,60,63,45,48
ESA_WorldCover_10m_2021_v200_N60E048_Map.tif,N60E048,60,63,48,51
ESA_WorldCover_10m_2021_v200_N60E051_Map.tif,N60E051,60,63,51,54
ESA_WorldCover_10m_2021_v200_N60E054_Map.tif,N60E054,60,63,54,57
ESA_WorldCover_10m_2021_v200_N60E057_Map.tif,N60E057,60,63,57,60
ESA_WorldCover_10m_2021_v200_N60E060_Map.tif,N60E060,60,63,60,63
ESA_WorldCover_10m_2021_v200_N60E063_Map.tif,N60E063,60,63,63,66
ESA_WorldCover_10m_2021_v200_N60E066_Map.tif,N60E066,60,63,66,69
ESA_WorldCover_10m_2021_v200_N60E069_Map.tif,N60E069,60,63,69,72
ESA_WorldCover_10m_2021_v200_N60E072_Map.tif,N60E072,60,63,72,75
ESA_WorldCover_10m_2021_v200_N60E075_Map.tif,N60E075,60,63,75,78
ESA_WorldCover_10m_2021_v200_N60E078_Map.tif,N60E078,60,63,78,81
ESA_WorldCover_10m_2021_v200_N60E081_Map.tif,N60E081,60,63,81,84
ESA_WorldCover_10m_2021_v200_N60E084_Map.tif,N60E084,60,63,84,87
ESA_WorldCover_10m_2021_v200_N60E087_Map.tif,N60E087,60,63,87,90
ESA_WorldCover_10m_2021_v200_N60E090_Map.tif,N60E090,60,63,90,93
ESA_WorldCover_10m_2021_v200_N60E093_Map.tif,N60E093,60,63,93,96
ESA_WorldCover_10m_2021_v200_N60E096_Map.tif,N60E096,60,63,96,99
ESA_WorldCover_10m_2021_v200_N60E099_Map.tif,N60E099,60,63,99,102
ESA_WorldCover_10m_2021_v200_N60E102_Map.tif,N60E102,60,63,102,105
ESA_WorldCover_10m_2021_v200_N60E105_Map.tif,N60E105,60,63,105,108
ESA_WorldCover_10m_2021_v200_N60E108_Map.tif,N60E108,60,63,108,111
ESA_WorldCover_10m_2021_v200_N60E111_Map.tif,N60E111,60,63,111,114
ESA_WorldCover_10m_2021_v200_N60E114_Map.tif,N60E114,60,63,114,117
ESA_WorldCover_10m_2021_v200_N60E117_Map.tif,N60E117,60,63,117,120
ESA_WorldCover_10m_2021_v200_N60E120_Map.tif,N60E120,60,63,120,123
ESA_WorldCover_10m_2021_v200_N60E123_Map.tif,N60E123,60,63,123,126
ESA_WorldCover_10m_2021_v200_N60E126_Map.tif,N60E126,60,63,126,129
ESA_WorldCover_10m_2021_v200_N60E129_Map.tif,N60E129,60,63,129,132
ESA_WorldCover_10m_2021_v200_N60E132_Map.tif,N60E132,60,63,132,135
ESA_WorldCover_10m_2021_v200_N60E135_Map.tif,N60E135,60,63,135,138
ESA_WorldCover_10m_2021_v200_N60E138_Map.tif,N60E138,60,63,138,141
ESA_WorldCover_10m_2021_v200_N60E141_Map.tif,N60E141,60,63,141,144
ESA_WorldCover_10m_2021_v200_N60E144_Map.tif,N60E144,60,63,144,147
ESA_WorldCover_10m_2021_v200_N60E147_Map.tif,N60E147,60,63,147,150
ESA_WorldCover_10m_2021_v200_N60E150_Map.tif,N60E150,60,63,150,153
ESA_WorldCover_10m_2021_v200_N60E153_Map.tif,N60E153,60,63,153,156
ESA_WorldCover_10m_2021_v200_N60E156_Map.tif,N60E156,60,63,156,159
ESA_WorldCover_10m_2021_v200_N60E159_Map.tif,N60E159,60,63,159,162
ESA_WorldCover_10m_2021_v200_N60E162_Map.tif,N60E162,60,63,162,165
ESA_WorldCover_10m_2021_v200_N60E165_Map.tif,N60E165,60,63,165,168
ESA_WorldCover_10m_2021_v200_N60E168_Map.tif,N60E168,60,63,168,171
ESA_WorldCover_10m_2021_v200_N60E171_Map.tif,N60E171,60,63,171,174
ESA_WorldCover_10m_2021_v200_N60E174_Map.tif,N60E174,60,63,174,177
ESA_WorldCover_10m_2021_v200_N60E177_Map.tif,N60E177,60,63,177,180
ESA_WorldCover_10m_2021_v200_N60W003_Map.tif,N60W003,60,63,-3,0
ESA_WorldCover_10m_2021_v200_N60W009_Map.tif,N60W009,60,63,-9,-6
ESA_WorldCover_10m_2021_v200_N60W042_Map.tif,N60W042,60,63,-42,-39
ESA_WorldCover_10m_2021_v200_N60W045_Map.tif,N60W045,60,63,-45,-42
ESA_WorldCover_10m_2021_v200_N60W048_Map.tif,N60W048,60,63,-48,-45
ESA_WorldCover_10m_2021_v200_N60W051_Map.tif,N60W051,60,63,-51,-48
ESA_WorldCover_10m_2021_v200_N60W054_Map.tif,N60W054,60,63,-54,-51
ESA_WorldCover_10m_2021_v200_N60W066_Map.tif,N60W066,60,63,-66,-63
ESA_WorldCover_10m_2021_v200_N60W069_Map.tif,N60W069,60,63,-69,-66
ESA_WorldCover_10m_2021_v200_N60W072_Map.tif,N60W072,60,63,-72,-69
ESA_WorldCover_10m_2021_v200_N60W075_Map.tif,N60W075,60,63,-75,-72
ESA_WorldCover_10m_2021_v200_N60W078_Map.tif,N60W078,60,63,-78,-75
ESA_WorldCover_10m_2021_v200_N60W081_Map.tif,N60W081,60,63,-81,-78
ESA_WorldCover_10m_2021_v200_N60W084_Map.tif,N60W084,60,63,-84,-81
ESA_WorldCover_10m_2021_v200_N60W087_Map.tif,N60W087,60,63,-87,-84
ESA_WorldCover_10m_2021_v200_N60W093_Map.tif,N60W093,60,63,-93,-90
ESA_WorldCover_10m_2021_v200_N60W096_Map.tif,N60W096,60,63,-96,-93
ESA_WorldCover_10m_2021_v200_N60W099_Map.tif,N60W099,60,63,-99,-96
ESA_WorldCover_10m_2021_v200_N60W102_Map.tif,N60W102,60,63,-102,-99
ESA_WorldCover_10m_2021_v200_N60W105_Map.tif,N60W105,60,63,-105,-102
ESA_WorldCover_10m_2021_v200_N60W108_Map.tif,N60W108,60,63,-108,-105
ESA_WorldCover_10m_2021_v200_N60W111_Map.tif,N60W111,60,63,-111,-108
ESA_WorldCover_10m_2021_v200_N60W114_Map.tif,N60W114,60,63,-114,-111
ESA_WorldCover_10m_2021_v200_N60W117_Map.tif,N60W117,60,63,-117,-114
ESA_WorldCover_10m_2021_v200_N60W120_Map.tif,N60W120,60,63,-120,-117
ESA_WorldCover_10m_2021_v200_N60W123_Map.tif,N60W123,60,63,-123,-120
ESA_WorldCover_10m_2021_v200_N60W126_Map.tif,N60W126,60,63,-126,-123
ESA_WorldCover_10m_2021_v200_N60W129_Map.tif,N60W129,60,63,-129,-126
ESA_WorldCover_10m_2021_v200_N60W132_Map.tif,N60W132,60,63,-132,-129
ESA_WorldCover_10m_2021_v200_N60W135_Map.tif,N60W135,60,63,-135,-132
ESA_WorldCover_10m_2021_v200_N60W138_Map.tif,N60W138,60,63,-138,-135
ESA_WorldCover_10m_2021_v200_N60W141_Map.tif,N60W141,60,63,-141,-138
ESA_WorldCover_10m_2021_v200_N60W144_Map.tif,N60W144,60,63,-144,-141
ESA_WorldCover_10m_2021_v200_N60W147_Map.tif,N60W147,60,63,-147,-144
ESA_WorldCover_10m_2021_v200_N60W150_Map.tif,N60W150,60,63,-150,-147
ESA_WorldCover_10m_2021_v200_N60W153_Map.tif,N60W153,60,63,-153,-150
ESA_WorldCover_10m_2021_v200_N60W156_Map.tif,N60W156,60,63,-156,-153
ESA_WorldCover_10m_2021_v200_N60W159_Map.tif,N60W159,60,63,-159,-156
ESA_WorldCover_10m_2021_v200_N60W162_Map.tif,N60W162,60,63,-162,-159
ESA_WorldCover_10m_2021_v200_N60W165_Map.tif,N60W165,60,63,-165,-162
ESA_WorldCover_10m_2021_v200_N60W168_Map.tif,N60W168,60,63,-168,-165
ESA_WorldCover_10m_2021_v200_N60W171_Map.tif,N60W171,60,63,-171,-168
ESA_WorldCover_10m_2021_v200_N60W174_Map.tif,N60W174,60,63,-174,-171
ESA_WorldCover_10m_2021_v200_N63E006_Map.tif,N63E006,63,66,6,9
ESA_WorldCover_10m_2021_v200_N63E009_Map.tif,N63E009,63,66,9,12
ESA_WorldCover_10m_2021_v200_N63E012_Map.tif,N63E012,63,66,12,15
ESA_WorldCover_10m_2021_v200_N63E015_Map.tif,N63E015,63,66,15,18
ESA_WorldCover_10m_2021_v200_N63E018_Map.tif,N63E018,63,66,18,21
ESA_WorldCover_10m_2021_v200_N63E021_Map.tif,N63E021,63,66,21,24
ESA_WorldCover_10m_2021_v200_N63E024_Map.tif,N63E024,63,66,24,27
ESA_WorldCover_10m_2021_v200_N63E027_Map.tif,N63E027,63,66,27,30
ESA_WorldCover_10m_2021_v200_N63E030_Map.tif,N63E030,63,66,30,33
ESA_WorldCover_10m_2021_v200_N63E033_Map.tif,N63E033,63,66,33,36
ESA_WorldCover_10m_2021_v200_N63E036_Map.tif,N63E036,63,66,36,39
ESA_WorldCover_10m_2021_v200_N63E039_Map.tif,N63E039,63,66,39,42
ESA_WorldCover_10m_2021_v200_N63E042_Map.tif,N63E042,63,66,42,45
ESA_WorldCover_10m_2021_v200_N63E045_Map.tif,N63E045,63,66,45,48
ESA_WorldCover_10m_2021_v200_N63E048_Map.tif,N63E048,63,66,48,51
ESA_WorldCover_10m_2021_v200_N63E051_Map.tif,N63E051,63,66,51,54
ESA_WorldCover_10m_2021_v200_N63E054_Map.tif,N63E054,63,66,54,57
ESA_WorldCover_10m_2021_v200_N63E057_Map.tif,N63E057,63,66,57,60
ESA_WorldCover_10m_2021_v200_N63E060_Map.tif,N63E060,63,66,60,63
ESA_WorldCover_10m_2021_v200_N63E063_Map.tif,N63E063,63,66,63,66
ESA_WorldCover_10m_2021_v200_N63E066_Map.tif,N63E066,63,66,66,69
ESA_WorldCover_10m_2021_v200_N63E069_Map.tif,N63E069,63,66,69,72
ESA_WorldCover_10m_2021_v200_N63E072_Map.tif,N63E072,63,66,72,75
ESA_WorldCover_10m_2021_v200_N63E075_Map.tif,N63E075,63,66,75,78
ESA_WorldCover_10m_2021_v200_N63E078_Map.tif,N63E078,63,66,78,81
ESA_WorldCover_10m_2021_v200_N63E081_Map.tif,N63E081,63,66,81,84
ESA_WorldCover_10m_2021_v200_N63E084_Map.tif,N63E084,63,66,84,87
ESA_WorldCover_10m_2021_v200_N63E087_Map.tif,N63E087,63,66,87,90
ESA_WorldCover_10m_2021_v200_N63E090_Map.tif,N63E090,63,66,90,93
ESA_WorldCover_10m_2021_v200_N63E093_Map.tif,N63E093,63,66,93,96
ESA_WorldCover_10m_2021_v200_N63E096_Map.tif,N63E096,63,66,96,99
ESA_WorldCover_10m_2021_v200_N63E099_Map.tif,N63E099,63,66,99,102
ESA_WorldCover_10m_2021_v200_N63E102_Map.tif,N63E102,63,66,102,105
ESA_WorldCover_10m_2021_v200_N63E105_Map.tif,N63E105,63,66,105,108
ESA_WorldCover_10m_2021_v200_N63E108_Map.tif,N63E108,63,66,108,111
ESA_WorldCover_10m_2021_v200_N63E111_Map.tif,N63E111,63,66,111,114
ESA_WorldCover_10m_2021_v200_N63E114_Map.tif,N63E114,63,66,114,117
ESA_WorldCover_10m_2021_v200_N63E117_Map.tif,N63E117,63,66,117,120
ESA_WorldCover_10m_2021_v200_N63E120_Map.tif,N63E120,63,66,120,123
ESA_WorldCover_10m_2021_v200_N63E123_Map.tif,N63E123,63,66,123,126
ESA_WorldCover_10m_2021_v200_N63E126_Map.tif,N63E126,63,66,126,129
ESA_WorldCover_10m_2021_v200_N63E129_Map.tif,N63E129,63,66,129,132
ESA_WorldCover_10m_2021_v200_N63E132_Map.tif,N63E132,63,66,132,135
ESA_WorldCover_10m_2021_v200_N63E135_Map.tif,N63E135,63,66,135,138
ESA_WorldCover_10m_2021_v200_N63E138_Map.tif,N63E138,63,66,138,141
ESA_WorldCover_10m_2021_v200_N63E141_Map.tif,N63E141,63,66,141,144
ESA_WorldCover_10m_2021_v200_N63E144_Map.tif,N63E144,63,66,144,147
ESA_WorldCover_10m_2021_v200_N63E147_Map.tif,N63E147,63,66,147,150
ESA_WorldCover_10m_2021_v200_N63E150_Map.tif,N63E150,63,66,150,153
ESA_WorldCover_10m_2021_v200_N63E153_Map.tif,N63E153,63,66,153,156
ESA_WorldCover_10m_2021_v200_N63E156_Map.tif,N63E156,63,66,156,159
ESA_WorldCover_10m_2021_v200_N63E159_Map.tif,N63E159,63,66,159,162
ESA_WorldCover_10m_2021_v200_N63E162_Map.tif,N63E162,63,66,162,165
ESA_WorldCover_10m_2021_v200_N63E165_Map.tif,N63E165,63,66,165,168
ESA_WorldCover_10m_2021_v200_N63E168_Map.tif,N63E168,63,66,168,171
ESA_WorldCover_10m_2021_v200_N63E171_Map.tif,N63E171,63,66,171,174
ESA_WorldCover_10m_2021_v200_N63E174_Map.tif,N63E174,63,66,174,177
ESA_WorldCover_10m_2021_v200_N63E177_Map.tif,N63E177,63,66,177,180
ESA_WorldCover_10m_2021_v200_N63W015_Map.tif,N63W015,63,66,-15,-12
ESA_WorldCover_10m_2021_v200_N63W018_Map.tif,N63W018,63,66,-18,-15
ESA_WorldCover_10m_2021_v200_N63W021_Map.tif,N63W021,63,66,-21,-18
ESA_WorldCover_10m_2021_v200_N63W024_Map.tif,N63W024,63,66,-24,-21
ESA_WorldCover_10m_2021_v200_N63W027_Map.tif,N63W027,63,66,-27,-24
ESA_WorldCover_10m_2021_v200_N63W036_Map.tif,N63W036,63,66,-36,-33
ESA_WorldCover_10m_2021_v200_N63W039_Map.tif,N63W039,63,66,-39,-36
ESA_WorldCover_10m_2021_v200_N63W042_Map.tif,N63W042,63,66,-42,-39
ESA_WorldCover_10m_2021_v200_N63W045_Map.tif,N63W045,63,66,-45,-42
ESA_WorldCover_10m_2021_v200_N63W048_Map.tif,N63W048,63,66,-48,-45
ESA_WorldCover_10m_2021_v200_N63W051_Map.tif,N63W051,63,66,-51,-48
ESA_WorldCover_10m_2021_v200_N63W054_Map.tif,N63W054,63,66,-54,-51
ESA_WorldCover_10m_2021_v200_N63W063_Map.tif,N63W063,63,66,-63,-60
ESA_WorldCover_10m_2021_v200_N63W066_Map.tif,N63W066,63,66,-66,-63
ESA_WorldCover_10m_2021_v200_N63W069_Map.tif,N63W069,63,66,-69,-66
ESA_WorldCover_10m_2021_v200_N63W072_Map.tif,N63W072,63,66,-72,-69
ESA_WorldCover_10m_2021_v200_N63W075_Map.tif,N63W075,63,66,-75,-72
ESA_WorldCover_10m_2021_v200_N63W078_Map.tif,N63W078,63,66,-78,-75
ESA_WorldCover_10m_2021_v200_N63W081_Map.tif,N63W081,63,66,-81,-78
ESA_WorldCover_10m_2021_v200_N63W084_Map.tif,N63W084,63,66,-84,-81
ESA_WorldCover_10m_2021_v200_N63W087_Map.tif,N63W087,63,66,-87,-84
ESA_WorldCover_10m_2021_v200_N63W090_Map.tif,N63W090,63,66,-90,-87
ESA_WorldCover_10m_2021_v200_N63W093_Map.tif,N63W093,63,66,-93,-90
ESA_WorldCover_10m_2021_v200_N63W096_Map.tif,N63W096,63,66,-96,-93
ESA_WorldCover_10m_2021_v200_N63W099_Map.tif,N63W099,63,66,-99,-96
ESA_WorldCover_10m_2021_v200_N63W102_Map.tif,N63W102,63,66,-102,-99
ESA_WorldCover_10m_2021_v200_N63W105_Map.tif,N63W105,63,66,-105,-102
ESA_WorldCover_10m_2021_v200_N63W108_Map.tif,N63W108,63,66,-108,-105
ESA_WorldCover_10m_2021_v200_N63W111_Map.tif,N63W111,63,66,-111,-108
ESA_WorldCover_10m_2021_v200_N63W114_Map.tif,N63W114,63,66,-114,-111
ESA_WorldCover_10m_2021_v200_N63W117_Map.tif,N63W117,63,66,-117,-114
ESA_WorldCover_10m_2021_v200_N63W120_Map.tif,N63W120,63,66,-120,-117
ESA_WorldCover_10m_2021_v200_N63W123_Map.tif,N63W123,63,66,-123,-120
ESA_WorldCover_10m_2021_v200_N63W126_Map.tif,N63W126,63,66,-126,-123
ESA_WorldCover_10m_2021_v200_N63W129_Map.tif,N63W129,63,66,-129,-126
ESA_WorldCover_10m_2021_v200_N63W132_Map.tif,N63W132,63,66,-132,-129
ESA_WorldCover_10m_2021_v200_N63W135_Map.tif,N63W135,63,66,-135,-132
ESA_WorldCover_10m_2021_v200_N63W138_Map.tif,N63W138,63,66,-138,-135
ESA_WorldCover_10m_2021_v200_N63W141_Map.tif,N63W141,63,66,-141,-138
ESA_WorldCover_10m_2021_v200_N63W144_Map.tif,N63W144,63,66,-144,-141
ESA_WorldCover_10m_2021_v200_N63W147_Map.tif,N63W147,63,66,-147,-144
ESA_WorldCover_10m_2021_v200_N63W150_Map.tif,N63W150,63,66,-150,-147
ESA_WorldCover_10m_2021_v200_N63W153_Map.tif,N63W153,63,66,-153,-150
ESA_WorldCover_10m_2021_v200_N63W156_Map.tif,N63W156,63,66,-156,-153
ESA_WorldCover_10m_2021_v200_N63W159_Map.tif,N63W159,63,66,-159,-156
ESA_WorldCover_10m_2021_v200_N63W162_Map.tif,N63W162,63,66,-162,-159
ESA_WorldCover_10m_2021_v200_N63W165_Map.tif,N63W165,63,66,-165,-162
ESA_WorldCover_10m_2021_v200_N63W168_Map.tif,N63W168,63,66,-168,-165
ESA_WorldCover_10m_2021_v200_N63W171_Map.tif,N63W171,63,66,-171,-168
ESA_WorldCover_10m_2021_v200_N63W174_Map.tif,N63W174,63,66,-174,-171
ESA_WorldCover_10m_2021_v200_N63W177_Map.tif,N63W177,63,66,-177,-174
ESA_WorldCover_10m_2021_v200_N63W180_Map.tif,N63W180,63,66,-180,-177
ESA_WorldCover_10m_2021_v200_N66E009_Map.tif,N66E009,66,69,9,12
ESA_WorldCover_10m_2021_v200_N66E012_Map.tif,N66E012,66,69,12,15
ESA_WorldCover_10m_2021_v200_N66E015_Map.tif,N66E015,66,69,15,18
ESA_WorldCover_10m_2021_v200_N66E018_Map.tif,N66E018,66,69,18,21
ESA_WorldCover_10m_2021_v200_N66E021_Map.tif,N66E021,66,69,21,24
ESA_WorldCover_10m_2021_v200_N66E024_Map.tif,N66E024,66,69,24,27
ESA_WorldCover_10m_2021_v200_N66E027_Map.tif,N66E027,66,69,27,30
ESA_WorldCover_10m_2021_v200_N66E030_Map.tif,N66E030,66,69,30,33
ESA_WorldCover_10m_2021_v200_N66E033_Map.tif,N66E033,66,69,33,36
ESA_WorldCover_10m_2021_v200_N66E036_Map.tif,N66E036,66,69,36,39
ESA_WorldCover_10m_2021_v200_N66E039_Map.tif,N66E039,66,69,39,42
ESA_WorldCover_10m_2021_v200_N66E042_Map.tif,N66E042,66,69,42,45
ESA_WorldCover_10m_2021_v200_N66E045_Map.tif,N66E045,66,69,45,48
ESA_WorldCover_10m_2021_v200_N66E048_Map.tif,N66E048,66,69,48,51
ESA_WorldCover_10m_2021_v200_N66E051_Map.tif,N66E051,66,69,51,54
ESA_WorldCover_10m_2021_v200_N66E054_Map.tif,N66E054,66,69,54,57
ESA_WorldCover_10m_2021_v200_N66E057_Map.tif,N66E057,66,69,57,60
ESA_WorldCover_10m_2021_v200_N66E060_Map.tif,N66E060,66,69,60,63
ESA_WorldCover_10m_2021_v200_N66E063_Map.tif,N66E063,66,69,63,66
ESA_WorldCover_10m_2021_v200_N66E066_Map.tif,N66E066,66,69,66,69
ESA_WorldCover_10m_2021_v200_N66E069_Map.tif,N66E069,66,69,69,72
ESA_WorldCover_10m_2021_v200_N66E072_Map.tif,N66E072,66,69,72,75
ESA_WorldCover_10m_2021_v200_N66E075_Map.tif,N66E075,66,69,75,78
ESA_WorldCover_10m_2021_v200_N66E078_Map.tif,N66E078,66,69,78,81
ESA_WorldCover_10m_2021_v200_N66E081_Map.tif,N66E081,66,69,81,84
ESA_WorldCover_10m_2021_v200_N66E084_Map.tif,N66E084,66,69,84,87
ESA_WorldCover_10m_2021_v200_N66E087_Map.tif,N66E087,66,69,87,90
ESA_WorldCover_10m_2021_v200_N66E090_Map.tif,N66E090,66,69,90,93
ESA_WorldCover_10m_2021_v200_N66E093_Map.tif,N66E093,66,69,93,96
ESA_WorldCover_10m_2021_v200_N66E096_Map.tif,N66E096,66,69,96,99
ESA_WorldCover_10m_2021_v200_N66E099_Map.tif,N66E099,66,69,99,102
ESA_WorldCover_10m_2021_v200_N66E102_Map.tif,N66E102,66,69,102,105
ESA_WorldCover_10m_2021_v200_N66E105_Map.tif,N66E105,66,69,105,108
ESA_WorldCover_10m_2021_v200_N66E108_Map.tif,N66E108,66,69,108,111
ESA_WorldCover_10m_2021_v200_N66E111_Map.tif,N66E111,66,69,111,114
ESA_WorldCover_10m_2021_v200_N66E114_Map.tif,N66E114,66,69,114,117
ESA_WorldCover_10m_2021_v200_N66E117_Map.tif,N66E117,66,69,117,120
ESA_WorldCover_10m_2021_v200_N66E120_Map.tif,N66E120,66,69,120,123
ESA_WorldCover_10m_2021_v200_N66E123_Map.tif,N66E123,66,69,123,126
ESA_WorldCover_10m_2021_v200_N66E126_Map.tif,N66E126,66,69,126,129
ESA_WorldCover_10m_2021_v200_N66E129_Map.tif,N66E129,66,69,129,132
ESA_WorldCover_10m_2021_v200_N66E132_Map.tif,N66E132,66,69,132,135
ESA_WorldCover_10m_2021_v200_N66E135_Map.tif,N66E135,66,69,135,138
ESA_WorldCover_10m_2021_v200_N66E138_Map.tif,N66E138,66,69,138,141
ESA_WorldCover_10m_2021_v200_N66E141_Map.tif,N66E141,66,69,141,144
ESA_WorldCover_10m_2021_v200_N66E144_Map.tif,N66E144,66,69,144,147
ESA_WorldCover_10m_2021_v200_N66E147_Map.tif,N66E147,66,69,147,150
ESA_WorldCover_10m_2021_v200_N66E150_Map.tif,N66E150,66,69,150,153
ESA_WorldCover_10m_2021_v200_N66E153_Map.tif,N66E153,66,69,153,156
ESA_WorldCover_10m_2021_v200_N66E156_Map.tif,N66E156,66,69,156,159
ESA_WorldCover_10m_2021_v200_N66E159_Map.tif,N66E159,66,69,159,162
ESA_WorldCover_10m_2021_v200_N66E162_Map.tif,N66E162,66,69,162,165
ESA_WorldCover_10m_2021_v200_N66E165_Map.tif,N66E165,66,69,165,168
ESA_WorldCover_10m_2021_v200_N66E168_Map.tif,N66E168,66,69,168,171
ESA_WorldCover_10m_2021_v200_N66E171_Map.tif,N66E171,66,69,171,174
ESA_WorldCover_10m_2021_v200_N66E174_Map.tif,N66E174,66,69,174,177
ESA_WorldCover_10m_2021_v200_N66E177_Map.tif,N66E177,66,69,177,180
ESA_WorldCover_10m_2021_v200_N66W015_Map.tif,N66W015,66,69,-15,-12
ESA_WorldCover_10m_2021_v200_N66W018_Map.tif,N66W018,66,69,-18,-15
ESA_WorldCover_10m_2021_v200_N66W021_Map.tif,N66W021,66,69,-21,-18
ESA_WorldCover_10m_2021_v200_N66W024_Map.tif,N66W024,66,69,-24,-21
ESA_WorldCover_10m_2021_v200_N66W027_Map.tif,N66W027,66,69,-27,-24
ESA_WorldCover_10m_2021_v200_N66W030_Map.tif,N66W030,66,69,-30,-27
ESA_WorldCover_10m_2021_v200_N66W033_Map.tif,N66W033,66,69,-33,-30
ESA_WorldCover_10m_2021_v200_N66W036_Map.tif,N66W036,66,69,-36,-33
ESA_WorldCover_10m_2021_v200_N66W039_Map.tif,N66W039,66,69,-39,-36
ESA_WorldCover_10m_2021_v200_N66W042_Map.tif,N66W042,66,69,-42,-39
ESA_WorldCover_10m_2021_v200_N66W045_Map.tif,N66W045,66,69,-45,-42
ESA_WorldCover_10m_2021_v200_N66W048_Map.tif,N66W048,66,69,-48,-45
ESA_WorldCover_10m_2021_v200_N66W051_Map.tif,N66W051,66,69,-51,-48
ESA_WorldCover_10m_2021_v200_N66W054_Map.tif,N66W054,66,69,-54,-51
ESA_WorldCover_10m_2021_v200_N66W057_Map.tif,N66W057,66,69,-57,-54
ESA_WorldCover_10m_2021_v200_N66W063_Map.tif,N66W063,66,69,-63,-60
ESA_WorldCover_10m_2021_v200_N66W066_Map.tif,N66W066,66,69,-66,-63
ESA_WorldCover_10m_2021_v200_N66W069_Map.tif,N66W069,66,69,-69,-66
ESA_WorldCover_10m_2021_v200_N66W072_Map.tif,N66W072,66,69,-72,-69
ESA_WorldCover_10m_2021_v200_N66W075_Map.tif,N66W075,66,69,-75,-72
ESA_WorldCover_10m_2021_v200_N66W078_Map.tif,N66W078,66,69,-78,-75
ESA_WorldCover_10m_2021_v200_N66W081_Map.tif,N66W081,66,69,-81,-78
ESA_WorldCover_10m_2021_v200_N66W084_Map.tif,N66W084,66,69,-84,-81
ESA_WorldCover_10m_2021_v200_N66W087_Map.tif,N66W087,66,69,-87,-84
ESA_WorldCover_10m_2021_v200_N66W090_Map.tif,N66W090,66,69,-90,-87
ESA_WorldCover_10m_2021_v200_N66W093_Map.tif,N66W093,66,69,-93,-90
ESA_WorldCover_10m_2021_v200_N66W096_Map.tif,N66W096,66,69,-96,-93
ESA_WorldCover_10m_2021_v200_N66W099_Map.tif,N66W099,66,69,-99,-96
ESA_WorldCover_10m_2021_v200_N66W102_Map.tif,N66W102,66,69,-102,-99
ESA_WorldCover_10m_2021_v200_N66W105_Map.tif,N66W105,66,69,-105,-102
ESA_WorldCover_10m_2021_v200_N66W108_Map.tif,N66W108,66,69,-108,-105
ESA_WorldCover_10m_2021_v200_N66W111_Map.tif,N66W111,66,69,-111,-108
ESA_WorldCover_10m_2021_v200_N66W114_Map.tif,N66W114,66,69,-114,-111
ESA_WorldCover_10m_2021_v200_N66W117_Map.tif,N66W117,66,69,-117,-114
ESA_WorldCover_10m_2021_v200_N66W120_Map.tif,N66W120,66,69,-120,-117
ESA_WorldCover_10m_2021_v200_N66W123_Map.tif,N66W123,66,69,-123,-120
ESA_WorldCover_10m_2021_v200_N66W126_Map.tif,N66W126,66,69,-126,-123
ESA_WorldCover_10m_2021_v200_N66W129_Map.tif,N66W129,66,69,-129,-126
ESA_WorldCover_10m_2021_v200_N66W132_Map.tif,N66W132,66,69,-132,-129
ESA_WorldCover_10m_2021_v200_N66W135_Map.tif,N66W135,66,69,-135,-132
ESA_WorldCover_10m_2021_v200_N66W138_Map.tif,N66W138,66,69,-138,-135
ESA_WorldCover_10m_2021_v200_N66W141_Map.tif,N66W141,66,69,-141,-138
ESA_WorldCover_10m_2021_v200_N66W144_Map.tif,N66W144,66,69,-144,-141
ESA_WorldCover_10m_2021_v200_N66W147_Map.tif,N66W147,66,69,-147,-144
ESA_WorldCover_10m_2021_v200_N66W150_Map.tif,N66W150,66,69,-150,-147
ESA_WorldCover_10m_2021_v200_N66W153_Map.tif,N66W153,66,69,-153,-150
ESA_WorldCover_10m_2021_v200_N66W156_Map.tif,N66W156,66,69,-156,-153
ESA_WorldCover_10m_2021_v200_N66W159_Map.tif,N66W159,66,69,-159,-156
ESA_WorldCover_10m_2021_v200_N66W162_Map.tif,N66W162,66,69,-162,-159
ESA_WorldCover_10m_2021_v200_N66W165_Map.tif,N66W165,66,69,-165,-162
ESA_WorldCover_10m_2021_v200_N66W168_Map.tif,N66W168,66,69,-168,-165
ESA_WorldCover_10m_2021_v200_N66W171_Map.tif,N66W171,66,69,-171,-168
ESA_WorldCover_10m_2021_v200_N66W174_Map.tif,N66W174,66,69,-174,-171
ESA_WorldCover_10m_2021_v200_N66W177_Map.tif,N66W177,66,69,-177,-174
ESA_WorldCover_10m_2021_v200_N66W180_Map.tif,N66W180,66,69,-180,-177
ESA_WorldCover_10m_2021_v200_N69E012_Map.tif,N69E012,69,72,12,15
ESA_WorldCover_10m_2021_v200_N69E015_Map.tif,N69E015,69,72,15,18
ESA_WorldCover_10m_2021_v200_N69E018_Map.tif,N69E018,69,72,18,21
ESA_WorldCover_10m_2021_v200_N69E021_Map.tif,N69E021,69,72,21,24
ESA_WorldCover_10m_2021_v200_N69E024_Map.tif,N69E024,69,72,24,27
ESA_WorldCover_10m_2021_v200_N69E027_Map.tif,N69E027,69,72,27,30
ESA_WorldCover_10m_2021_v200_N69E030_Map.tif,N69E030,69,72,30,33
ESA_WorldCover_10m_2021_v200_N69E033_Map.tif,N69E033,69,72,33,36
ESA_WorldCover_10m_2021_v200_N69E036_Map.tif,N69E036,69,72,36,39
ESA_WorldCover_10m_2021_v200_N69E048_Map.tif,N69E048,69,72,48,51
ESA_WorldCover_10m_2021_v200_N69E051_Map.tif,N69E051,69,72,51,54
ESA_WorldCover_10m_2021_v200_N69E054_Map.tif,N69E054,69,72,54,57
ESA_WorldCover_10m_2021_v200_N69E057_Map.tif,N69E057,69,72,57,60
ESA_WorldCover_10m_2021_v200_N69E060_Map.tif,N69E060,69,72,60,63
ESA_WorldCover_10m_2021_v200_N69E063_Map.tif,N69E063,69,72,63,66
ESA_WorldCover_10m_2021_v200_N69E066_Map.tif,N69E066,69,72,66,69
ESA_WorldCover_10m_2021_v200_N69E069_Map.tif,N69E069,69,72,69,72
ESA_WorldCover_10m_2021_v200_N69E072_Map.tif,N69E072,69,72,72,75
ESA_WorldCover_10m_2021_v200_N69E075_Map.tif,N69E075,69,72,75,78
ESA_WorldCover_10m_2021_v200_N69E078_Map.tif,N69E078,69,72,78,81
ESA_WorldCover_10m_2021_v200_N69E081_Map.tif,N69E081,69,72,81,84
ESA_WorldCover_10m_2021_v200_N69E084_Map.tif,N69E084,69,72,84,87
ESA_WorldCover_10m_2021_v200_N69E087_Map.tif,N69E087,69,72,87,90
ESA_WorldCover_10m_2021_v200_N69E090_Map.tif,N69E090,69,72,90,93
ESA_WorldCover_10m_2021_v200_N69E093_Map.tif,N69E093,69,72,93,96
ESA_WorldCover_10m_2021_v200_N69E096_Map.tif,N69E096,69,72,96,99
ESA_WorldCover_10m_2021_v200_N69E099_Map.tif,N69E099,69,72,99,102
ESA_WorldCover_10m_2021_v200_N69E102_Map.tif,N69E102,69,72,102,105
ESA_WorldCover_10m_2021_v200_N69E105_Map.tif,N69E105,69,72,105,108
ESA_WorldCover_10m_2021_v200_N69E108_Map.tif,N69E108,69,72,108,111
ESA_WorldCover_10m_2021_v200_N69E111_Map.tif,N69E111,69,72,111,114
ESA_WorldCover_10m_2021_v200_N69E114_Map.tif,N69E114,69,72,114,117
ESA_WorldCover_10m_2021_v200_N69E117_Map.tif,N69E117,69,72,117,120
ESA_WorldCover_10m_2021_v200_N69E120_Map.tif,N69E120,69,72,120,123
ESA_WorldCover_10m_2021_v200_N69E123_Map.tif,N69E123,69,72,123,126
ESA_WorldCover_10m_2021_v200_N69E126_Map.tif,N69E126,69,72,126,129
ESA_WorldCover_10m_2021_v200_N69E129_Map.tif,N69E129,69,72,129,132
ESA_WorldCover_10m_2021_v200_N69E132_Map.tif,N69E132,69,72,132,135
ESA_WorldCover_10m_2021_v200_N69E135_Map.tif,N69E135,69,72,135,138
ESA_WorldCover_10m_2021_v200_N69E138_Map.tif,N69E138,69,72,138,141
ESA_WorldCover_10m_2021_v200_N69E141_Map.tif,N69E141,69,72,141,144
ESA_WorldCover_10m_2021_v200_N69E144_Map.tif,N69E144,69,72,144,147
ESA_WorldCover_10m_2021_v200_N69E147_Map.tif,N69E147,69,72,147,150
ESA_WorldCover_10m_2021_v200_N69E150_Map.tif,N69E150,69,72,150,153
ESA_WorldCover_10m_2021_v200_N69E153_Map.tif,N69E153,69,72,153,156
ESA_WorldCover_10m_2021_v200_N69E156_Map.tif,N69E156,69,72,156,159
ESA_WorldCover_10m_2021_v200_N69E159_Map.tif,N69E159,69,72,159,162
ESA_WorldCover_10m_2021_v200_N69E162_Map.tif,N69E162,69,72,162,165
ESA_WorldCover_10m_2021_v200_N69E165_Map.tif,N69E165,69,72,165,168
ESA_WorldCover_10m_2021_v200_N69E168_Map.tif,N69E168,69,72,168,171
ESA_WorldCover_10m_2021_v200_N69E171_Map.tif,N69E171,69,72,171,174
ESA_WorldCover_10m_2021_v200_N69E174_Map.tif,N69E174,69,72,174,177
ESA_WorldCover_10m_2021_v200_N69E177_Map.tif,N69E177,69,72,177,180
ESA_WorldCover_10m_2021_v200_N69W009_Map.tif,N69W009,69,72,-9,-6
ESA_WorldCover_10m_2021_v200_N69W012_Map.tif,N69W012,69,72,-12,-9
ESA_WorldCover_10m_2021_v200_N69W024_Map.tif,N69W024,69,72,-24,-21
ESA_WorldCover_10m_2021_v200_N69W027_Map.tif,N69W027,69,72,-27,-24
ESA_WorldCover_10m_2021_v200_N69W030_Map.tif,N69W030,69,72,-30,-27
ESA_WorldCover_10m_2021_v200_N69W033_Map.tif,N69W033,69,72,-33,-30
ESA_WorldCover_10m_2021_v200_N69W036_Map.tif,N69W036,69,72,-36,-33
ESA_WorldCover_10m_2021_v200_N69W039_Map.tif,N69W039,69,72,-39,-36
ESA_WorldCover_10m_2021_v200_N69W042_Map.tif,N69W042,69,72,-42,-39
ESA_WorldCover_10m_2021_v200_N69W045_Map.tif,N69W045,69,72,-45,-42
ESA_WorldCover_10m_2021_v200_N69W048_Map.tif,N69W048,69,72,-48,-45
ESA_WorldCover_10m_2021_v200_N69W051_Map.tif,N69W051,69,72,-51,-48
ESA_WorldCover_10m_2021_v200_N69W054_Map.tif,N69W054,69,72,-54,-51
ESA_WorldCover_10m_2021_v200_N69W057_Map.tif,N69W057,69,72,-57,-54
ESA_WorldCover_10m_2021_v200_N69W069_Map.tif,N69W069,69,72,-69,-66
ESA_WorldCover_10m_2021_v200_N69W072_Map.tif,N69W072,69,72,-72,-69
ESA_WorldCover_10m_2021_v200_N69W075_Map.tif,N69W075,69,72,-75,-72
ESA_WorldCover_10m_2021_v200_N69W078_Map.tif,N69W078,69,72,-78,-75
ESA_WorldCover_10m_2021_v200_N69W081_Map.tif,N69W081,69,72,-81,-78
ESA_WorldCover_10m_2021_v200_N69W084_Map.tif,N69W084,69,72,-84,-81
ESA_WorldCover_10m_2021_v200_N69W087_Map.tif,N69W087,69,72,-87,-84
ESA_WorldCover_10m_2021_v200_N69W090_Map.tif,N69W090,69,72,-90,-87
ESA_WorldCover_10m_2021_v200_N69W093_Map.tif,N69W093,69,72,-93,-90
ESA_WorldCover_10m_2021_v200_N69W096_Map.tif,N69W096,69,72,-96,-93
ESA_WorldCover_10m_2021_v200_N69W099_Map.tif,N69W099,69,72,-99,-96
ESA_WorldCover_10m_2021_v200_N69W102_Map.tif,N69W102,69,72,-102,-99
ESA_WorldCover_10m_2021_v200_N69W105_Map.tif,N69W105,69,72,-105,-102
ESA_WorldCover_10m_2021_v200_N69W108_Map.tif,N69W108,69,72,-108,-105
ESA_WorldCover_10m_2021_v200_N69W111_Map.tif,N69W111,69,72,-111,-108
ESA_WorldCover_10m_2021_v200_N69W114_Map.tif,N69W114,69,72,-114,-111
ESA_WorldCover_10m_2021_v200_N69W117_Map.tif,N69W117,69,72,-117,-114
ESA_WorldCover_10m_2021_v200_N69W120_Map.tif,N69W120,69,72,-120,-117
ESA_WorldCover_10m_2021_v200_N69W123_Map.tif,N69W123,69,72,-123,-120
ESA_WorldCover_10m_2021_v200_N69W126_Map.tif,N69W126,69,72,-126,-123
ESA_WorldCover_10m_2021_v200_N69W129_Map.tif,N69W129,69,72,-129,-126
ESA_WorldCover_10m_2021_v200_N69W132_Map.tif,N69W132,69,72,-132,-129
ESA_WorldCover_10m_2021_v200_N69W135_Map.tif,N69W135,69,72,-135,-132
ESA_WorldCover_10m_2021_v200_N69W138_Map.tif,N69W138,69,72,-138,-135
ESA_WorldCover_10m_2021_v200_N69W141_Map.tif,N69W141,69,72,-141,-138
ESA_WorldCover_10m_2021_v200_N69W144_Map.tif,N69W144,69,72,-144,-141
ESA_WorldCover_10m_2021_v200_N69W147_Map.tif,N69W147,69,72,-147,-144
ESA_WorldCover_10m_2021_v200_N69W150_Map.tif,N69W150,69,72,-150,-147
ESA_WorldCover_10m_2021_v200_N69W153_Map.tif,N69W153,69,72,-153,-150
ESA_WorldCover_10m_2021_v200_N69W156_Map.tif,N69W156,69,72,-156,-153
ESA_WorldCover_10m_2021_v200_N69W159_Map.tif,N69W159,69,72,-159,-156
ESA_WorldCover_10m_2021_v200_N69W162_Map.tif,N69W162,69,72,-162,-159
ESA_WorldCover_10m_2021_v200_N69W165_Map.tif,N69W165,69,72,-165,-162
ESA_WorldCover_10m_2021_v200_N69W177_Map.tif,N69W177,69,72,-177,-174
ESA_WorldCover_10m_2021_v200_N69W180_Map.tif,N69W180,69,72,-180,-177
ESA_WorldCover_10m_2021_v200_N72E018_Map.tif,N72E018,72,75,18,21
ESA_WorldCover_10m_2021_v200_N72E051_Map.tif,N72E051,72,75,51,54
ESA_WorldCover_10m_2021_v200_N72E054_Map.tif,N72E054,72,75,54,57
ESA_WorldCover_10m_2021_v200_N72E057_Map.tif,N72E057,72,75,57,60
ESA_WorldCover_10m_2021_v200_N72E060_Map.tif,N72E060,72,75,60,63
ESA_WorldCover_10m_2021_v200_N72E066_Map.tif,N72E066,72,75,66,69
ESA_WorldCover_10m_2021_v200_N72E069_Map.tif,N72E069,72,75,69,72
ESA_WorldCover_10m_2021_v200_N72E072_Map.tif,N72E072,72,75,72,75
ESA_WorldCover_10m_2021_v200_N72E075_Map.tif,N72E075,72,75,75,78
ESA_WorldCover_10m_2021_v200_N72E078_Map.tif,N72E078,72,75,78,81
ESA_WorldCover_10m_2021_v200_N72E081_Map.tif,N72E081,72,75,81,84
ESA_WorldCover_10m_2021_v200_N72E084_Map.tif,N72E084,72,75,84,87
ESA_WorldCover_10m_2021_v200_N72E087_Map.tif,N72E087,72,75,87,90
ESA_WorldCover_10m_2021_v200_N72E090_Map.tif,N72E090,72,75,90,93
ESA_WorldCover_10m_2021_v200_N72E093_Map.tif,N72E093,72,75,93,96
ESA_WorldCover_10m_2021_v200_N72E096_Map.tif,N72E096,72,75,96,99
ESA_WorldCover_10m_2021_v200_N72E099_Map.tif,N72E099,72,75,99,102
ESA_WorldCover_10m_2021_v200_N72E102_Map.tif,N72E102,72,75,102,105
ESA_WorldCover_10m_2021_v200_N72E105_Map.tif,N72E105,72,75,105,108
ESA_WorldCover_10m_2021_v200_N72E108_Map.tif,N72E108,72,75,108,111
ESA_WorldCover_10m_2021_v200_N72E111_Map.tif,N72E111,72,75,111,114
ESA_WorldCover_10m_2021_v200_N72E114_Map.tif,N72E114,72,75,114,117
ESA_WorldCover_10m_2021_v200_N72E117_Map.tif,N72E117,72,75,117,120
ESA_WorldCover_10m_2021_v200_N72E120_Map.tif,N72E120,72,75,120,123
ESA_WorldCover_10m_2021_v200_N72E123_Map.tif,N72E123,72,75,123,126
ESA_WorldCover_10m_2021_v200_N72E126_Map.tif,N72E126,72,75,126,129
ESA_WorldCover_10m_2021_v200_N72E129_Map.tif,N72E129,72,75,129,132
ESA_WorldCover_10m_2021_v200_N72E132_Map.tif,N72E132,72,75,132,135
ESA_WorldCover_10m_2021_v200_N72E135_Map.tif,N72E135,72,75,135,138
ESA_WorldCover_10m_2021_v200_N72E138_Map.tif,N72E138,72,75,138,141
ESA_WorldCover_10m_2021_v200_N72E141_Map.tif,N72E141,72,75,141,144
ESA_WorldCover_10m_2021_v200_N72E144_Map.tif,N72E144,72,75,144,147
ESA_WorldCover_10m_2021_v200_N72E147_Map.tif,N72E147,72,75,147,150
ESA_WorldCover_10m_2021_v200_N72E150_Map.tif,N72E150,72,75,150,153
ESA_WorldCover_10m_2021_v200_N72W018_Map.tif,N72W018,72,75,-18,-15
ESA_WorldCover_10m_2021_v200_N72W021_Map.tif,N72W021,72,75,-21,-18
ESA_WorldCover_10m_2021_v200_N72W024_Map.tif,N72W024,72,75,-24,-21
ESA_WorldCover_10m_2021_v200_N72W027_Map.tif,N72W027,72,75,-27,-24
ESA_WorldCover_10m_2021_v200_N72W030_Map.tif,N72W030,72,75,-30,-27
ESA_WorldCover_10m_2021_v200_N72W033_Map.tif,N72W033,72,75,-33,-30
ESA_WorldCover_10m_2021_v200_N72W036_Map.tif,N72W036,72,75,-36,-33
ESA_WorldCover_10m_2021_v200_N72W039_Map.tif,N72W039,72,75,-39,-36
ESA_WorldCover_10m_2021_v200_N72W042_Map.tif,N72W042,72,75,-42,-39
ESA_WorldCover_10m_2021_v200_N72W045_Map.tif,N72W045,72,75,-45,-42
ESA_WorldCover_10m_2021_v200_N72W048_Map.tif,N72W048,72,75,-48,-45
ESA_WorldCover_10m_2021_v200_N72W051_Map.tif,N72W051,72,75,-51,-48
ESA_WorldCover_10m_2021_v200_N72W054_Map.tif,N72W054,72,75,-54,-51
ESA_WorldCover_10m_2021_v200_N72W057_Map.tif,N72W057,72,75,-57,-54
ESA_WorldCover_10m_2021_v200_N72W060_Map.tif,N72W060,72,75,-60,-57
ESA_WorldCover_10m_2021_v200_N72W075_Map.tif,N72W075,72,75,-75,-72
ESA_WorldCover_10m_2021_v200_N72W078_Map.tif,N72W078,72,75,-78,-75
ESA_WorldCover_10m_2021_v200_N72W081_Map.tif,N72W081,72,75,-81,-78
ESA_WorldCover_10m_2021_v200_N72W084_Map.tif,N72W084,72,75,-84,-81
ESA_WorldCover_10m_2021_v200_N72W087_Map.tif,N72W087,72,75,-87,-84
ESA_WorldCover_10m_2021_v200_N72W090_Map.tif,N72W090,72,75,-90,-87
ESA_WorldCover_10m_2021_v200_N72W093_Map.tif,N72W093,72,75,-93,-90
ESA_WorldCover_10m_2021_v200_N72W096_Map.tif,N72W096,72,75,-96,-93
ESA_WorldCover_10m_2021_v200_N72W099_Map.tif,N72W099,72,75,-99,-96
ESA_WorldCover_10m_2021_v200_N72W102_Map.tif,N72W102,72,75,-102,-99
ESA_WorldCover_10m_2021_v200_N72W105_Map.tif,N72W105,72,75,-105,-102
ESA_WorldCover_10m_2021_v200_N72W108_Map.tif,N72W108,72,75,-108,-105
ESA_WorldCover_10m_2021_v200_N72W111_Map.tif,N72W111,72,75,-111,-108
ESA_WorldCover_10m_2021_v200_N72W114_Map.tif,N72W114,72,75,-114,-111
ESA_WorldCover_10m_2021_v200_N72W117_Map.tif,N72W117,72,75,-117,-114
ESA_WorldCover_10m_2021_v200_N72W120_Map.tif,N72W120,72,75,-120,-117
ESA_WorldCover_10m_2021_v200_N72W123_Map.tif,N72W123,72,75,-123,-120
ESA_WorldCover_10m_2021_v200_N72W126_Map.tif,N72W126,72,75,-126,-123
ESA_WorldCover_10m_2021_v200_N72W129_Map.tif,N72W129,72,75,-129,-126
ESA_WorldCover_10m_2021_v200_N75E012_Map.tif,N75E012,75,78,12,15
ESA_WorldCover_10m_2021_v200_N75E015_Map.tif,N75E015,75,78,15,18
ESA_WorldCover_10m_2021_v200_N75E018_Map.tif,N75E018,75,78,18,21
ESA_WorldCover_10m_2021_v200_N75E021_Map.tif,N75E021,75,78,21,24
ESA_WorldCover_10m_2021_v200_N75E024_Map.tif,N75E024,75,78,24,27
ESA_WorldCover_10m_2021_v200_N75E054_Map.tif,N75E054,75,78,54,57
ESA_WorldCover_10m_2021_v200_N75E057_Map.tif,N75E057,75,78,57,60
ESA_WorldCover_10m_2021_v200_N75E060_Map.tif,N75E060,75,78,60,63
ESA_WorldCover_10m_2021_v200_N75E063_Map.tif,N75E063,75,78,63,66
ESA_WorldCover_10m_2021_v200_N75E066_Map.tif,N75E066,75,78,66,69
ESA_WorldCover_10m_2021_v200_N75E069_Map.tif,N75E069,75,78,69,72
ESA_WorldCover_10m_2021_v200_N75E081_Map.tif,N75E081,75,78,81,84
ESA_WorldCover_10m_2021_v200_N75E084_Map.tif,N75E084,75,78,84,87
ESA_WorldCover_10m_2021_v200_N75E087_Map.tif,N75E087,75,78,87,90
ESA_WorldCover_10m_2021_v200_N75E090_Map.tif,N75E090,75,78,90,93
ESA_WorldCover_10m_2021_v200_N75E093_Map.tif,N75E093,75,78,93,96
ESA_WorldCover_10m_2021_v200_N75E096_Map.tif,N75E096,75,78,96,99
ESA_WorldCover_10m_2021_v200_N75E099_Map.tif,N75E099,75,78,99,102
ESA_WorldCover_10m_2021_v200_N75E102_Map.tif,N75E102,75,78,102,105
ESA_WorldCover_10m_2021_v200_N75E105_Map.tif,N75E105,75,78,105,108
ESA_WorldCover_10m_2021_v200_N75E108_Map.tif,N75E108,75,78,108,111
ESA_WorldCover_10m_2021_v200_N75E111_Map.tif,N75E111,75,78,111,114
ESA_WorldCover_10m_2021_v200_N75E114_Map.tif,N75E114,75,78,114,117
ESA_WorldCover_10m_2021_v200_N75E135_Map.tif,N75E135,75,78,135,138
ESA_WorldCover_10m_2021_v200_N75E138_Map.tif,N75E138,75,78,138,141
ESA_WorldCover_10m_2021_v200_N75E141_Map.tif,N75E141,75,78,141,144
ESA_WorldCover_10m_2021_v200_N75E144_Map.tif,N75E144,75,78,144,147
ESA_WorldCover_10m_2021_v200_N75E147_Map.tif,N75E147,75,78,147,150
ESA_WorldCover_10m_2021_v200_N75E150_Map.tif,N75E150,75,78,150,153
ESA_WorldCover_10m_2021_v200_N75E153_Map.tif,N75E153,75,78,153,156
ESA_WorldCover_10m_2021_v200_N75E156_Map.tif,N75E156,75,78,156,159
ESA_WorldCover_10m_2021_v200_N75W018_Map.tif,N75W018,75,78,-18,-15
ESA_WorldCover_10m_2021_v200_N75W021_Map.tif,N75W021,75,78,-21,-18
ESA_WorldCover_10m_2021_v200_N75W024_Map.tif,N75W024,75,78,-24,-21
ESA_WorldCover_10m_2021_v200_N75W027_Map.tif,N75W027,75,78,-27,-24
ESA_WorldCover_10m_2021_v200_N75W030_Map.tif,N75W030,75,78,-30,-27
ESA_WorldCover_10m_2021_v200_N75W033_Map.tif,N75W033,75,78,-33,-30
ESA_WorldCover_10m_2021_v200_N75W036_Map.tif,N75W036,75,78,-36,-33
ESA_WorldCover_10m_2021_v200_N75W039_Map.tif,N75W039,75,78,-39,-36
ESA_WorldCover_10m_2021_v200_N75W042_Map.tif,N75W042,75,78,-42,-39
ESA_WorldCover_10m_2021_v200_N75W045_Map.tif,N75W045,75,78,-45,-42
ESA_WorldCover_10m_2021_v200_N75W048_Map.tif,N75W048,75,78,-48,-45
ESA_WorldCover_10m_2021_v200_N75W051_Map.tif,N75W051,75,78,-51,-48
ESA_WorldCover_10m_2021_v200_N75W054_Map.tif,N75W054,75,78,-54,-51
ESA_WorldCover_10m_2021_v200_N75W057_Map.tif,N75W057,75,78,-57,-54
ESA_WorldCover_10m_2021_v200_N75W060_Map.tif,N75W060,75,78,-60,-57
ESA_WorldCover_10m_2021_v200_N75W063_Map.tif,N75W063,75,78,-63,-60
ESA_WorldCover_10m_2021_v200_N75W066_Map.tif,N75W066,75,78,-66,-63
ESA_WorldCover_10m_2021_v200_N75W069_Map.tif,N75W069,75,78,-69,-66
ESA_WorldCover_10m_2021_v200_N75W072_Map.tif,N75W072,75,78,-72,-69
ESA_WorldCover_10m_2021_v200_N75W075_Map.tif,N75W075,75,78,-75,-72
ESA_WorldCover_10m_2021_v200_N75W078_Map.tif,N75W078,75,78,-78,-75
ESA_WorldCover_10m_2021_v200_N75W081_Map.tif,N75W081,75,78,-81,-78
ESA_WorldCover_10m_2021_v200_N75W084_Map.tif,N75W084,75,78,-84,-81
ESA_WorldCover_10m_2021_v200_N75W087_Map.tif,N75W087,75,78,-87,-84
ESA_WorldCover_10m_2021_v200_N75W090_Map.tif,N75W090,75,78,-90,-87
ESA_WorldCover_10m_2021_v200_N75W093_Map.tif,N75W093,75,78,-93,-90
ESA_WorldCover_10m_2021_v200_N75W096_Map.tif,N75W096,75,78,-96,-93
ESA_WorldCover_10m_2021_v200_N75W099_Map.tif,N75W099,75,78,-99,-96
ESA_WorldCover_10m_2021_v200_N75W102_Map.tif,N75W102,75,78,-102,-99
ESA_WorldCover_10m_2021_v200_N75W105_Map.tif,N75W105,75,78,-105,-102
ESA_WorldCover_10m_2021_v200_N75W108_Map.tif,N75W108,75,78,-108,-105
ESA_WorldCover_10m_2021_v200_N75W111_Map.tif,N75W111,75,78,-111,-108
ESA_WorldCover_10m_2021_v200_N75W114_Map.tif,N75W114,75,78,-114,-111
ESA_WorldCover_10m_2021_v200_N75W117_Map.tif,N75W117,75,78,-117,-114
ESA_WorldCover_10m_2021_v200_N75W120_Map.tif,N75W120,75,78,-120,-117
ESA_WorldCover_10m_2021_v200_N75W123_Map.tif,N75W123,75,78,-123,-120
ESA_WorldCover_10m_2021_v200_N75W126_Map.tif,N75W126,75,78,-126,-123
ESA_WorldCover_10m_2021_v200_N78E009_Map.tif,N78E009,78,81,9,12
ESA_WorldCover_10m_2021_v200_N78E012_Map.tif,N78E012,78,81,12,15
ESA_WorldCover_10m_2021_v200_N78E015_Map.tif,N78E015,78,81,15,18
ESA_WorldCover_10m_2021_v200_N78E018_Map.tif,N78E018,78,81,18,21
ESA_WorldCover_10m_2021_v200_N78E021_Map.tif,N78E021,78,81,21,24
ESA_WorldCover_10m_2021_v200_N78E024_Map.tif,N78E024,78,81,24,27
ESA_WorldCover_10m_2021_v200_N78E027_Map.tif,N78E027,78,81,27,30
ESA_WorldCover_10m_2021_v200_N78E030_Map.tif,N78E030,78,81,30,33
ESA_WorldCover_10m_2021_v200_N78E033_Map.tif,N78E033,78,81,33,36
ESA_WorldCover_10m_2021_v200_N78E036_Map.tif,N78E036,78,81,36,39
ESA_WorldCover_10m_2021_v200_N78E042_Map.tif,N78E042,78,81,42,45
ESA_WorldCover_10m_2021_v200_N78E045_Map.tif,N78E045,78,81,45,48
ESA_WorldCover_10m_2021_v200_N78E048_Map.tif,N78E048,78,81,48,51
ESA_WorldCover_10m_2021_v200_N78E051_Map.tif,N78E051,78,81,51,54
ESA_WorldCover_10m_2021_v200_N78E054_Map.tif,N78E054,78,81,54,57
ESA_WorldCover_10m_2021_v200_N78E057_Map.tif,N78E057,78,81,57,60
ESA_WorldCover_10m_2021_v200_N78E060_Map.tif,N78E060,78,81,60,63
ESA_WorldCover_10m_2021_v200_N78E063_Map.tif,N78E063,78,81,63,66
ESA_WorldCover_10m_2021_v200_N78E075_Map.tif,N78E075,78,81,75,78
ESA_WorldCover_10m_2021_v200_N78E078_Map.tif,N78E078,78,81,78,81
ESA_WorldCover_10m_2021_v200_N78E090_Map.tif,N78E090,78,81,90,93
ESA_WorldCover_10m_2021_v200_N78E093_Map.tif,N78E093,78,81,93,96
ESA_WorldCover_10m_2021_v200_N78E096_Map.tif,N78E096,78,81,96,99
ESA_WorldCover_10m_2021_v200_N78E099_Map.tif,N78E099,78,81,99,102
ESA_WorldCover_10m_2021_v200_N78E102_Map.tif,N78E102,78,81,102,105
ESA_WorldCover_10m_2021_v200_N78E105_Map.tif,N78E105,78,81,105,108
ESA_WorldCover_10m_2021_v200_N78E108_Map.tif,N78E108,78,81,108,111
ESA_WorldCover_10m_2021_v200_N78W015_Map.tif,N78W015,78,81,-15,-12
ESA_WorldCover_10m_2021_v200_N78W018_Map.tif,N78W018,78,81,-18,-15
ESA_WorldCover_10m_2021_v200_N78W021_Map.tif,N78W021,78,81,-21,-18
ESA_WorldCover_10m_2021_v200_N78W024_Map.tif,N78W024,78,81,-24,-21
ESA_WorldCover_10m_2021_v200_N78W027_Map.tif,N78W027,78,81,-27,-24
ESA_WorldCover_10m_2021_v200_N78W030_Map.tif,N78W030,78,81,-30,-27
ESA_WorldCover_10m_2021_v200_N78W033_Map.tif,N78W033,78,81,-33,-30
ESA_WorldCover_10m_2021_v200_N78W036_Map.tif,N78W036,78,81,-36,-33
ESA_WorldCover_10m_2021_v200_N78W039_Map.tif,N78W039,78,81,-39,-36
ESA_WorldCover_10m_2021_v200_N78W042_Map.tif,N78W042,78,81,-42,-39
ESA_WorldCover_10m_2021_v200_N78W045_Map.tif,N78W045,78,81,-45,-42
ESA_WorldCover_10m_2021_v200_N78W048_Map.tif,N78W048,78,81,-48,-45
ESA_WorldCover_10m_2021_v200_N78W051_Map.tif,N78W051,78,81,-51,-48
ESA_WorldCover_10m_2021_v200_N78W054_Map.tif,N78W054,78,81,-54,-51
ESA_WorldCover_10m_2021_v200_N78W057_Map.tif,N78W057,78,81,-57,-54
ESA_WorldCover_10m_2021_v200_N78W060_Map.tif,N78W060,78,81,-60,-57
ESA_WorldCover_10m_2021_v200_N78W063_Map.tif,N78W063,78,81,-63,-60
ESA_WorldCover_10m_2021_v200_N78W066_Map.tif,N78W066,78,81,-66,-63
ESA_WorldCover_10m_2021_v200_N78W069_Map.tif,N78W069,78,81,-69,-66
ESA_WorldCover_10m_2021_v200_N78W072_Map.tif,N78W072,78,81,-72,-69
ESA_WorldCover_10m_2021_v200_N78W075_Map.tif,N78W075,78,81,-75,-72
ESA_WorldCover_10m_2021_v200_N78W078_Map.tif,N78W078,78,81,-78,-75
ESA_WorldCover_10m_2021_v200_N78W081_Map.tif,N78W081,78,81,-81,-78
ESA_WorldCover_10m_2021_v200_N78W084_Map.tif,N78W084,78,81,-84,-81
ESA_WorldCover_10m_2021_v200_N78W087_Map.tif,N78W087,78,81,-87,-84
ESA_WorldCover_10m_2021_v200_N78W090_Map.tif,N78W090,78,81,-90,-87
ESA_WorldCover_10m_2021_v200_N78W093_Map.tif,N78W093,78,81,-93,-90
ESA_WorldCover_10m_2021_v200_N78W096_Map.tif,N78W096,78,81,-96,-93
ESA_WorldCover_10m_2021_v200_N78W099_Map.tif,N78W099,78,81,-99,-96
ESA_WorldCover_10m_2021_v200_N78W102_Map.tif,N78W102,78,81,-102,-99
ESA_WorldCover_10m_2021_v200_N78W105_Map.tif,N78W105,78,81,-105,-102
ESA_WorldCover_10m_2021_v200_N78W108_Map.tif,N78W108,78,81,-108,-105
ESA_WorldCover_10m_2021_v200_N78W111_Map.tif,N78W111,78,81,-111,-108
ESA_WorldCover_10m_2021_v200_N78W114_Map.tif,N78W114,78,81,-114,-111
ESA_WorldCover_10m_2021_v200_N78W117_Map.tif,N78W117,78,81,-117,-114
ESA_WorldCover_10m_2021_v200_N81E048_Map.tif,N81E048,81,84,48,51
ESA_WorldCover_10m_2021_v200_N81E051_Map.tif,N81E051,81,84,51,54
ESA_WorldCover_10m_2021_v200_N81E054_Map.tif,N81E054,81,84,54,57
ESA_WorldCover_10m_2021_v200_N81E057_Map.tif,N81E057,81,84,57,60
ESA_WorldCover_10m_2021_v200_N81E060_Map.tif,N81E060,81,84,60,63
ESA_WorldCover_10m_2021_v200_N81E063_Map.tif,N81E063,81,84,63,66
ESA_WorldCover_10m_2021_v200_N81E078_Map.tif,N81E078,81,84,78,81
ESA_WorldCover_10m_2021_v200_N81E087_Map.tif,N81E087,81,84,87,90
ESA_WorldCover_10m_2021_v200_N81E090_Map.tif,N81E090,81,84,90,93
ESA_WorldCover_10m_2021_v200_N81E093_Map.tif,N81E093,81,84,93,96
ESA_WorldCover_10m_2021_v200_N81E096_Map.tif,N81E096,81,84,96,99
ESA_WorldCover_10m_2021_v200_N81W012_Map.tif,N81W012,81,84,-12,-9
ESA_WorldCover_10m_2021_v200_N81W015_Map.tif,N81W015,81,84,-15,-12
ESA_WorldCover_10m_2021_v200_N81W018_Map.tif,N81W018,81,84,-18,-15
ESA_WorldCover_10m_2021_v200_N81W021_Map.tif,N81W021,81,84,-21,-18
ESA_WorldCover_10m_2021_v200_N81W024_Map.tif,N81W024,81,84,-24,-21
ESA_WorldCover_10m_2021_v200_N81W027_Map.tif,N81W027,81,84,-27,-24
ESA_WorldCover_10m_2021_v200_N81W030_Map.tif,N81W030,81,84,-30,-27
ESA_WorldCover_10m_2021_v200_N81W033_Map.tif,N81W033,81,84,-33,-30
ESA_WorldCover_10m_2021_v200_N81W036_Map.tif,N81W036,81,84,-36,-33
ESA_WorldCover_10m_2021_v200_N81W039_Map.tif,N81W039,81,84,-39,-36
ESA_WorldCover_10m_2021_v200_N81W042_Map.tif,N81W042,81,84,-42,-39
ESA_WorldCover_10m_2021_v200_N81W045_Map.tif,N81W045,81,84,-45,-42
ESA_WorldCover_10m_2021_v200_N81W048_Map.tif,N81W048,81,84,-48,-45
ESA_WorldCover_10m_2021_v200_N81W051_Map.tif,N81W051,81,84,-51,-48
ESA_WorldCover_10m_2021_v200_N81W054_Map.tif,N81W054,81,84,-54,-51
ESA_WorldCover_10m_2021_v200_N81W057_Map.tif,N81W057,81,84,-57,-54
ESA_WorldCover_10m_2021_v200_N81W060_Map.tif,N81W060,81,84,-60,-57
ESA_WorldCover_10m_2021_v200_N81W063_Map.tif,N81W063,81,84,-63,-60
ESA_WorldCover_10m_2021_v200_N81W066_Map.tif,N81W066,81,84,-66,-63
ESA_WorldCover_10m_2021_v200_N81W069_Map.tif,N81W069,81,84,-69,-66
ESA_WorldCover_10m_2021_v200_N81W072_Map.tif,N81W072,81,84,-72,-69
ESA_WorldCover_10m_2021_v200_N81W075_Map.tif,N81W075,81,84,-75,-72
ESA_WorldCover_10m_2021_v200_N81W078_Map.tif,N81W078,81,84,-78,-75
ESA_WorldCover_10m_2021_v200_N81W081_Map.tif,N81W081,81,84,-81,-78
ESA_WorldCover_10m_2021_v200_N81W084_Map.tif,N81W084,81,84,-84,-81
ESA_WorldCover_10m_2021_v200_N81W087_Map.tif,N81W087,81,84,-87,-84
ESA_WorldCover_10m_2021_v200_N81W090_Map.tif,N81W090,81,84,-90,-87
ESA_WorldCover_10m_2021_v200_N81W093_Map.tif,N81W093,81,84,-93,-90
ESA_WorldCover_10m_2021_v200_N81W096_Map.tif,N81W096,81,84,-96,-93
ESA_WorldCover_10m_2021_v200_S03E006_Map.tif,S03E006,-3,0,6,9
ESA_WorldCover_10m_2021_v200_S03E009_Map.tif,S03E009,-3,0,9,12
ESA_WorldCover_10m_2021_v200_S03E012_Map.tif,S03E012,-3,0,12,15
ESA_WorldCover_10m_2021_v200_S03E015_Map.tif,S03E015,-3,0,15,18
ESA_WorldCover_10m_2021_v200_S03E018_Map.tif,S03E018,-3,0,18,21
ESA_WorldCover_10m_2021_v200_S03E021_Map.tif,S03E021,-3,0,21,24
ESA_WorldCover_10m_2021_v200_S03E024_Map.tif,S03E024,-3,0,24,27
ESA_WorldCover_10m_2021_v200_S03E027_Map.tif,S03E027,-3,0,27,30
ESA_WorldCover_10m_2021_v200_S03E030_Map.tif,S03E030,-3,0,30,33
ESA_WorldCover_10m_2021_v200_S03E033_Map.tif,S03E033,-3,0,33,36
ESA_WorldCover_10m_2021_v200_S03E036_Map.tif,S03E036,-3,0,36,39
ESA_WorldCover_10m_2021_v200_S03E039_Map.tif,S03E039,-3,0,39,42
ESA_WorldCover_10m_2021_v200_S03E042_Map.tif,S03E042,-3,0,42,45
ESA_WorldCover_10m_2021_v200_S03E072_Map.tif,S03E072,-3,0,72,75
ESA_WorldCover_10m_2021_v200_S03E096_Map.tif,S03E096,-3,0,96,99
ESA_WorldCover_10m_2021_v200_S03E099_Map.tif,S03E099,-3,0,99,102
ESA_WorldCover_10m_2021_v200_S03E102_Map.tif,S03E102,-3,0,102,105
ESA_WorldCover_10m_2021_v200_S03E105_Map.tif,S03E105,-3,0,105,108
ESA_WorldCover_10m_2021_v200_S03E108_Map.tif,S03E108,-3,0,108,111
ESA_WorldCover_10m_2021_v200_S03E111_Map.tif,S03E111,-3,0,111,114
ESA_WorldCover_10m_2021_v200_S03E114_Map.tif,S03E114,-3,0,114,117
ESA_WorldCover_10m_2021_v200_S03E117_Map.tif,S03E117,-3,0,117,120
ESA_WorldCover_10m_2021_v200_S03E120_Map.tif,S03E120,-3,0,120,123
ESA_WorldCover_10m_2021_v200_S03E123_Map.tif,S03E123,-3,0,123,126
ESA_WorldCover_10m_2021_v200_S03E126_Map.tif,S03E126,-3,0,126,129
ESA_WorldCover_10m_2021_v200_S03E129_Map.tif,S03E129,-3,0,129,132
ESA_WorldCover_10m_2021_v200_S03E132_Map.tif,S03E132,-3,0,132,135
ESA_WorldCover_10m_2021_v200_S03E135_Map.tif,S03E135,-3,0,135,138
ESA_WorldCover_10m_2021_v200_S03E138_Map.tif,S03E138,-3,0,138,141
ESA_WorldCover_10m_2021_v200_S03E141_Map.tif,S03E141,-3,0,141,144
ESA_WorldCover_10m_2021_v200_S03E144_Map.tif,S03E144,-3,0,144,147
ESA_WorldCover_10m_2021_v200_S03E147_Map.tif,S03E147,-3,0,147,150
ESA_WorldCover_10m_2021_v200_S03E150_Map.tif,S03E150,-3,0,150,153
ESA_WorldCover_10m_2021_v200_S03E165_Map.tif,S03E165,-3,0,165,168
ESA_WorldCover_10m_2021_v200_S03E174_Map.tif,S03E174,-3,0,174,177
ESA_WorldCover_10m_2021_v200_S03W042_Map.tif,S03W042,-3,0,-42,-39
ESA_WorldCover_10m_2021_v200_S03W045_Map.tif,S03W045,-3,0,-45,-42
ESA_WorldCover_10m_2021_v200_S03W048_Map.tif,S03W048,-3,0,-48,-45
ESA_WorldCover_10m_2021_v200_S03W051_Map.tif,S03W051,-3,0,-51,-48
ESA_WorldCover_10m_2021_v200_S03W054_Map.tif,S03W054,-3,0,-54,-51
ESA_WorldCover_10m_2021_v200_S03W057_Map.tif,S03W057,-3,0,-57,-54
ESA_WorldCover_10m_2021_v200_S03W060_Map.tif,S03W060,-3,0,-60,-57
ESA_WorldCover_10m_2021_v200_S03W063_Map.tif,S03W063,-3,0,-63,-60
ESA_WorldCover_10m_2021_v200_S03W066_Map.tif,S03W066,-3,0,-66,-63
ESA_WorldCover_10m_2021_v200_S03W069_Map.tif,S03W069,-3,0,-69,-66
ESA_WorldCover_10m_2021_v200_S03W072_Map.tif,S03W072,-3,0,-72,-69
ESA_WorldCover_10m_2021_v200_S03W075_Map.tif,S03W075,-3,0,-75,-72
ESA_WorldCover_10m_2021_v200_S03W078_Map.tif,S03W078,-3,0,-78,-75
ESA_WorldCover_10m_2021_v200_S03W081_Map.tif,S03W081,-3,0,-81,-78
ESA_WorldCover_10m_2021_v200_S03W084_Map.tif,S03W084,-3,0,-84,-81
ESA_WorldCover_10m_2021_v200_S03W090_Map.tif,S03W090,-3,0,-90,-87
ESA_WorldCover_10m_2021_v200_S03W093_Map.tif,S03W093,-3,0,-93,-90
ESA_WorldCover_10m_2021_v200_S03W162_Map.tif,S03W162,-3,0,-162,-159
ESA_WorldCover_10m_2021_v200_S06E009_Map.tif,S06E009,-6,-3,9,12
ESA_WorldCover_10m_2021_v200_S06E012_Map.tif,S06E012,-6,-3,12,15
ESA_WorldCover_10m_2021_v200_S06E015_Map.tif,S06E015,-6,-3,15,18
ESA_WorldCover_10m_2021_v200_S06E018_Map.tif,S06E018,-6,-3,18,21
ESA_WorldCover_10m_2021_v200_S06E021_Map.tif,S06E021,-6,-3,21,24
ESA_WorldCover_10m_2021_v200_S06E024_Map.tif,S06E024,-6,-3,24,27
ESA_WorldCover_10m_2021_v200_S06E027_Map.tif,S06E027,-6,-3,27,30
ESA_WorldCover_10m_2021_v200_S06E030_Map.tif,S06E030,-6,-3,30,33
ESA_WorldCover_10m_2021_v200_S06E033_Map.tif,S06E033,-6,-3,33,36
ESA_WorldCover_10m_2021_v200_S06E036_Map.tif,S06E036,-6,-3,36,39
ESA_WorldCover_10m_2021_v200_S06E039_Map.tif,S06E039,-6,-3,39,42
ESA_WorldCover_10m_2021_v200_S06E051_Map.tif,S06E051,-6,-3,51,54
ESA_WorldCover_10m_2021_v200_S06E054_Map.tif,S06E054,-6,-3,54,57
ESA_WorldCover_10m_2021_v200_S06E069_Map.tif,S06E069,-6,-3,69,72
ESA_WorldCover_10m_2021_v200_S06E072_Map.tif,S06E072,-6,-3,72,75
ESA_WorldCover_10m_2021_v200_S06E099_Map.tif,S06E099,-6,-3,99,102
ESA_WorldCover_10m_2021_v200_S06E102_Map.tif,S06E102,-6,-3,102,105
ESA_WorldCover_10m_2021_v200_S06E105_Map.tif,S06E105,-6,-3,105,108
ESA_WorldCover_10m_2021_v200_S06E108_Map.tif,S06E108,-6,-3,108,111
ESA_WorldCover_10m_2021_v200_S06E111_Map.tif,S06E111,-6,-3,111,114
ESA_WorldCover_10m_2021_v200_S06E114_Map.tif,S06E114,-6,-3,114,117
ESA_WorldCover_10m_2021_v200_S06E117_Map.tif,S06E117,-6,-3,117,120
ESA_WorldCover_10m_2021_v200_S06E120_Map.tif,S06E120,-6,-3,120,123
ESA_WorldCover_10m_2021_v200_S06E123_Map.tif,S06E123,-6,-3,123,126
ESA_WorldCover_10m_2021_v200_S06E126_Map.tif,S06E126,-6,-3,126,129
ESA_WorldCover_10m_2021_v200_S06E129_Map.tif,S06E129,-6,-3,129,132
ESA_WorldCover_10m_2021_v200_S06E132_Map.tif,S06E132,-6,-3,132,135
ESA_WorldCover_10m_2021_v200_S06E135_Map.tif,S06E135,-6,-3,135,138
ESA_WorldCover_10m_2021_v200_S06E138_Map.tif,S06E138,-6,-3,138,141
ESA_WorldCover_10m_2021_v200_S06E141_Map.tif,S06E141,-6,-3,141,144
ESA_WorldCover_10m_2021_v200_S06E144_Map.tif,S06E144,-6,-3,144,147
ESA_WorldCover_10m_2021_v200_S06E147_Map.tif,S06E147,-6,-3,147,150
ESA_WorldCover_10m_2021_v200_S06E150_Map.tif,S06E150,-6,-3,150,153
ESA_WorldCover_10m_2021_v200_S06E153_Map.tif,S06E153,-6,-3,153,156
ESA_WorldCover_10m_2021_v200_S06E156_Map.tif,S06E156,-6,-3,156,159
ESA_WorldCover_10m_2021_v200_S06E159_Map.tif,S06E159,-6,-3,159,162
ESA_WorldCover_10m_2021_v200_S06E174_Map.tif,S06E174,-6,-3,174,177
ESA_WorldCover_10m_2021_v200_S06W033_Map.tif,S06W033,-6,-3,-33,-30
ESA_WorldCover_10m_2021_v200_S06W036_Map.tif,S06W036,-6,-3,-36,-33
ESA_WorldCover_10m_2021_v200_S06W039_Map.tif,S06W039,-6,-3,-39,-36
ESA_WorldCover_10m_2021_v200_S06W042_Map.tif,S06W042,-6,-3,-42,-39
ESA_WorldCover_10m_2021_v200_S06W045_Map.tif,S06W045,-6,-3,-45,-42
ESA_WorldCover_10m_2021_v200_S06W048_Map.tif,S06W048,-6,-3,-48,-45
ESA_WorldCover_10m_2021_v200_S06W051_Map.tif,S06W051,-6,-3,-51,-48
ESA_WorldCover_10m_2021_v200_S06W054_Map.tif,S06W054,-6,-3,-54,-51
ESA_WorldCover_10m_2021_v200_S06W057_Map.tif,S06W057,-6,-3,-57,-54
ESA_WorldCover_10m_2021_v200_S06W060_Map.tif,S06W060,-6,-3,-60,-57
ESA_WorldCover_10m_2021_v200_S06W063_Map.tif,S06W063,-6,-3,-63,-60
ESA_WorldCover_10m_2021_v200_S06W066_Map.tif,S06W066,-6,-3,-66,-63
ESA_WorldCover_10m_2021_v200_S06W069_Map.tif,S06W069,-6,-3,-69,-66
ESA_WorldCover_10m_2021_v200_S06W072_Map.tif,S06W072,-6,-3,-72,-69
ESA_WorldCover_10m_2021_v200_S06W075_Map.tif,S06W075,-6,-3,-75,-72
ESA_WorldCover_10m_2021_v200_S06W078_Map.tif,S06W078,-6,-3,-78,-75
ESA_WorldCover_10m_2021_v200_S06W081_Map.tif,S06W081,-6,-3,-81,-78
ESA_WorldCover_10m_2021_v200_S06W084_Map.tif,S06W084,-6,-3,-84,-81
ESA_WorldCover_10m_2021_v200_S06W156_Map.tif,S06W156,-6,-3,-156,-153
ESA_WorldCover_10m_2021_v200_S06W159_Map.tif,S06W159,-6,-3,-159,-156
ESA_WorldCover_10m_2021_v200_S09E012_Map.tif,S09E012,-9,-6,12,15
ESA_WorldCover_10m_2021_v200_S09E015_Map.tif,S09E015,-9,-6,15,18
ESA_WorldCover_10m_2021_v200_S09E018_Map.tif,S09E018,-9,-6,18,21
ESA_WorldCover_10m_2021_v200_S09E021_Map.tif,S09E021,-9,-6,21,24
ESA_WorldCover_10m_2021_v200_S09E024_Map.tif,S09E024,-9,-6,24,27
ESA_WorldCover_10m_2021_v200_S09E027_Map.tif,S09E027,-9,-6,27,30
ESA_WorldCover_10m_2021_v200_S09E030_Map.tif,S09E030,-9,-6,30,33
ESA_WorldCover_10m_2021_v200_S09E033_Map.tif,S09E033,-9,-6,33,36
ESA_WorldCover_10m_2021_v200_S09E036_Map.tif,S09E036,-9,-6,36,39
ESA_WorldCover_10m_2021_v200_S09E039_Map.tif,S09E039,-9,-6,39,42
ESA_WorldCover_10m_2021_v200_S09E069_Map.tif,S09E069,-9,-6,69,72
ESA_WorldCover_10m_2021_v200_S09E072_Map.tif,S09E072,-9,-6,72,75
ESA_WorldCover_10m_2021_v200_S09E105_Map.tif,S09E105,-9,-6,105,108
ESA_WorldCover_10m_2021_v200_S09E108_Map.tif,S09E108,-9,-6,108,111
ESA_WorldCover_10m_2021_v200_S09E111_Map.tif,S09E111,-9,-6,111,114
ESA_WorldCover_10m_2021_v200_S09E114_Map.tif,S09E114,-9,-6,114,117
ESA_WorldCover_10m_2021_v200_S09E117_Map.tif,S09E117,-9,-6,117,120
ESA_WorldCover_10m_2021_v200_S09E120_Map.tif,S09E120,-9,-6,120,123
ESA_WorldCover_10m_2021_v200_S09E123_Map.tif,S09E123,-9,-6,123,126
ESA_WorldCover_10m_2021_v200_S09E126_Map.tif,S09E126,-9,-6,126,129
ESA_WorldCover_10m_2021_v200_S09E129_Map.tif,S09E129,-9,-6,129,132
ESA_WorldCover_10m_2021_v200_S09E132_Map.tif,S09E132,-9,-6,132,135
ESA_WorldCover_10m_2021_v200_S09E135_Map.tif,S09E135,-9,-6,135,138
ESA_WorldCover_10m_2021_v200_S09E138_Map.tif,S09E138,-9,-6,138,141
ESA_WorldCover_10m_2021_v200_S09E141_Map.tif,S09E141,-9,-6,141,144
ESA_WorldCover_10m_2021_v200_S09E144_Map.tif,S09E144,-9,-6,144,147
ESA_WorldCover_10m_2021_v200_S09E147_Map.tif,S09E147,-9,-6,147,150
ESA_WorldCover_10m_2021_v200_S09E150_Map.tif,S09E150,-9,-6,150,153
ESA_WorldCover_10m_2021_v200_S09E153_Map.tif,S09E153,-9,-6,153,156
ESA_WorldCover_10m_2021_v200_S09E156_Map.tif,S09E156,-9,-6,156,159
ESA_WorldCover_10m_2021_v200_S09E159_Map.tif,S09E159,-9,-6,159,162
ESA_WorldCover_10m_2021_v200_S09E162_Map.tif,S09E162,-9,-6,162,165
ESA_WorldCover_10m_2021_v200_S09E174_Map.tif,S09E174,-9,-6,174,177
ESA_WorldCover_10m_2021_v200_S09E177_Map.tif,S09E177,-9,-6,177,180
ESA_WorldCover_10m_2021_v200_S09W015_Map.tif,S09W015,-9,-6,-15,-12
ESA_WorldCover_10m_2021_v200_S09W036_Map.tif,S09W036,-9,-6,-36,-33
ESA_WorldCover_10m_2021_v200_S09W039_Map.tif,S09W039,-9,-6,-39,-36
ESA_WorldCover_10m_2021_v200_S09W042_Map.tif,S09W042,-9,-6,-42,-39
ESA_WorldCover_10m_2021_v200_S09W045_Map.tif,S09W045,-9,-6,-45,-42
ESA_WorldCover_10m_2021_v200_S09W048_Map.tif,S09W048,-9,-6,-48,-45
ESA_WorldCover_10m_2021_v200_S09W051_Map.tif,S09W051,-9,-6,-51,-48
ESA_WorldCover_10m_2021_v200_S09W054_Map.tif,S09W054,-9,-6,-54,-51
ESA_WorldCover_10m_2021_v200_S09W057_Map.tif,S09W057,-9,-6,-57,-54
ESA_WorldCover_10m_2021_v200_S09W060_Map.tif,S09W060,-9,-6,-60,-57
ESA_WorldCover_10m_2021_v200_S09W063_Map.tif,S09W063,-9,-6,-63,-60
ESA_WorldCover_10m_2021_v200_S09W066_Map.tif,S09W066,-9,-6,-66,-63
ESA_WorldCover_10m_2021_v200_S09W069_Map.tif,S09W069,-9,-6,-69,-66
ESA_WorldCover_10m_2021_v200_S09W072_Map.tif,S09W072,-9,-6,-72,-69
ESA_WorldCover_10m_2021_v200_S09W075_Map.tif,S09W075,-9,-6,-75,-72
ESA_WorldCover_10m_2021_v200_S09W078_Map.tif,S09W078,-9,-6,-78,-75
ESA_WorldCover_10m_2021_v200_S09W081_Map.tif,S09W081,-9,-6,-81,-78
ESA_WorldCover_10m_2021_v200_S09W084_Map.tif,S09W084,-9,-6,-84,-81
ESA_WorldCover_10m_2021_v200_S09W141_Map.tif,S09W141,-9,-6,-141,-138
ESA_WorldCover_10m_2021_v200_S09W159_Map.tif,S09W159,-9,-6,-159,-156
ESA_WorldCover_10m_2021_v200_S12E012_Map.tif,S12E012,-12,-9,12,15
ESA_WorldCover_10m_2021_v200_S12E015_Map.tif,S12E015,-12,-9,15,18
ESA_WorldCover_10m_2021_v200_S12E018_Map.tif,S12E018,-12,-9,18,21
ESA_WorldCover_10m_2021_v200_S12E021_Map.tif,S12E021,-12,-9,21,24
ESA_WorldCover_10m_2021_v200_S12E024_Map.tif,S12E024,-12,-9,24,27
ESA_WorldCover_10m_2021_v200_S12E027_Map.tif,S12E027,-12,-9,27,30
ESA_WorldCover_10m_2021_v200_S12E030_Map.tif,S12E030,-12,-9,30,33
ESA_WorldCover_10m_2021_v200_S12E033_Map.tif,S12E033,-12,-9,33,36
ESA_WorldCover_10m_2021_v200_S12E036_Map.tif,S12E036,-12,-9,36,39
ESA_WorldCover_10m_2021_v200_S12E039_Map.tif,S12E039,-12,-9,39,42
ESA_WorldCover_10m_2021_v200_S12E042_Map.tif,S12E042,-12,-9,42,45
ESA_WorldCover_10m_2021_v200_S12E045_Map.tif,S12E045,-12,-9,45,48
ESA_WorldCover_10m_2021_v200_S12E048_Map.tif,S12E048,-12,-9,48,51
ESA_WorldCover_10m_2021_v200_S12E051_Map.tif,S12E051,-12,-9,51,54
ESA_WorldCover_10m_2021_v200_S12E105_Map.tif,S12E105,-12,-9,105,108
ESA_WorldCover_10m_2021_v200_S12E114_Map.tif,S12E114,-12,-9,114,117
ESA_WorldCover_10m_2021_v200_S12E117_Map.tif,S12E117,-12,-9,117,120
ESA_WorldCover_10m_2021_v200_S12E120_Map.tif,S12E120,-12,-9,120,123
ESA_WorldCover_10m_2021_v200_S12E123_Map.tif,S12E123,-12,-9,123,126
ESA_WorldCover_10m_2021_v200_S12E126_Map.tif,S12E126,-12,-9,126,129
ESA_WorldCover_10m_2021_v200_S12E129_Map.tif,S12E129,-12,-9,129,132
ESA_WorldCover_10m_2021_v200_S12E132_Map.tif,S12E132,-12,-9,132,135
ESA_WorldCover_10m_2021_v200_S12E135_Map.tif,S12E135,-12,-9,135,138
ESA_WorldCover_10m_2021_v200_S12E138_Map.tif,S12E138,-12,-9,138,141
ESA_WorldCover_10m_2021_v200_S12E141_Map.tif,S12E141,-12,-9,141,144
ESA_WorldCover_10m_2021_v200_S12E144_Map.tif,S12E144,-12,-9,144,147
ESA_WorldCover_10m_2021_v200_S12E147_Map.tif,S12E147,-12,-9,147,150
ESA_WorldCover_10m_2021_v200_S12E150_Map.tif,S12E150,-12,-9,150,153
ESA_WorldCover_10m_2021_v200_S12E153_Map.tif,S12E153,-12,-9,153,156
ESA_WorldCover_10m_2021_v200_S12E156_Map.tif,S12E156,-12,-9,156,159
ESA_WorldCover_10m_2021_v200_S12E159_Map.tif,S12E159,-12,-9,159,162
ESA_WorldCover_10m_2021_v200_S12E162_Map.tif,S12E162,-12,-9,162,165
ESA_WorldCover_10m_2021_v200_S12E165_Map.tif,S12E165,-12,-9,165,168
ESA_WorldCover_10m_2021_v200_S12E177_Map.tif,S12E177,-12,-9,177,180
ESA_WorldCover_10m_2021_v200_S12W036_Map.tif,S12W036,-12,-9,-36,-33
ESA_WorldCover_10m_2021_v200_S12W039_Map.tif,S12W039,-12,-9,-39,-36
ESA_WorldCover_10m_2021_v200_S12W042_Map.tif,S12W042,-12,-9,-42,-39
ESA_WorldCover_10m_2021_v200_S12W045_Map.tif,S12W045,-12,-9,-45,-42
ESA_WorldCover_10m_2021_v200_S12W048_Map.tif,S12W048,-12,-9,-48,-45
ESA_WorldCover_10m_2021_v200_S12W051_Map.tif,S12W051,-12,-9,-51,-48
ESA_WorldCover_10m_2021_v200_S12W054_Map.tif,S12W054,-12,-9,-54,-51
ESA_WorldCover_10m_2021_v200_S12W057_Map.tif,S12W057,-12,-9,-57,-54
ESA_WorldCover_10m_2021_v200_S12W060_Map.tif,S12W060,-12,-9,-60,-57
ESA_WorldCover_10m_2021_v200_S12W063_Map.tif,S12W063,-12,-9,-63,-60
ESA_WorldCover_10m_2021_v200_S12W066_Map.tif,S12W066,-12,-9,-66,-63
ESA_WorldCover_10m_2021_v200_S12W069_Map.tif,S12W069,-12,-9,-69,-66
ESA_WorldCover_10m_2021_v200_S12W072_Map.tif,S12W072,-12,-9,-72,-69
ESA_WorldCover_10m_2021_v200_S12W075_Map.tif,S12W075,-12,-9,-75,-72
ESA_WorldCover_10m_2021_v200_S12W078_Map.tif,S12W078,-12,-9,-78,-75
ESA_WorldCover_10m_2021_v200_S12W081_Map.tif,S12W081,-12,-9,-81,-78
ESA_WorldCover_10m_2021_v200_S12W141_Map.tif,S12W141,-12,-9,-141,-138
ESA_WorldCover_10m_2021_v200_S12W153_Map.tif,S12W153,-12,-9,-153,-150
ESA_WorldCover_10m_2021_v200_S12W159_Map.tif,S12W159,-12,-9,-159,-156
ESA_WorldCover_10m_2021_v200_S15E012_Map.tif,S15E012,-15,-12,12,15
ESA_WorldCover_10m_2021_v200_S15E015_Map.tif,S15E015,-15,-12,15,18
ESA_WorldCover_10m_2021_v200_S15E018_Map.tif,S15E018,-15,-12,18,21
ESA_WorldCover_10m_2021_v200_S15E021_Map.tif,S15E021,-15,-12,21,24
ESA_WorldCover_10m_2021_v200_S15E024_Map.tif,S15E024,-15,-12,24,27
ESA_WorldCover_10m_2021_v200_S15E027_Map.tif,S15E027,-15,-12,27,30
ESA_WorldCover_10m_2021_v200_S15E030_Map.tif,S15E030,-15,-12,30,33
ESA_WorldCover_10m_2021_v200_S15E033_Map.tif,S15E033,-15,-12,33,36
ESA_WorldCover_10m_2021_v200_S15E036_Map.tif,S15E036,-15,-12,36,39
ESA_WorldCover_10m_2021_v200_S15E039_Map.tif,S15E039,-15,-12,39,42
ESA_WorldCover_10m_2021_v200_S15E042_Map.tif,S15E042,-15,-12,42,45
ESA_WorldCover_10m_2021_v200_S15E045_Map.tif,S15E045,-15,-12,45,48
ESA_WorldCover_10m_2021_v200_S15E048_Map.tif,S15E048,-15,-12,48,51
ESA_WorldCover_10m_2021_v200_S15E120_Map.tif,S15E120,-15,-12,120,123
ESA_WorldCover_10m_2021_v200_S15E123_Map.tif,S15E123,-15,-12,123,126
ESA_WorldCover_10m_2021_v200_S15E126_Map.tif,S15E126,-15,-12,126,129
ESA_WorldCover_10m_2021_v200_S15E129_Map.tif,S15E129,-15,-12,129,132
ESA_WorldCover_10m_2021_v200_S15E132_Map.tif,S15E132,-15,-12,132,135
ESA_WorldCover_10m_2021_v200_S15E135_Map.tif,S15E135,-15,-12,135,138
ESA_WorldCover_10m_2021_v200_S15E141_Map.tif,S15E141,-15,-12,141,144
ESA_WorldCover_10m_2021_v200_S15E144_Map.tif,S15E144,-15,-12,144,147
ESA_WorldCover_10m_2021_v200_S15E165_Map.tif,S15E165,-15,-12,165,168
ESA_WorldCover_10m_2021_v200_S15E168_Map.tif,S15E168,-15,-12,168,171
ESA_WorldCover_10m_2021_v200_S15W039_Map.tif,S15W039,-15,-12,-39,-36
ESA_WorldCover_10m_2021_v200_S15W042_Map.tif,S15W042,-15,-12,-42,-39
ESA_WorldCover_10m_2021_v200_S15W045_Map.tif,S15W045,-15,-12,-45,-42
ESA_WorldCover_10m_2021_v200_S15W048_Map.tif,S15W048,-15,-12,-48,-45
ESA_WorldCover_10m_2021_v200_S15W051_Map.tif,S15W051,-15,-12,-51,-48
ESA_WorldCover_10m_2021_v200_S15W054_Map.tif,S15W054,-15,-12,-54,-51
ESA_WorldCover_10m_2021_v200_S15W057_Map.tif,S15W057,-15,-12,-57,-54
ESA_WorldCover_10m_2021_v200_S15W060_Map.tif,S15W060,-15,-12,-60,-57
ESA_WorldCover_10m_2021_v200_S15W063_Map.tif,S15W063,-15,-12,-63,-60
ESA_WorldCover_10m_2021_v200_S15W066_Map.tif,S15W066,-15,-12,-66,-63
ESA_WorldCover_10m_2021_v200_S15W069_Map.tif,S15W069,-15,-12,-69,-66
ESA_WorldCover_10m_2021_v200_S15W072_Map.tif,S15W072,-15,-12,-72,-69
ESA_WorldCover_10m_2021_v200_S15W075_Map.tif,S15W075,-15,-12,-75,-72
ESA_WorldCover_10m_2021_v200_S15W078_Map.tif,S15W078,-15,-12,-78,-75
ESA_WorldCover_10m_2021_v200_S15W141_Map.tif,S15W141,-15,-12,-141,-138
ESA_WorldCover_10m_2021_v200_S15W144_Map.tif,S15W144,-15,-12,-144,-141
ESA_WorldCover_10m_2021_v200_S15W147_Map.tif,S15W147,-15,-12,-147,-144
ESA_WorldCover_10m_2021_v200_S15W150_Map.tif,S15W150,-15,-12,-150,-147
ESA_WorldCover_10m_2021_v200_S15W171_Map.tif,S15W171,-15,-12,-171,-168
ESA_WorldCover_10m_2021_v200_S15W174_Map.tif,S15W174,-15,-12,-174,-171
ESA_WorldCover_10m_2021_v200_S15W177_Map.tif,S15W177,-15,-12,-177,-174
ESA_WorldCover_10m_2021_v200_S15W180_Map.tif,S15W180,-15,-12,-180,-177
ESA_WorldCover_10m_2021_v200_S18E009_Map.tif,S18E009,-18,-15,9,12
ESA_WorldCover_10m_2021_v200_S18E012_Map.tif,S18E012,-18,-15,12,15
ESA_WorldCover_10m_2021_v200_S18E015_Map.tif,S18E015,-18,-15,15,18
ESA_WorldCover_10m_2021_v200_S18E018_Map.tif,S18E018,-18,-15,18,21
ESA_WorldCover_10m_2021_v200_S18E021_Map.tif,S18E021,-18,-15,21,24
ESA_WorldCover_10m_2021_v200_S18E024_Map.tif,S18E024,-18,-15,24,27
ESA_WorldCover_10m_2021_v200_S18E027_Map.tif,S18E027,-18,-15,27,30
ESA_WorldCover_10m_2021_v200_S18E030_Map.tif,S18E030,-18,-15,30,33
ESA_WorldCover_10m_2021_v200_S18E033_Map.tif,S18E033,-18,-15,33,36
ESA_WorldCover_10m_2021_v200_S18E036_Map.tif,S18E036,-18,-15,36,39
ESA_WorldCover_10m_2021_v200_S18E039_Map.tif,S18E039,-18,-15,39,42
ESA_WorldCover_10m_2021_v200_S18E042_Map.tif,S18E042,-18,-15,42,45
ESA_WorldCover_10m_2021_v200_S18E045_Map.tif,S18E045,-18,-15,45,48
ESA_WorldCover_10m_2021_v200_S18E048_Map.tif,S18E048,-18,-15,48,51
ESA_WorldCover_10m_2021_v200_S18E054_Map.tif,S18E054,-18,-15,54,57
ESA_WorldCover_10m_2021_v200_S18E117_Map.tif,S18E117,-18,-15,117,120
ESA_WorldCover_10m_2021_v200_S18E120_Map.tif,S18E120,-18,-15,120,123
ESA_WorldCover_10m_2021_v200_S18E123_Map.tif,S18E123,-18,-15,123,126
ESA_WorldCover_10m_2021_v200_S18E126_Map.tif,S18E126,-18,-15,126,129
ESA_WorldCover_10m_2021_v200_S18E129_Map.tif,S18E129,-18,-15,129,132
ESA_WorldCover_10m_2021_v200_S18E132_Map.tif,S18E132,-18,-15,132,135
ESA_WorldCover_10m_2021_v200_S18E135_Map.tif,S18E135,-18,-15,135,138
ESA_WorldCover_10m_2021_v200_S18E138_Map.tif,S18E138,-18,-15,138,141
ESA_WorldCover_10m_2021_v200_S18E141_Map.tif,S18E141,-18,-15,141,144
ESA_WorldCover_10m_2021_v200_S18E144_Map.tif,S18E144,-18,-15,144,147
ESA_WorldCover_10m_2021_v200_S18E147_Map.tif,S18E147,-18,-15,147,150
ESA_WorldCover_10m_2021_v200_S18E150_Map.tif,S18E150,-18,-15,150,153
ESA_WorldCover_10m_2021_v200_S18E162_Map.tif,S18E162,-18,-15,162,165
ESA_WorldCover_10m_2021_v200_S18E165_Map.tif,S18E165,-18,-15,165,168
ESA_WorldCover_10m_2021_v200_S18E168_Map.tif,S18E168,-18,-15,168,171
ESA_WorldCover_10m_2021_v200_S18E174_Map.tif,S18E174,-18,-15,174,177
ESA_WorldCover_10m_2021_v200_S18E177_Map.tif,S18E177,-18,-15,177,180
ESA_WorldCover_10m_2021_v200_S18W006_Map.tif,S18W006,-18,-15,-6,-3
ESA_WorldCover_10m_2021_v200_S18W039_Map.tif,S18W039,-18,-15,-39,-36
ESA_WorldCover_10m_2021_v200_S18W042_Map.tif,S18W042,-18,-15,-42,-39
ESA_WorldCover_10m_2021_v200_S18W045_Map.tif,S18W045,-18,-15,-45,-42
ESA_WorldCover_10m_2021_v200_S18W048_Map.tif,S18W048,-18,-15,-48,-45
ESA_WorldCover_10m_2021_v200_S18W051_Map.tif,S18W051,-18,-15,-51,-48
ESA_WorldCover_10m_2021_v200_S18W054_Map.tif,S18W054,-18,-15,-54,-51
ESA_WorldCover_10m_2021_v200_S18W057_Map.tif,S18W057,-18,-15,-57,-54
ESA_WorldCover_10m_2021_v200_S18W060_Map.tif,S18W060,-18,-15,-60,-57
ESA_WorldCover_10m_2021_v200_S18W063_Map.tif,S18W063,-18,-15,-63,-60
ESA_WorldCover_10m_2021_v200_S18W066_Map.tif,S18W066,-18,-15,-66,-63
ESA_WorldCover_10m_2021_v200_S18W069_Map.tif,S18W069,-18,-15,-69,-66
ESA_WorldCover_10m_2021_v200_S18W072_Map.tif,S18W072,-18,-15,-72,-69
ESA_WorldCover_10m_2021_v200_S18W075_Map.tif,S18W075,-18,-15,-75,-72
ESA_WorldCover_10m_2021_v200_S18W078_Map.tif,S18W078,-18,-15,-78,-75
ESA_WorldCover_10m_2021_v200_S18W141_Map.tif,S18W141,-18,-15,-141,-138
ESA_WorldCover_10m_2021_v200_S18W144_Map.tif,S18W144,-18,-15,-144,-141
ESA_WorldCover_10m_2021_v200_S18W147_Map.tif,S18W147,-18,-15,-147,-144
ESA_WorldCover_10m_2021_v200_S18W150_Map.tif,S18W150,-18,-15,-150,-147
ESA_WorldCover_10m_2021_v200_S18W153_Map.tif,S18W153,-18,-15,-153,-150
ESA_WorldCover_10m_2021_v200_S18W156_Map.tif,S18W156,-18,-15,-156,-153
ESA_WorldCover_10m_2021_v200_S18W174_Map.tif,S18W174,-18,-15,-174,-171
ESA_WorldCover_10m_2021_v200_S18W177_Map.tif,S18W177,-18,-15,-177,-174
ESA_WorldCover_10m_2021_v200_S18W180_Map.tif,S18W180,-18,-15,-180,-177
ESA_WorldCover_10m_2021_v200_S21E009_Map.tif,S21E009,-21,-18,9,12
ESA_WorldCover_10m_2021_v200_S21E012_Map.tif,S21E012,-21,-18,12,15
ESA_WorldCover_10m_2021_v200_S21E015_Map.tif,S21E015,-21,-18,15,18
ESA_WorldCover_10m_2021_v200_S21E018_Map.tif,S21E018,-21,-18,18,21
ESA_WorldCover_10m_2021_v200_S21E021_Map.tif,S21E021,-21,-18,21,24
ESA_WorldCover_10m_2021_v200_S21E024_Map.tif,S21E024,-21,-18,24,27
ESA_WorldCover_10m_2021_v200_S21E027_Map.tif,S21E027,-21,-18,27,30
ESA_WorldCover_10m_2021_v200_S21E030_Map.tif,S21E030,-21,-18,30,33
ESA_WorldCover_10m_2021_v200_S21E033_Map.tif,S21E033,-21,-18,33,36
ESA_WorldCover_10m_2021_v200_S21E036_Map.tif,S21E036,-21,-18,36,39
ESA_WorldCover_10m_2021_v200_S21E042_Map.tif,S21E042,-21,-18,42,45
ESA_WorldCover_10m_2021_v200_S21E045_Map.tif,S21E045,-21,-18,45,48
ESA_WorldCover_10m_2021_v200_S21E048_Map.tif,S21E048,-21,-18,48,51
ESA_WorldCover_10m_2021_v200_S21E054_Map.tif,S21E054,-21,-18,54,57
ESA_WorldCover_10m_2021_v200_S21E057_Map.tif,S21E057,-21,-18,57,60
ESA_WorldCover_10m_2021_v200_S21E063_Map.tif,S21E063,-21,-18,63,66
ESA_WorldCover_10m_2021_v200_S21E114_Map.tif,S21E114,-21,-18,114,117
ESA_WorldCover_10m_2021_v200_S21E117_Map.tif,S21E117,-21,-18,117,120
ESA_WorldCover_10m_2021_v200_S21E120_Map.tif,S21E120,-21,-18,120,123
ESA_WorldCover_10m_2021_v200_S21E123_Map.tif,S21E123,-21,-18,123,126
ESA_WorldCover_10m_2021_v200_S21E126_Map.tif,S21E126,-21,-18,126,129
ESA_WorldCover_10m_2021_v200_S21E129_Map.tif,S21E129,-21,-18,129,132
ESA_WorldCover_10m_2021_v200_S21E132_Map.tif,S21E132,-21,-18,132,135
ESA_WorldCover_10m_2021_v200_S21E135_Map.tif,S21E135,-21,-18,135,138
ESA_WorldCover_10m_2021_v200_S21E138_Map.tif,S21E138,-21,-18,138,141
ESA_WorldCover_10m_2021_v200_S21E141_Map.tif,S21E141,-21,-18,141,144
ESA_WorldCover_10m_2021_v200_S21E144_Map.tif,S21E144,-21,-18,144,147
ESA_WorldCover_10m_2021_v200_S21E147_Map.tif,S21E147,-21,-18,147,150
ESA_WorldCover_10m_2021_v200_S21E150_Map.tif,S21E150,-21,-18,150,153
ESA_WorldCover_10m_2021_v200_S21E156_Map.tif,S21E156,-21,-18,156,159
ESA_WorldCover_10m_2021_v200_S21E159_Map.tif,S21E159,-21,-18,159,162
ESA_WorldCover_10m_2021_v200_S21E162_Map.tif,S21E162,-21,-18,162,165
ESA_WorldCover_10m_2021_v200_S21E165_Map.tif,S21E165,-21,-18,165,168
ESA_WorldCover_10m_2021_v200_S21E168_Map.tif,S21E168,-21,-18,168,171
ESA_WorldCover_10m_2021_v200_S21E177_Map.tif,S21E177,-21,-18,177,180
ESA_WorldCover_10m_2021_v200_S21W039_Map.tif,S21W039,-21,-18,-39,-36
ESA_WorldCover_10m_2021_v200_S21W042_Map.tif,S21W042,-21,-18,-42,-39
ESA_WorldCover_10m_2021_v200_S21W045_Map.tif,S21W045,-21,-18,-45,-42
ESA_WorldCover_10m_2021_v200_S21W048_Map.tif,S21W048,-21,-18,-48,-45
ESA_WorldCover_10m_2021_v200_S21W051_Map.tif,S21W051,-21,-18,-51,-48
ESA_WorldCover_10m_2021_v200_S21W054_Map.tif,S21W054,-21,-18,-54,-51
ESA_WorldCover_10m_2021_v200_S21W057_Map.tif,S21W057,-21,-18,-57,-54
ESA_WorldCover_10m_2021_v200_S21W060_Map.tif,S21W060,-21,-18,-60,-57
ESA_WorldCover_10m_2021_v200_S21W063_Map.tif,S21W063,-21,-18,-63,-60
ESA_WorldCover_10m_2021_v200_S21W066_Map.tif,S21W066,-21,-18,-66,-63
ESA_WorldCover_10m_2021_v200_S21W069_Map.tif,S21W069,-21,-18,-69,-66
ESA_WorldCover_10m_2021_v200_S21W072_Map.tif,S21W072,-21,-18,-72,-69
ESA_WorldCover_10m_2021_v200_S21W138_Map.tif,S21W138,-21,-18,-138,-135
ESA_WorldCover_10m_2021_v200_S21W141_Map.tif,S21W141,-21,-18,-141,-138
ESA_WorldCover_10m_2021_v200_S21W144_Map.tif,S21W144,-21,-18,-144,-141
ESA_WorldCover_10m_2021_v200_S21W147_Map.tif,S21W147,-21,-18,-147,-144
ESA_WorldCover_10m_2021_v200_S21W159_Map.tif,S21W159,-21,-18,-159,-156
ESA_WorldCover_10m_2021_v200_S21W162_Map.tif,S21W162,-21,-18,-162,-159
ESA_WorldCover_10m_2021_v200_S21W171_Map.tif,S21W171,-21,-18,-171,-168
ESA_WorldCover_10m_2021_v200_S21W174_Map.tif,S21W174,-21,-18,-174,-171
ESA_WorldCover_10m_2021_v200_S21W177_Map.tif,S21W177,-21,-18,-177,-174
ESA_WorldCover_10m_2021_v200_S21W180_Map.tif,S21W180,-21,-18,-180,-177
ESA_WorldCover_10m_2021_v200_S24E012_Map.tif,S24E012,-24,-21,12,15
ESA_WorldCover_10m_2021_v200_S24E015_Map.tif,S24E015,-24,-21,15,18
ESA_WorldCover_10m_2021_v200_S24E018_Map.tif,S24E018,-24,-21,18,21
ESA_WorldCover_10m_2021_v200_S24E021_Map.tif,S24E021,-24,-21,21,24
ESA_WorldCover_10m_2021_v200_S24E024_Map.tif,S24E024,-24,-21,24,27
ESA_WorldCover_10m_2021_v200_S24E027_Map.tif,S24E027,-24,-21,27,30
ESA_WorldCover_10m_2021_v200_S24E030_Map.tif,S24E030,-24,-21,30,33
ESA_WorldCover_10m_2021_v200_S24E033_Map.tif,S24E033,-24,-21,33,36
ESA_WorldCover_10m_2021_v200_S24E039_Map.tif,S24E039,-24,-21,39,42
ESA_WorldCover_10m_2021_v200_S24E042_Map.tif,S24E042,-24,-21,42,45
ESA_WorldCover_10m_2021_v200_S24E045_Map.tif,S24E045,-24,-21,45,48
ESA_WorldCover_10m_2021_v200_S24E048_Map.tif,S24E048,-24,-21,48,51
ESA_WorldCover_10m_2021_v200_S24E054_Map.tif,S24E054,-24,-21,54,57
ESA_WorldCover_10m_2021_v200_S24E111_Map.tif,S24E111,-24,-21,111,114
ESA_WorldCover_10m_2021_v200_S24E114_Map.tif,S24E114,-24,-21,114,117
ESA_WorldCover_10m_2021_v200_S24E117_Map.tif,S24E117,-24,-21,117,120
ESA_WorldCover_10m_2021_v200_S24E120_Map.tif,S24E120,-24,-21,120,123
ESA_WorldCover_10m_2021_v200_S24E123_Map.tif,S24E123,-24,-21,123,126
ESA_WorldCover_10m_2021_v200_S24E126_Map.tif,S24E126,-24,-21,126,129
ESA_WorldCover_10m_2021_v200_S24E129_Map.tif,S24E129,-24,-21,129,132
ESA_WorldCover_10m_2021_v200_S24E132_Map.tif,S24E132,-24,-21,132,135
ESA_WorldCover_10m_2021_v200_S24E135_Map.tif,S24E135,-24,-21,135,138
ESA_WorldCover_10m_2021_v200_S24E138_Map.tif,S24E138,-24,-21,138,141
ESA_WorldCover_10m_2021_v200_S24E141_Map.tif,S24E141,-24,-21,141,144
ESA_WorldCover_10m_2021_v200_S24E144_Map.tif,S24E144,-24,-21,144,147
ESA_WorldCover_10m_2021_v200_S24E147_Map.tif,S24E147,-24,-21,147,150
ESA_WorldCover_10m_2021_v200_S24E150_Map.tif,S24E150,-24,-21,150,153
ESA_WorldCover_10m_2021_v200_S24E153_Map.tif,S24E153,-24,-21,153,156
ESA_WorldCover_10m_2021_v200_S24E162_Map.tif,S24E162,-24,-21,162,165
ESA_WorldCover_10m_2021_v200_S24E165_Map.tif,S24E165,-24,-21,165,168
ESA_WorldCover_10m_2021_v200_S24E168_Map.tif,S24E168,-24,-21,168,171
ESA_WorldCover_10m_2021_v200_S24E171_Map.tif,S24E171,-24,-21,171,174
ESA_WorldCover_10m_2021_v200_S24W042_Map.tif,S24W042,-24,-21,-42,-39
ESA_WorldCover_10m_2021_v200_S24W045_Map.tif,S24W045,-24,-21,-45,-42
ESA_WorldCover_10m_2021_v200_S24W048_Map.tif,S24W048,-24,-21,-48,-45
ESA_WorldCover_10m_2021_v200_S24W051_Map.tif,S24W051,-24,-21,-51,-48
ESA_WorldCover_10m_2021_v200_S24W054_Map.tif,S24W054,-24,-21,-54,-51
ESA_WorldCover_10m_2021_v200_S24W057_Map.tif,S24W057,-24,-21,-57,-54
ESA_WorldCover_10m_2021_v200_S24W060_Map.tif,S24W060,-24,-21,-60,-57
ESA_WorldCover_10m_2021_v200_S24W063_Map.tif,S24W063,-24,-21,-63,-60
ESA_WorldCover_10m_2021_v200_S24W066_Map.tif,S24W066,-24,-21,-66,-63
ESA_WorldCover_10m_2021_v200_S24W069_Map.tif,S24W069,-24,-21,-69,-66
ESA_WorldCover_10m_2021_v200_S24W072_Map.tif,S24W072,-24,-21,-72,-69
ESA_WorldCover_10m_2021_v200_S24W132_Map.tif,S24W132,-24,-21,-132,-129
ESA_WorldCover_10m_2021_v200_S24W135_Map.tif,S24W135,-24,-21,-135,-132
ESA_WorldCover_10m_2021_v200_S24W138_Map.tif,S24W138,-24,-21,-138,-135
ESA_WorldCover_10m_2021_v200_S24W141_Map.tif,S24W141,-24,-21,-141,-138
ESA_WorldCover_10m_2021_v200_S24W150_Map.tif,S24W150,-24,-21,-150,-147
ESA_WorldCover_10m_2021_v200_S24W153_Map.tif,S24W153,-24,-21,-153,-150
ESA_WorldCover_10m_2021_v200_S24W156_Map.tif,S24W156,-24,-21,-156,-153
ESA_WorldCover_10m_2021_v200_S24W159_Map.tif,S24W159,-24,-21,-159,-156
ESA_WorldCover_10m_2021_v200_S24W162_Map.tif,S24W162,-24,-21,-162,-159
ESA_WorldCover_10m_2021_v200_S24W177_Map.tif,S24W177,-24,-21,-177,-174
ESA_WorldCover_10m_2021_v200_S24W180_Map.tif,S24W180,-24,-21,-180,-177
ESA_WorldCover_10m_2021_v200_S27E012_Map.tif,S27E012,-27,-24,12,15
ESA_WorldCover_10m_2021_v200_S27E015_Map.tif,S27E015,-27,-24,15,18
ESA_WorldCover_10m_2021_v200_S27E018_Map.tif,S27E018,-27,-24,18,21
ESA_WorldCover_10m_2021_v200_S27E021_Map.tif,S27E021,-27,-24,21,24
ESA_WorldCover_10m_2021_v200_S27E024_Map.tif,S27E024,-27,-24,24,27
ESA_WorldCover_10m_2021_v200_S27E027_Map.tif,S27E027,-27,-24,27,30
ESA_WorldCover_10m_2021_v200_S27E030_Map.tif,S27E030,-27,-24,30,33
ESA_WorldCover_10m_2021_v200_S27E033_Map.tif,S27E033,-27,-24,33,36
ESA_WorldCover_10m_2021_v200_S27E042_Map.tif,S27E042,-27,-24,42,45
ESA_WorldCover_10m_2021_v200_S27E045_Map.tif,S27E045,-27,-24,45,48
ESA_WorldCover_10m_2021_v200_S27E111_Map.tif,S27E111,-27,-24,111,114
ESA_WorldCover_10m_2021_v200_S27E114_Map.tif,S27E114,-27,-24,114,117
ESA_WorldCover_10m_2021_v200_S27E117_Map.tif,S27E117,-27,-24,117,120
ESA_WorldCover_10m_2021_v200_S27E120_Map.tif,S27E120,-27,-24,120,123
ESA_WorldCover_10m_2021_v200_S27E123_Map.tif,S27E123,-27,-24,123,126
ESA_WorldCover_10m_2021_v200_S27E126_Map.tif,S27E126,-27,-24,126,129
ESA_WorldCover_10m_2021_v200_S27E129_Map.tif,S27E129,-27,-24,129,132
ESA_WorldCover_10m_2021_v200_S27E132_Map.tif,S27E132,-27,-24,132,135
ESA_WorldCover_10m_2021_v200_S27E135_Map.tif,S27E135,-27,-24,135,138
ESA_WorldCover_10m_2021_v200_S27E138_Map.tif,S27E138,-27,-24,138,141
ESA_WorldCover_10m_2021_v200_S27E141_Map.tif,S27E141,-27,-24,141,144
ESA_WorldCover_10m_2021_v200_S27E144_Map.tif,S27E144,-27,-24,144,147
ESA_WorldCover_10m_2021_v200_S27E147_Map.tif,S27E147,-27,-24,147,150
ESA_WorldCover_10m_2021_v200_S27E150_Map.tif,S27E150,-27,-24,150,153
ESA_WorldCover_10m_2021_v200_S27E153_Map.tif,S27E153,-27,-24,153,156
ESA_WorldCover_10m_2021_v200_S27W048_Map.tif,S27W048,-27,-24,-48,-45
ESA_WorldCover_10m_2021_v200_S27W051_Map.tif,S27W051,-27,-24,-51,-48
ESA_WorldCover_10m_2021_v200_S27W054_Map.tif,S27W054,-27,-24,-54,-51
ESA_WorldCover_10m_2021_v200_S27W057_Map.tif,S27W057,-27,-24,-57,-54
ESA_WorldCover_10m_2021_v200_S27W060_Map.tif,S27W060,-27,-24,-60,-57
ESA_WorldCover_10m_2021_v200_S27W063_Map.tif,S27W063,-27,-24,-63,-60
ESA_WorldCover_10m_2021_v200_S27W066_Map.tif,S27W066,-27,-24,-66,-63
ESA_WorldCover_10m_2021_v200_S27W069_Map.tif,S27W069,-27,-24,-69,-66
ESA_WorldCover_10m_2021_v200_S27W072_Map.tif,S27W072,-27,-24,-72,-69
ESA_WorldCover_10m_2021_v200_S27W126_Map.tif,S27W126,-27,-24,-126,-123
ESA_WorldCover_10m_2021_v200_S27W129_Map.tif,S27W129,-27,-24,-129,-126
ESA_WorldCover_10m_2021_v200_S27W132_Map.tif,S27W132,-27,-24,-132,-129
ESA_WorldCover_10m_2021_v200_S30E015_Map.tif,S30E015,-30,-27,15,18
ESA_WorldCover_10m_2021_v200_S30E018_Map.tif,S30E018,-30,-27,18,21
ESA_WorldCover_10m_2021_v200_S30E021_Map.tif,S30E021,-30,-27,21,24
ESA_WorldCover_10m_2021_v200_S30E024_Map.tif,S30E024,-30,-27,24,27
ESA_WorldCover_10m_2021_v200_S30E027_Map.tif,S30E027,-30,-27,27,30
ESA_WorldCover_10m_2021_v200_S30E030_Map.tif,S30E030,-30,-27,30,33
ESA_WorldCover_10m_2021_v200_S30E111_Map.tif,S30E111,-30,-27,111,114
ESA_WorldCover_10m_2021_v200_S30E114_Map.tif,S30E114,-30,-27,114,117
ESA_WorldCover_10m_2021_v200_S30E117_Map.tif,S30E117,-30,-27,117,120
ESA_WorldCover_10m_2021_v200_S30E120_Map.tif,S30E120,-30,-27,120,123
ESA_WorldCover_10m_2021_v200_S30E123_Map.tif,S30E123,-30,-27,123,126
ESA_WorldCover_10m_2021_v200_S30E126_Map.tif,S30E126,-30,-27,126,129
ESA_WorldCover_10m_2021_v200_S30E129_Map.tif,S30E129,-30,-27,129,132
ESA_WorldCover_10m_2021_v200_S30E132_Map.tif,S30E132,-30,-27,132,135
ESA_WorldCover_10m_2021_v200_S30E135_Map.tif,S30E135,-30,-27,135,138
ESA_WorldCover_10m_2021_v200_S30E138_Map.tif,S30E138,-30,-27,138,141
ESA_WorldCover_10m_2021_v200_S30E141_Map.tif,S30E141,-30,-27,141,144
ESA_WorldCover_10m_2021_v200_S30E144_Map.tif,S30E144,-30,-27,144,147
ESA_WorldCover_10m_2021_v200_S30E147_Map.tif,S30E147,-30,-27,147,150
ESA_WorldCover_10m_2021_v200_S30E150_Map.tif,S30E150,-30,-27,150,153
ESA_WorldCover_10m_2021_v200_S30E153_Map.tif,S30E153,-30,-27,153,156
ESA_WorldCover_10m_2021_v200_S30W051_Map.tif,S30W051,-30,-27,-51,-48
ESA_WorldCover_10m_2021_v200_S30W054_Map.tif,S30W054,-30,-27,-54,-51
ESA_WorldCover_10m_2021_v200_S30W057_Map.tif,S30W057,-30,-27,-57,-54
ESA_WorldCover_10m_2021_v200_S30W060_Map.tif,S30W060,-30,-27,-60,-57
ESA_WorldCover_10m_2021_v200_S30W063_Map.tif,S30W063,-30,-27,-63,-60
ESA_WorldCover_10m_2021_v200_S30W066_Map.tif,S30W066,-30,-27,-66,-63
ESA_WorldCover_10m_2021_v200_S30W069_Map.tif,S30W069,-30,-27,-69,-66
ESA_WorldCover_10m_2021_v200_S30W072_Map.tif,S30W072,-30,-27,-72,-69
ESA_WorldCover_10m_2021_v200_S30W111_Map.tif,S30W111,-30,-27,-111,-108
ESA_WorldCover_10m_2021_v200_S30W144_Map.tif,S30W144,-30,-27,-144,-141
ESA_WorldCover_10m_2021_v200_S30W147_Map.tif,S30W147,-30,-27,-147,-144
ESA_WorldCover_10m_2021_v200_S33E015_Map.tif,S33E015,-33,-30,15,18
ESA_WorldCover_10m_2021_v200_S33E018_Map.tif,S33E018,-33,-30,18,21
ESA_WorldCover_10m_2021_v200_S33E021_Map.tif,S33E021,-33,-30,21,24
ESA_WorldCover_10m_2021_v200_S33E024_Map.tif,S33E024,-33,-30,24,27
ESA_WorldCover_10m_2021_v200_S33E027_Map.tif,S33E027,-33,-30,27,30
ESA_WorldCover_10m_2021_v200_S33E030_Map.tif,S33E030,-33,-30,30,33
ESA_WorldCover_10m_2021_v200_S33E114_Map.tif,S33E114,-33,-30,114,117
ESA_WorldCover_10m_2021_v200_S33E117_Map.tif,S33E117,-33,-30,117,120
ESA_WorldCover_10m_2021_v200_S33E120_Map.tif,S33E120,-33,-30,120,123
ESA_WorldCover_10m_2021_v200_S33E123_Map.tif,S33E123,-33,-30,123,126
ESA_WorldCover_10m_2021_v200_S33E126_Map.tif,S33E126,-33,-30,126,129
ESA_WorldCover_10m_2021_v200_S33E129_Map.tif,S33E129,-33,-30,129,132
ESA_WorldCover_10m_2021_v200_S33E132_Map.tif,S33E132,-33,-30,132,135
ESA_WorldCover_10m_2021_v200_S33E135_Map.tif,S33E135,-33,-30,135,138
ESA_WorldCover_10m_2021_v200_S33E138_Map.tif,S33E138,-33,-30,138,141
ESA_WorldCover_10m_2021_v200_S33E141_Map.tif,S33E141,-33,-30,141,144
ESA_WorldCover_10m_2021_v200_S33E144_Map.tif,S33E144,-33,-30,144,147
ESA_WorldCover_10m_2021_v200_S33E147_Map.tif,S33E147,-33,-30,147,150
ESA_WorldCover_10m_2021_v200_S33E150_Map.tif,S33E150,-33,-30,150,153
ESA_WorldCover_10m_2021_v200_S33E153_Map.tif,S33E153,-33,-30,153,156
ESA_WorldCover_10m_2021_v200_S33W051_Map.tif,S33W051,-33,-30,-51,-48
ESA_WorldCover_10m_2021_v200_S33W054_Map.tif,S33W054,-33,-30,-54,-51
ESA_WorldCover_10m_2021_v200_S33W057_Map.tif,S33W057,-33,-30,-57,-54
ESA_WorldCover_10m_2021_v200_S33W060_Map.tif,S33W060,-33,-30,-60,-57
ESA_WorldCover_10m_2021_v200_S33W063_Map.tif,S33W063,-33,-30,-63,-60
ESA_WorldCover_10m_2021_v200_S33W066_Map.tif,S33W066,-33,-30,-66,-63
ESA_WorldCover_10m_2021_v200_S33W069_Map.tif,S33W069,-33,-30,-69,-66
ESA_WorldCover_10m_2021_v200_S33W072_Map.tif,S33W072,-33,-30,-72,-69
ESA_WorldCover_10m_2021_v200_S36E015_Map.tif,S36E015,-36,-33,15,18
ESA_WorldCover_10m_2021_v200_S36E018_Map.tif,S36E018,-36,-33,18,21
ESA_WorldCover_10m_2021_v200_S36E021_Map.tif,S36E021,-36,-33,21,24
ESA_WorldCover_10m_2021_v200_S36E024_Map.tif,S36E024,-36,-33,24,27
ESA_WorldCover_10m_2021_v200_S36E027_Map.tif,S36E027,-36,-33,27,30
ESA_WorldCover_10m_2021_v200_S36E114_Map.tif,S36E114,-36,-33,114,117
ESA_WorldCover_10m_2021_v200_S36E117_Map.tif,S36E117,-36,-33,117,120
ESA_WorldCover_10m_2021_v200_S36E120_Map.tif,S36E120,-36,-33,120,123
ESA_WorldCover_10m_2021_v200_S36E123_Map.tif,S36E123,-36,-33,123,126
ESA_WorldCover_10m_2021_v200_S36E132_Map.tif,S36E132,-36,-33,132,135
ESA_WorldCover_10m_2021_v200_S36E135_Map.tif,S36E135,-36,-33,135,138
ESA_WorldCover_10m_2021_v200_S36E138_Map.tif,S36E138,-36,-33,138,141
ESA_WorldCover_10m_2021_v200_S36E141_Map.tif,S36E141,-36,-33,141,144
ESA_WorldCover_10m_2021_v200_S36E144_Map.tif,S36E144,-36,-33,144,147
ESA_WorldCover_10m_2021_v200_S36E147_Map.tif,S36E147,-36,-33,147,150
ESA_WorldCover_10m_2021_v200_S36E150_Map.tif,S36E150,-36,-33,150,153
ESA_WorldCover_10m_2021_v200_S36E171_Map.tif,S36E171,-36,-33,171,174
ESA_WorldCover_10m_2021_v200_S36E174_Map.tif,S36E174,-36,-33,174,177
ESA_WorldCover_10m_2021_v200_S36W054_Map.tif,S36W054,-36,-33,-54,-51
ESA_WorldCover_10m_2021_v200_S36W057_Map.tif,S36W057,-36,-33,-57,-54
ESA_WorldCover_10m_2021_v200_S36W060_Map.tif,S36W060,-36,-33,-60,-57
ESA_WorldCover_10m_2021_v200_S36W063_Map.tif,S36W063,-36,-33,-63,-60
ESA_WorldCover_10m_2021_v200_S36W066_Map.tif,S36W066,-36,-33,-66,-63
ESA_WorldCover_10m_2021_v200_S36W069_Map.tif,S36W069,-36,-33,-69,-66
ESA_WorldCover_10m_2021_v200_S36W072_Map.tif,S36W072,-36,-33,-72,-69
ESA_WorldCover_10m_2021_v200_S36W075_Map.tif,S36W075,-36,-33,-75,-72
ESA_WorldCover_10m_2021_v200_S36W081_Map.tif,S36W081,-36,-33,-81,-78
ESA_WorldCover_10m_2021_v200_S39E135_Map.tif,S39E135,-39,-36,135,138
ESA_WorldCover_10m_2021_v200_S39E138_Map.tif,S39E138,-39,-36,138,141
ESA_WorldCover_10m_2021_v200_S39E141_Map.tif,S39E141,-39,-36,141,144
ESA_WorldCover_10m_2021_v200_S39E144_Map.tif,S39E144,-39,-36,144,147
ESA_WorldCover_10m_2021_v200_S39E147_Map.tif,S39E147,-39,-36,147,150
ESA_WorldCover_10m_2021_v200_S39E150_Map.tif,S39E150,-39,-36,150,153
ESA_WorldCover_10m_2021_v200_S39E171_Map.tif,S39E171,-39,-36,171,174
ESA_WorldCover_10m_2021_v200_S39E174_Map.tif,S39E174,-39,-36,174,177
ESA_WorldCover_10m_2021_v200_S39E177_Map.tif,S39E177,-39,-36,177,180
ESA_WorldCover_10m_2021_v200_S39W015_Map.tif,S39W015,-39,-36,-15,-12
ESA_WorldCover_10m_2021_v200_S39W057_Map.tif,S39W057,-39,-36,-57,-54
ESA_WorldCover_10m_2021_v200_S39W060_Map.tif,S39W060,-39,-36,-60,-57
ESA_WorldCover_10m_2021_v200_S39W063_Map.tif,S39W063,-39,-36,-63,-60
ESA_WorldCover_10m_2021_v200_S39W066_Map.tif,S39W066,-39,-36,-66,-63
ESA_WorldCover_10m_2021_v200_S39W069_Map.tif,S39W069,-39,-36,-69,-66
ESA_WorldCover_10m_2021_v200_S39W072_Map.tif,S39W072,-39,-36,-72,-69
ESA_WorldCover_10m_2021_v200_S39W075_Map.tif,S39W075,-39,-36,-75,-72
ESA_WorldCover_10m_2021_v200_S42E141_Map.tif,S42E141,-42,-39,141,144
ESA_WorldCover_10m_2021_v200_S42E144_Map.tif,S42E144,-42,-39,144,147
ESA_WorldCover_10m_2021_v200_S42E147_Map.tif,S42E147,-42,-39,147,150
ESA_WorldCover_10m_2021_v200_S42E171_Map.tif,S42E171,-42,-39,171,174
ESA_WorldCover_10m_2021_v200_S42E174_Map.tif,S42E174,-42,-39,174,177
ESA_WorldCover_10m_2021_v200_S42E177_Map.tif,S42E177,-42,-39,177,180
ESA_WorldCover_10m_2021_v200_S42W012_Map.tif,S42W012,-42,-39,-12,-9
ESA_WorldCover_10m_2021_v200_S42W063_Map.tif,S42W063,-42,-39,-63,-60
ESA_WorldCover_10m_2021_v200_S42W066_Map.tif,S42W066,-42,-39,-66,-63
ESA_WorldCover_10m_2021_v200_S42W069_Map.tif,S42W069,-42,-39,-69,-66
ESA_WorldCover_10m_2021_v200_S42W072_Map.tif,S42W072,-42,-39,-72,-69
ESA_WorldCover_10m_2021_v200_S42W075_Map.tif,S42W075,-42,-39,-75,-72
ESA_WorldCover_10m_2021_v200_S45E144_Map.tif,S45E144,-45,-42,144,147
ESA_WorldCover_10m_2021_v200_S45E147_Map.tif,S45E147,-45,-42,147,150
ESA_WorldCover_10m_2021_v200_S45E165_Map.tif,S45E165,-45,-42,165,168
ESA_WorldCover_10m_2021_v200_S45E168_Map.tif,S45E168,-45,-42,168,171
ESA_WorldCover_10m_2021_v200_S45E171_Map.tif,S45E171,-45,-42,171,174
ESA_WorldCover_10m_2021_v200_S45E174_Map.tif,S45E174,-45,-42,174,177
ESA_WorldCover_10m_2021_v200_S45W066_Map.tif,S45W066,-45,-42,-66,-63
ESA_WorldCover_10m_2021_v200_S45W069_Map.tif,S45W069,-45,-42,-69,-66
ESA_WorldCover_10m_2021_v200_S45W072_Map.tif,S45W072,-45,-42,-72,-69
ESA_WorldCover_10m_2021_v200_S45W075_Map.tif,S45W075,-45,-42,-75,-72
ESA_WorldCover_10m_2021_v200_S45W078_Map.tif,S45W078,-45,-42,-78,-75
ESA_WorldCover_10m_2021_v200_S45W177_Map.tif,S45W177,-45,-42,-177,-174
ESA_WorldCover_10m_2021_v200_S45W180_Map.tif,S45W180,-45,-42,-180,-177
ESA_WorldCover_10m_2021_v200_S48E036_Map.tif,S48E036,-48,-45,36,39
ESA_WorldCover_10m_2021_v200_S48E048_Map.tif,S48E048,-48,-45,48,51
ESA_WorldCover_10m_2021_v200_S48E051_Map.tif,S48E051,-48,-45,51,54
ESA_WorldCover_10m_2021_v200_S48E165_Map.tif,S48E165,-48,-45,165,168
ESA_WorldCover_10m_2021_v200_S48E168_Map.tif,S48E168,-48,-45,168,171
ESA_WorldCover_10m_2021_v200_S48E171_Map.tif,S48E171,-48,-45,171,174
ESA_WorldCover_10m_2021_v200_S48W066_Map.tif,S48W066,-48,-45,-66,-63
ESA_WorldCover_10m_2021_v200_S48W069_Map.tif,S48W069,-48,-45,-69,-66
ESA_WorldCover_10m_2021_v200_S48W072_Map.tif,S48W072,-48,-45,-72,-69
ESA_WorldCover_10m_2021_v200_S48W075_Map.tif,S48W075,-48,-45,-75,-72
ESA_WorldCover_10m_2021_v200_S48W078_Map.tif,S48W078,-48,-45,-78,-75
ESA_WorldCover_10m_2021_v200_S51E066_Map.tif,S51E066,-51,-48,66,69
ESA_WorldCover_10m_2021_v200_S51E069_Map.tif,S51E069,-51,-48,69,72
ESA_WorldCover_10m_2021_v200_S51E165_Map.tif,S51E165,-51,-48,165,168
ESA_WorldCover_10m_2021_v200_S51W063_Map.tif,S51W063,-51,-48,-63,-60
ESA_WorldCover_10m_2021_v200_S51W066_Map.tif,S51W066,-51,-48,-66,-63
ESA_WorldCover_10m_2021_v200_S51W069_Map.tif,S51W069,-51,-48,-69,-66
ESA_WorldCover_10m_2021_v200_S51W072_Map.tif,S51W072,-51,-48,-72,-69
ESA_WorldCover_10m_2021_v200_S51W075_Map.tif,S51W075,-51,-48,-75,-72
ESA_WorldCover_10m_2021_v200_S51W078_Map.tif,S51W078,-51,-48,-78,-75
ESA_WorldCover_10m_2021_v200_S54E072_Map.tif,S54E072,-54,-51,72,75
ESA_WorldCover_10m_2021_v200_S54E165_Map.tif,S54E165,-54,-51,165,168
ESA_WorldCover_10m_2021_v200_S54E168_Map.tif,S54E168,-54,-51,168,171
ESA_WorldCover_10m_2021_v200_S54W039_Map.tif,S54W039,-54,-51,-39,-36
ESA_WorldCover_10m_2021_v200_S54W060_Map.tif,S54W060,-54,-51,-60,-57
ESA_WorldCover_10m_2021_v200_S54W063_Map.tif,S54W063,-54,-51,-63,-60
ESA_WorldCover_10m_2021_v200_S54W069_Map.tif,S54W069,-54,-51,-69,-66
ESA_WorldCover_10m_2021_v200_S54W072_Map.tif,S54W072,-54,-51,-72,-69
ESA_WorldCover_10m_2021_v200_S54W075_Map.tif,S54W075,-54,-51,-75,-72
ESA_WorldCover_10m_2021_v200_S54W078_Map.tif,S54W078,-54,-51,-78,-75
ESA_WorldCover_10m_2021_v200_S57E156_Map.tif,S57E156,-57,-54,156,159
ESA_WorldCover_10m_2021_v200_S57E159_Map.tif,S57E159,-57,-54,159,162
ESA_WorldCover_10m_2021_v200_S57W027_Map.tif,S57W027,-57,-54,-27,-24
ESA_WorldCover_10m_2021_v200_S57W030_Map.tif,S57W030,-57,-54,-30,-27
ESA_WorldCover_10m_2021_v200_S57W036_Map.tif,S57W036,-57,-54,-36,-33
ESA_WorldCover_10m_2021_v200_S57W039_Map.tif,S57W039,-57,-54,-39,-36
ESA_WorldCover_10m_2021_v200_S57W066_Map.tif,S57W066,-57,-54,-66,-63
ESA_WorldCover_10m_2021_v200_S57W069_Map.tif,S57W069,-57,-54,-69,-66
ESA_WorldCover_10m_2021_v200_S57W072_Map.tif,S57W072,-57,-54,-72,-69
ESA_WorldCover_10m_2021_v200_S57W075_Map.tif,S57W075,-57,-54,-75,-72
ESA_WorldCover_10m_2021_v200_S60W027_Map.tif,S60W027,-60,-57,-27,-24
ESA_WorldCover_10m_2021_v200_S60W030_Map.tif,S60W030,-60,-57,-30,-27
